{"type":"FeatureCollection","features":[{"type":"Feature","properties":{"periodId":"au-lac","name":"Âu Lạc","control":"direct","confidence":"low","height":12000,"color":"#d7a050","geometrySourceId":"diaocthongthai-atlas","geometrySourceUrl":"https://cdn.diaocthongthai.com/2021/08/ban-do-lanh-tho-viet-nam-qua-cac-thoi-ky-2.jpg","geometrySourcePageUrl":"https://diaocthongthai.com/ban-do-lanh-tho-viet-nam-qua-cac-thoi-ky/","imageYear":"Âu Lạc","reconstructionMethod":"georeferenced-image-color-trace","precision":"illustrative-trace","georeferenceAccuracyKm":50,"sourceIds":"museum-hung-kings,diaocthongthai-atlas","referenceSourceIds":"wikipedia-territorial-history,diaocthongthai-atlas,commons-van-lang-au-lac"},"geometry":{"type":"Polygon","coordinates":[[[105.1215,23.9034],[105.5279,23.7441],[105.5444,23.6854],[105.8153,23.5792],[105.8317,23.5204],[105.8994,23.4939],[105.9671,23.4673],[105.9834,23.4085],[106.1866,23.3288],[106.2028,23.27],[106.4737,23.1638],[106.4898,23.1049],[106.5575,23.0783],[106.6253,23.0518],[106.6413,22.9928],[106.709,22.9663],[106.7767,22.9397],[106.7927,22.8808],[107.0635,22.7745],[107.0794,22.7155],[107.3503,22.6092],[107.366,22.5502],[107.7723,22.3908],[107.788,22.3317],[108.0589,22.2254],[108.1052,22.0478],[108.0375,22.0743],[108.083,21.8962],[108.0153,21.9228],[108.0892,21.6249],[108.1569,21.5983],[108.2247,21.5718],[108.2392,21.512],[108.1714,21.5386],[108.1037,21.5652],[108.1181,21.5054],[108.0504,21.532],[108.0647,21.4721],[107.997,21.4987],[107.9293,21.5252],[107.9435,21.4654],[107.8758,21.4919],[107.808,21.5185],[107.8222,21.4586],[107.7544,21.4851],[107.7685,21.4252],[107.7007,21.4517],[107.7147,21.3917],[107.7285,21.3316],[107.6608,21.3582],[107.593,21.3848],[107.6068,21.3246],[107.5391,21.3512],[107.5527,21.291],[107.485,21.3176],[107.4985,21.2574],[107.4308,21.2839],[107.4442,21.2237],[107.3765,21.2502],[107.3899,21.1899],[107.3221,21.2165],[107.2544,21.243],[107.2677,21.1827],[107.2,21.2092],[107.2131,21.1488],[107.1454,21.1754],[107.1585,21.1149],[107.0907,21.1415],[107.023,21.168],[107.0616,20.9863],[106.9939,21.0129],[107.0066,20.9522],[106.9389,20.9788],[106.9514,20.9181],[106.6806,21.0243],[106.693,20.9635],[106.6253,20.9901],[106.5576,21.0167],[106.6066,20.7731],[106.268,20.9059],[106.28,20.8449],[106.2919,20.7838],[106.2242,20.8104],[106.236,20.7493],[106.1683,20.7759],[106.2259,20.4696],[106.1582,20.4961],[106.0905,20.5227],[106.1017,20.4613],[106.034,20.4878],[106.0452,20.4264],[105.9774,20.4529],[105.9885,20.3914],[105.9208,20.418],[105.9317,20.3564],[105.864,20.383],[105.8749,20.3214],[105.6717,20.4011],[105.6825,20.3394],[105.6147,20.366],[105.6254,20.3043],[105.636,20.2425],[105.5683,20.2691],[105.5787,20.2073],[105.5891,20.1454],[105.5214,20.172],[105.5914,19.7376],[105.5236,19.7642],[105.5332,19.7019],[105.5428,19.6396],[105.475,19.6662],[105.5301,19.2913],[105.5979,19.2648],[105.6067,19.2021],[105.6744,19.1756],[105.7421,19.149],[105.7509,19.0863],[105.6832,19.1129],[105.7337,18.7357],[105.8014,18.7091],[105.8095,18.6461],[105.8174,18.583],[105.7497,18.6095],[105.7417,18.6726],[105.674,18.6992],[105.6063,18.7257],[105.5982,18.7888],[105.5305,18.8154],[105.5223,18.8783],[105.5141,18.9413],[105.4463,18.9678],[105.438,19.0307],[105.3702,19.0573],[105.3618,19.1201],[105.2941,19.1467],[105.2855,19.2095],[105.2178,19.2361],[105.2091,19.2988],[105.1414,19.3254],[105.1327,19.3881],[105.0649,19.4146],[104.9972,19.4412],[104.9884,19.5038],[104.9206,19.5304],[104.9117,19.593],[104.844,19.6195],[104.7763,19.6461],[104.7672,19.7086],[104.6995,19.7352],[104.6318,19.7618],[104.6227,19.8243],[104.5549,19.8508],[104.5457,19.9133],[104.478,19.9398],[104.4687,20.0022],[104.4009,20.0288],[104.3915,20.0911],[104.382,20.1534],[104.3143,20.18],[104.3047,20.2422],[104.5756,20.136],[104.5658,20.1982],[104.9722,20.0389],[104.9624,20.101],[105.0301,20.0744],[105.0202,20.1365],[105.0879,20.11],[105.0576,20.296],[105.1253,20.2694],[105.0622,20.6401],[105.1299,20.6135],[105.0519,21.0437],[104.9842,21.0703],[104.9727,21.1316],[104.9049,21.1581],[104.8933,21.2193],[104.8816,21.2805],[104.8139,21.307],[104.7462,21.3336],[104.7343,21.3947],[104.6666,21.4213],[104.6547,21.4823],[104.587,21.5089],[104.575,21.5699],[104.5073,21.5965],[104.4952,21.6574],[104.4274,21.684],[104.4152,21.7449],[104.3475,21.7715],[104.3352,21.8323],[104.2675,21.8589],[104.2551,21.9197],[104.1874,21.9463],[104.1749,22.007],[104.1072,22.0336],[104.0946,22.0943],[104.0819,22.155],[104.0142,22.1815],[104.0014,22.2421],[103.9337,22.2687],[103.9208,22.3292],[103.8531,22.3558],[103.8402,22.4163],[103.8271,22.4768],[103.7594,22.5033],[103.7196,22.6844],[103.6519,22.711],[103.6385,22.7713],[103.6249,22.8315],[103.5572,22.8581],[103.5436,22.9182],[103.4758,22.9448],[103.4621,23.0049],[103.3944,23.0315],[103.3385,23.2714],[103.4062,23.2449],[103.392,23.3048],[103.4597,23.2782],[103.5275,23.2516],[103.5131,23.3115],[103.7163,23.2318],[103.7019,23.2915],[103.7696,23.265],[103.7551,23.3247],[103.8228,23.2981],[103.8083,23.3578],[103.7936,23.4174],[103.8613,23.3909],[103.8465,23.4505],[103.9142,23.4239],[103.8993,23.4834],[103.9671,23.4569],[104.0348,23.4303],[104.0198,23.4898],[104.0875,23.4632],[104.0724,23.5226],[104.1402,23.4961],[104.2079,23.4695],[104.1927,23.5289],[104.4636,23.4227],[104.4483,23.482],[104.5161,23.4554],[104.5007,23.5147],[104.4852,23.5739],[104.553,23.5474],[104.5374,23.6065],[104.6051,23.58],[104.6728,23.5534],[104.6256,23.7307],[104.6933,23.7041],[104.6774,23.7631],[104.7451,23.7365],[104.7291,23.7955],[104.7968,23.7689],[104.7807,23.8278],[104.8484,23.8012],[104.8322,23.86],[104.8999,23.8335],[104.8836,23.8923],[104.9513,23.8657],[105.019,23.8391],[105.0026,23.8979],[105.0703,23.8713],[105.1381,23.8448],[105.1215,23.9034]]]}}]}
