{"type":"FeatureCollection","features":[{"type":"Feature","properties":{"periodId":"bac-thuoc-2","name":"Giao Châu · lệ thuộc các triều đại phương Bắc","control":"autonomous","confidence":"medium","height":12000,"color":"#9a8261","geometrySourceId":"diaocthongthai-atlas","geometrySourceUrl":"https://cdn.diaocthongthai.com/2021/08/ban-do-lanh-tho-viet-nam-qua-cac-thoi-ky-4.jpg","geometrySourcePageUrl":"https://diaocthongthai.com/ban-do-lanh-tho-viet-nam-qua-cac-thoi-ky/","imageYear":"Bắc thuộc II","reconstructionMethod":"georeferenced-image-color-trace","precision":"illustrative-trace","georeferenceAccuracyKm":50,"sourceIds":"museum-overview,diaocthongthai-atlas","referenceSourceIds":"wikipedia-territorial-history,diaocthongthai-atlas"},"geometry":{"type":"MultiPolygon","coordinates":[[[[108.762,22.7357],[109.7101,22.3639],[110.2608,20.2317],[110.1931,20.2583],[110.1254,20.2848],[110.1389,20.2247],[109.9357,20.3044],[109.881,20.5446],[109.8133,20.5712],[109.7571,20.8107],[109.6894,20.8372],[109.6751,20.897],[109.6607,20.9567],[109.7284,20.9301],[109.625,21.3466],[109.2864,21.4794],[109.3015,21.4201],[109.2338,21.4466],[109.2487,21.3872],[109.181,21.4138],[109.1133,21.4403],[109.0983,21.4997],[108.4888,21.7388],[108.5038,21.6794],[108.5187,21.6199],[108.3155,21.6996],[108.3303,21.6401],[108.345,21.5806],[108.2772,21.6071],[108.2918,21.5475],[108.2241,21.5741],[108.2386,21.5144],[108.1709,21.541],[108.1031,21.5676],[108.1175,21.5079],[108.0498,21.5344],[108.0641,21.4747],[107.9964,21.5012],[107.9287,21.5278],[107.9429,21.468],[107.8751,21.4946],[107.8074,21.5211],[107.8215,21.4613],[107.7538,21.4878],[107.7678,21.4279],[107.7817,21.368],[107.714,21.3946],[107.7278,21.3346],[107.6601,21.3611],[107.5924,21.3877],[107.6061,21.3276],[107.5384,21.3542],[107.552,21.2941],[107.4843,21.3207],[107.4978,21.2605],[107.4301,21.2871],[107.4435,21.2269],[107.3758,21.2534],[107.3891,21.1932],[107.186,21.2729],[107.1992,21.2126],[107.2124,21.1523],[107.1446,21.1788],[107.0769,21.2054],[107.09,21.145],[107.0223,21.1715],[106.9545,21.1981],[107.0058,20.9561],[106.9381,20.9826],[106.8703,21.0092],[106.8829,20.9485],[106.6798,21.0282],[106.6922,20.9675],[106.3536,21.1003],[106.366,21.0396],[106.2983,21.0662],[106.3349,20.8836],[106.2671,20.9102],[106.2791,20.8493],[106.2114,20.8758],[106.2233,20.8149],[106.1556,20.8414],[106.2137,20.5358],[106.146,20.5623],[106.1573,20.501],[106.0896,20.5276],[106.1008,20.4663],[106.0331,20.4928],[105.9654,20.5194],[105.9765,20.458],[105.9088,20.4846],[105.9198,20.4231],[105.9308,20.3617],[105.7276,20.4413],[105.7385,20.3798],[105.6708,20.4064],[105.603,20.4329],[105.6138,20.3714],[105.6245,20.3097],[105.5567,20.3363],[105.5673,20.2746],[105.5778,20.2129],[105.5101,20.2395],[105.5709,19.8681],[105.5032,19.8946],[105.6145,19.1465],[105.6822,19.12],[105.7327,18.7433],[105.8004,18.7167],[105.8085,18.6537],[105.8165,18.5907],[105.7487,18.6173],[105.7408,18.6803],[105.673,18.7069],[105.665,18.7698],[105.5972,18.7964],[105.5891,18.8593],[105.5213,18.8858],[105.4536,18.9124],[105.4453,18.9753],[105.3776,19.0018],[105.3693,19.0646],[105.3608,19.1274],[105.2931,19.154],[105.2845,19.2167],[105.2168,19.2432],[105.2081,19.3059],[105.1404,19.3325],[105.1317,19.3951],[104.5222,19.6341],[104.4677,20.0087],[104.4,20.0353],[104.3905,20.0976],[104.3228,20.1241],[104.3133,20.1864],[104.381,20.1598],[104.3714,20.222],[104.6423,20.1157],[104.5928,20.4258],[105.1346,20.2133],[105.0933,20.4605],[105.161,20.434],[105.0395,21.1097],[104.9718,21.1362],[104.9602,21.1974],[104.6893,21.3036],[104.6539,21.4867],[104.5861,21.5133],[104.5741,21.5742],[104.5064,21.6008],[104.4943,21.6616],[104.4266,21.6882],[104.4144,21.749],[104.3467,21.7756],[104.3344,21.8364],[104.2667,21.8629],[104.2543,21.9237],[104.1866,21.9502],[104.1741,22.0109],[104.1064,22.0375],[104.0938,22.0981],[104.0811,22.1587],[104.0134,22.1853],[104.0007,22.2458],[103.7298,22.352],[103.6242,22.8346],[103.5565,22.8611],[103.5429,22.9212],[103.4752,22.9478],[103.4074,22.9743],[103.3379,23.2741],[103.4056,23.2475],[103.3914,23.3073],[103.4591,23.2807],[103.4448,23.3405],[103.7157,23.2342],[103.7013,23.2939],[103.769,23.2674],[103.7546,23.327],[103.8223,23.3005],[103.8077,23.3601],[103.8754,23.3335],[103.8607,23.3931],[103.846,23.4526],[103.9137,23.426],[103.8988,23.4854],[103.9665,23.4589],[103.9516,23.5183],[104.0193,23.4917],[104.087,23.4652],[104.072,23.5245],[104.1397,23.498],[104.2074,23.4714],[104.1923,23.5307],[104.3954,23.451],[104.3802,23.5103],[104.4479,23.4837],[104.4325,23.5429],[104.5003,23.5164],[104.4848,23.5755],[104.5525,23.549],[104.537,23.6081],[104.6047,23.5815],[104.5891,23.6406],[104.5734,23.6996],[104.6411,23.673],[104.6253,23.732],[104.693,23.7054],[104.7607,23.6788],[104.7448,23.7377],[104.8125,23.7112],[104.7965,23.77],[104.7804,23.8288],[104.8481,23.8023],[104.9158,23.7757],[104.8996,23.8345],[104.9673,23.8079],[104.951,23.8666],[105.0188,23.8401],[105.0024,23.8987],[105.0701,23.8722],[105.1378,23.8456],[105.1213,23.9042],[105.4599,23.7714],[105.4764,23.7128],[105.6796,23.6331],[105.696,23.5745],[105.9668,23.4682],[105.9831,23.4095],[106.0509,23.383],[106.0671,23.3242],[106.4057,23.1914],[106.4218,23.1326],[106.4895,23.106],[106.5572,23.0795],[106.5732,23.0206],[106.8441,22.9144],[106.86,22.8555],[106.9278,22.8289],[106.9955,22.8024],[107.0113,22.7434],[107.2145,22.6637],[107.2302,22.6047],[108.1783,22.2329],[108.1625,22.2919],[108.2303,22.2653],[108.2144,22.3243],[108.2822,22.2977],[108.1187,22.8846],[108.7959,22.619],[108.779,22.6774],[108.762,22.7357]]],[[[106.1107,18.2952],[106.1785,18.2686],[106.1861,18.2054],[106.2538,18.1788],[106.3215,18.1523],[106.329,18.089],[106.3967,18.0625],[106.4644,18.0359],[106.5075,17.6553],[106.5752,17.6288],[106.582,17.5652],[106.6498,17.5386],[106.6565,17.4749],[106.6632,17.4112],[106.7309,17.3847],[106.7374,17.3209],[106.9406,17.2413],[106.947,17.1775],[107.0148,17.1509],[107.0825,17.1243],[107.0888,17.0605],[107.1566,17.0339],[107.1628,16.97],[107.169,16.9061],[107.2367,16.8795],[107.3044,16.853],[107.3105,16.789],[107.3165,16.7249],[107.3842,16.6984],[107.3901,16.6343],[107.4578,16.6077],[107.4636,16.5436],[107.5313,16.517],[107.537,16.4528],[107.6047,16.4262],[107.6725,16.3997],[107.6781,16.3354],[107.6836,16.2711],[107.7513,16.2446],[107.7567,16.1802],[107.8244,16.1537],[107.8921,16.1271],[107.8974,16.0627],[107.9652,16.0362],[108.0329,16.0096],[108.0381,15.9452],[108.1058,15.9186],[108.1109,15.8541],[108.116,15.7896],[108.3191,15.7099],[108.324,15.6453],[108.3918,15.6187],[108.3966,15.5541],[108.4643,15.5275],[108.469,15.4628],[108.4737,15.3981],[108.5414,15.3715],[108.6091,15.345],[108.6137,15.2802],[108.6814,15.2536],[108.6858,15.1888],[108.6902,15.1239],[108.7579,15.0973],[108.7622,15.0324],[108.8299,15.0059],[108.8341,14.9409],[108.8381,14.8758],[108.9059,14.8493],[108.9098,14.7842],[108.9137,14.719],[108.9814,14.6925],[108.9852,14.6273],[109.0529,14.6007],[109.0566,14.5355],[109.0602,14.4702],[109.1279,14.4437],[109.1314,14.3783],[109.1348,14.313],[109.2025,14.2864],[109.2122,14.09],[109.2799,14.0634],[109.2829,13.9978],[109.2858,13.9322],[109.2181,13.9587],[109.1504,13.9853],[109.1532,13.9196],[109.0855,13.9462],[109.0178,13.9727],[109.0149,14.0384],[108.9472,14.065],[108.9443,14.1306],[108.9413,14.1962],[108.8735,14.2227],[108.8704,14.2883],[108.8672,14.3538],[108.7995,14.3803],[108.7962,14.4458],[108.7928,14.5111],[108.7251,14.5377],[108.7216,14.603],[108.6539,14.6296],[108.6503,14.6949],[108.5826,14.7214],[108.5789,14.7867],[108.5112,14.8132],[108.5074,14.8784],[108.4397,14.905],[108.4358,14.9701],[108.3681,14.9967],[108.3003,15.0232],[108.2964,15.0883],[108.2923,15.1533],[108.2246,15.1799],[108.2204,15.2449],[108.2162,15.3098],[108.1484,15.3364],[108.0807,15.3629],[108.0764,15.4278],[108.0086,15.4544],[108.0042,15.5192],[107.9365,15.5458],[107.9319,15.6106],[107.8642,15.6371],[107.8596,15.7019],[107.7918,15.7284],[107.7871,15.7931],[107.7194,15.8197],[107.7146,15.8843],[107.7096,15.9489],[107.6419,15.9755],[107.6369,16.04],[107.5692,16.0666],[107.564,16.1311],[107.4963,16.1576],[107.4911,16.2221],[107.4234,16.2486],[107.4181,16.313],[107.3504,16.3396],[107.345,16.4039],[107.2772,16.4305],[107.2717,16.4948],[107.204,16.5213],[107.1984,16.5856],[107.1927,16.6498],[106.4478,16.9419],[106.442,17.0061],[106.5097,16.9795],[106.4328,17.7454],[106.3651,17.772],[106.3581,17.8355],[106.2904,17.8621],[106.2832,17.9255],[106.276,17.9889],[106.2083,18.0155],[106.201,18.0788],[106.1333,18.1054],[106.1107,18.2952]]]]}}]}
