{"type":"FeatureCollection","features":[{"type":"Feature","properties":{"periodId":"chia-cat-1954","name":"Miền Bắc","control":"direct","confidence":"high","height":12000,"color":"#d6a04b","geometrySourceId":"diaocthongthai-atlas","geometrySourceUrl":"https://cdn.diaocthongthai.com/2021/08/ban-do-lanh-tho-viet-nam-qua-cac-thoi-ky-70.jpg","geometrySourcePageUrl":"https://diaocthongthai.com/ban-do-lanh-tho-viet-nam-qua-cac-thoi-ky/","imageYear":"1954","reconstructionMethod":"georeferenced-image-color-trace","precision":"illustrative-trace","georeferenceAccuracyKm":50,"sourceIds":"geneva-1954,mofa-islands-status,diaocthongthai-atlas","referenceSourceIds":"wikipedia-territorial-history,diaocthongthai-atlas"},"geometry":{"type":"Polygon","coordinates":[[[104.5057,23.7261],[104.7765,23.6199],[104.7923,23.5609],[105.2663,23.375],[105.2819,23.3159],[105.6883,23.1565],[105.7038,23.0974],[105.7715,23.0709],[105.8392,23.0443],[105.8547,22.9852],[105.9224,22.9586],[105.9377,22.8994],[106.0055,22.8728],[106.0207,22.8136],[105.953,22.8401],[105.9681,22.7808],[105.9832,22.7215],[105.9155,22.7481],[106.0608,22.1518],[106.264,22.0721],[106.278,22.0123],[106.3457,21.9857],[106.4134,21.9591],[106.4273,21.8992],[106.4411,21.8392],[106.5089,21.8126],[106.5226,21.7526],[106.5903,21.726],[106.658,21.6995],[106.6716,21.6394],[106.7394,21.6128],[106.7529,21.5527],[107.4301,21.2871],[107.4435,21.2269],[107.3758,21.2534],[107.3891,21.1932],[107.3214,21.2198],[107.2537,21.2463],[107.2669,21.186],[107.1992,21.2126],[107.2124,21.1523],[107.1446,21.1788],[107.0769,21.2054],[107.09,21.145],[107.0223,21.1715],[106.9545,21.1981],[106.9675,21.1377],[106.8998,21.1642],[106.9381,20.9826],[106.8703,21.0092],[106.8829,20.9485],[106.6798,21.0282],[106.6922,20.9675],[106.2182,21.1534],[106.2791,20.8493],[106.2114,20.8758],[106.2233,20.8149],[106.1556,20.8414],[106.2137,20.5358],[106.146,20.5623],[106.1573,20.501],[106.0896,20.5276],[106.1008,20.4663],[106.0331,20.4928],[105.9654,20.5194],[105.9765,20.458],[105.9876,20.3966],[105.9198,20.4231],[105.9308,20.3617],[105.8631,20.3882],[105.8739,20.3267],[105.603,20.4329],[105.635,20.2481],[105.5673,20.2746],[105.5778,20.2129],[105.5882,20.1511],[105.5204,20.1777],[105.5904,19.7439],[105.5227,19.7704],[105.5323,19.7083],[105.5418,19.6461],[105.4741,19.6726],[105.5291,19.2983],[105.5969,19.2717],[105.6057,19.2091],[105.6734,19.1826],[105.7327,18.7433],[105.8004,18.7167],[105.8085,18.6537],[105.8165,18.5907],[105.8842,18.5642],[105.8921,18.5011],[105.9598,18.4745],[105.9676,18.4114],[106.0353,18.3849],[106.043,18.3217],[106.1107,18.2952],[106.1785,18.2686],[106.1861,18.2054],[106.2538,18.1788],[106.3215,18.1523],[106.329,18.089],[106.3967,18.0625],[106.4644,18.0359],[106.5075,17.6553],[106.5752,17.6288],[106.582,17.5652],[106.6498,17.5386],[106.6565,17.4749],[106.6632,17.4112],[106.7309,17.3847],[106.7374,17.3209],[106.9406,17.2413],[106.947,17.1775],[107.0148,17.1509],[107.0825,17.1243],[107.0888,17.0605],[107.1566,17.0339],[107.1628,16.97],[107.169,16.9061],[107.2367,16.8795],[107.3044,16.853],[107.3105,16.789],[107.1074,16.8686],[107.1133,16.8046],[106.9102,16.8843],[106.6393,16.9905],[106.6333,17.0546],[106.5656,17.0811],[106.4979,17.1077],[106.4794,17.2995],[106.4116,17.3261],[106.4053,17.3899],[106.3376,17.4165],[106.3311,17.4803],[106.2634,17.5069],[106.1957,17.5334],[106.1891,17.5972],[106.1214,17.6237],[106.1147,17.6874],[106.047,17.714],[106.0403,17.7776],[105.9726,17.8042],[105.9657,17.8678],[105.898,17.8944],[105.8911,17.9579],[105.8233,17.9845],[105.8163,18.048],[105.7486,18.0745],[105.7415,18.138],[105.7343,18.2014],[105.6665,18.228],[105.6592,18.2913],[105.5915,18.3179],[105.569,18.5076],[105.5012,18.5342],[105.4936,18.5974],[105.4858,18.6605],[105.418,18.687],[105.4101,18.7501],[105.207,18.8298],[105.199,18.8928],[105.1313,18.9193],[105.1232,18.9823],[105.0555,19.0088],[105.0473,19.0718],[104.9796,19.0983],[104.9285,19.4747],[104.7254,19.5544],[104.7165,19.617],[104.5133,19.6967],[104.5044,19.7592],[104.4367,19.7857],[104.4276,19.8482],[104.3599,19.8748],[104.3508,19.9372],[104.2831,19.9637],[104.2154,19.9903],[104.2061,20.0527],[104.1384,20.0792],[104.1291,20.1415],[104.0614,20.1681],[103.9936,20.1947],[103.9842,20.2569],[103.9165,20.2835],[103.8488,20.3101],[103.8393,20.3723],[103.7715,20.3988],[103.7038,20.4254],[103.6942,20.4876],[103.6265,20.5141],[103.6168,20.5762],[103.5491,20.6028],[103.5393,20.6649],[103.607,20.6383],[103.5971,20.7003],[103.6648,20.6738],[103.6548,20.7357],[103.7225,20.7092],[103.692,20.8948],[103.7597,20.8682],[103.7493,20.93],[104.3588,20.691],[104.3483,20.7527],[104.4161,20.7261],[104.4055,20.7878],[104.4732,20.7613],[104.419,21.0689],[104.3512,21.0954],[104.3401,21.1568],[104.2724,21.1834],[104.2047,21.2099],[104.1707,21.3938],[103.8998,21.5],[103.8883,21.5612],[103.8766,21.6223],[103.9444,21.5958],[103.8848,21.9007],[103.8171,21.9272],[103.8049,21.9881],[103.7372,22.0146],[103.7249,22.0754],[103.3863,22.2082],[103.3986,22.1474],[103.1954,22.2271],[103.2076,22.1663],[103.2197,22.1054],[103.152,22.132],[103.164,22.071],[103.0963,22.0976],[103.0286,22.1241],[103.0166,22.1851],[102.9489,22.2116],[102.8811,22.2382],[102.869,22.2991],[102.6659,22.3788],[102.6537,22.4396],[102.586,22.4662],[102.5737,22.5269],[102.506,22.5535],[102.4382,22.5801],[102.4259,22.6408],[102.3581,22.6674],[102.3457,22.728],[102.3331,22.7887],[102.2654,22.8152],[102.2527,22.8758],[102.185,22.9024],[102.1722,22.9629],[102.1594,23.0234],[102.0916,23.05],[102.0787,23.1104],[102.1464,23.0838],[102.0936,23.3251],[102.053,23.5055],[101.9853,23.5321],[101.9716,23.5921],[101.9578,23.6521],[102.0255,23.6256],[102.0116,23.6855],[101.9976,23.7454],[102.2007,23.6657],[102.1866,23.7256],[102.2544,23.699],[102.3221,23.6725],[102.3079,23.7323],[102.3756,23.7057],[102.4433,23.6791],[102.429,23.7389],[102.4967,23.7123],[102.5645,23.6858],[102.5501,23.7455],[102.7532,23.6658],[102.7388,23.7254],[102.8065,23.6989],[102.8742,23.6723],[102.8596,23.7319],[102.9273,23.7053],[102.9951,23.6788],[102.9804,23.7383],[103.0481,23.7118],[103.1158,23.6852],[103.1011,23.7447],[103.3042,23.665],[103.2893,23.7245],[103.3571,23.6979],[103.4248,23.6714],[103.4098,23.7308],[103.4775,23.7042],[103.5453,23.6776],[103.5302,23.737],[103.5979,23.7104],[103.6656,23.6839],[103.6505,23.7432],[103.8537,23.6635],[103.8384,23.7228],[103.9061,23.6962],[103.9738,23.6696],[103.9585,23.7288],[104.0262,23.7023],[104.0939,23.6757],[104.0785,23.7349],[104.1462,23.7083],[104.2139,23.6818],[104.1984,23.7409],[104.2661,23.7143],[104.3338,23.6877],[104.3182,23.7468],[104.5214,23.6671],[104.5057,23.7261]]]}},{"type":"Feature","properties":{"periodId":"chia-cat-1954","name":"Miền Nam","control":"direct","confidence":"high","height":12000,"color":"#cf4b36","geometrySourceId":"diaocthongthai-atlas","geometrySourceUrl":"https://cdn.diaocthongthai.com/2021/08/ban-do-lanh-tho-viet-nam-qua-cac-thoi-ky-70.jpg","geometrySourcePageUrl":"https://diaocthongthai.com/ban-do-lanh-tho-viet-nam-qua-cac-thoi-ky/","imageYear":"1954","reconstructionMethod":"georeferenced-image-color-trace","precision":"illustrative-trace","georeferenceAccuracyKm":50,"sourceIds":"geneva-1954,mofa-islands-status,diaocthongthai-atlas","referenceSourceIds":"wikipedia-territorial-history,diaocthongthai-atlas"},"geometry":{"type":"Polygon","coordinates":[[[106.4979,17.1077],[106.5656,17.0811],[106.6333,17.0546],[106.6393,16.9905],[107.1133,16.8046],[107.1074,16.8686],[107.3105,16.789],[107.3282,16.5967],[107.3959,16.5701],[107.4636,16.5436],[107.4693,16.4794],[107.537,16.4528],[107.6047,16.4262],[107.6103,16.362],[107.6781,16.3354],[107.6836,16.2711],[107.689,16.2068],[107.7567,16.1802],[107.8244,16.1537],[107.8297,16.0893],[107.8974,16.0627],[107.9652,16.0362],[107.9704,15.9717],[108.0381,15.9452],[108.1058,15.9186],[108.1109,15.8541],[108.116,15.7896],[108.3868,15.6833],[108.4013,15.4894],[108.469,15.4628],[108.4737,15.3981],[108.5414,15.3715],[108.6091,15.345],[108.6137,15.2802],[108.6181,15.2154],[108.6858,15.1888],[108.6902,15.1239],[108.6945,15.059],[108.7622,15.0324],[108.7663,14.9674],[108.8341,14.9409],[108.8381,14.8758],[108.8421,14.8107],[108.9098,14.7842],[108.9137,14.719],[108.9814,14.6925],[108.9852,14.6273],[109.0529,14.6007],[109.0566,14.5355],[109.1243,14.509],[109.1348,14.313],[109.2025,14.2864],[109.2122,14.09],[109.2799,14.0634],[109.3134,13.1408],[109.3811,13.1142],[109.3828,13.0479],[109.3844,12.9816],[109.4521,12.9551],[109.4586,12.6227],[109.3909,12.6493],[109.3231,12.6758],[109.3272,12.3422],[109.2595,12.3688],[109.1918,12.3954],[109.1935,12.0605],[109.2612,12.034],[109.2613,11.9669],[109.1935,11.9934],[109.1919,11.5897],[109.1241,11.6163],[109.1235,11.5488],[109.0558,11.5754],[109.0534,11.3727],[108.9857,11.3993],[108.9847,11.3316],[108.917,11.3582],[108.9159,11.2905],[108.8481,11.317],[108.8469,11.2493],[108.7792,11.2758],[108.7779,11.208],[108.7102,11.2346],[108.7088,11.1667],[108.6411,11.1933],[108.6396,11.1254],[108.5719,11.1519],[108.5704,11.084],[108.5026,11.1106],[108.501,11.0426],[108.4332,11.0691],[108.4315,11.0011],[108.3638,11.0276],[108.3619,10.9595],[108.2942,10.9861],[108.2922,10.9179],[108.2245,10.9445],[108.2225,10.8763],[108.1547,10.9028],[108.087,10.9294],[108.0803,10.7245],[108.0126,10.7511],[108.0102,10.6827],[107.9424,10.7092],[107.8747,10.7358],[107.8722,10.6673],[107.8045,10.6939],[107.8018,10.6254],[107.7341,10.652],[107.7314,10.5834],[107.6637,10.61],[107.6609,10.5414],[107.5932,10.5679],[107.5902,10.4993],[107.5225,10.5259],[107.5195,10.4572],[107.4518,10.4837],[107.4487,10.415],[107.381,10.4415],[107.3778,10.3727],[106.9715,10.5321],[106.9682,10.4633],[106.9648,10.3944],[106.8971,10.4209],[106.8936,10.352],[106.8259,10.3785],[106.7581,10.4051],[106.7352,9.9904],[106.6675,10.017],[106.6548,9.809],[106.5871,9.8355],[106.5687,9.5575],[106.501,9.5841],[106.4962,9.5144],[106.2253,9.6207],[106.2051,9.3416],[106.1374,9.3682],[106.1321,9.2983],[106.0643,9.3249],[105.9966,9.3514],[105.9912,9.2815],[105.9235,9.3081],[105.918,9.2381],[105.8503,9.2646],[105.8447,9.1946],[105.777,9.2212],[105.7713,9.1511],[105.7036,9.1776],[105.6978,9.1075],[105.6301,9.1341],[105.5624,9.1606],[105.5565,9.0905],[105.4888,9.117],[105.4828,9.0468],[105.4767,8.9765],[105.409,9.0031],[105.4029,8.9328],[105.3966,8.8624],[105.3289,8.8889],[105.3225,8.8185],[105.3161,8.748],[105.2484,8.7746],[105.2418,8.7041],[105.1741,8.7306],[105.1675,8.6601],[105.1608,8.5894],[105.093,8.616],[105.0253,8.6426],[105.0185,8.5719],[104.9508,8.5984],[104.9438,8.5277],[104.8761,8.5543],[104.8084,8.5808],[104.8549,9.0749],[104.7871,9.1014],[104.8345,9.663],[104.9022,9.6365],[104.9077,9.7065],[104.9754,9.6799],[105.0014,10.029],[104.9337,10.0556],[104.866,10.0822],[104.8709,10.1519],[104.8757,10.2215],[104.6048,10.3277],[104.6096,10.3973],[104.5418,10.4239],[104.5465,10.4934],[104.4788,10.52],[104.4833,10.5894],[104.4877,10.6589],[104.5554,10.6323],[104.5598,10.7017],[104.9661,10.5424],[104.9704,10.6117],[105.0381,10.5851],[105.0422,10.6544],[105.11,10.6279],[105.1256,10.9045],[105.1933,10.878],[105.197,10.947],[105.7388,10.7345],[105.7423,10.8035],[106.0809,10.6707],[106.1061,11.2209],[106.0384,11.2474],[106.0411,11.316],[106.0437,11.3845],[106.1115,11.3579],[106.114,11.4263],[106.1817,11.3998],[106.2494,11.3732],[106.2519,11.4416],[106.7259,11.2557],[106.7326,11.4606],[106.8003,11.434],[106.8024,11.5022],[107.0733,11.396],[107.0752,11.4642],[107.3461,11.3579],[107.348,11.426],[107.4157,11.3995],[107.4834,11.3729],[107.4852,11.4409],[107.5529,11.4144],[107.5546,11.4824],[107.6223,11.4558],[107.6238,11.5238],[107.6916,11.4972],[107.7593,11.4707],[107.7608,11.5386],[107.8285,11.512],[107.8962,11.4854],[107.8976,11.5533],[107.8989,11.6211],[107.9666,11.5945],[107.9746,12.4715],[108.0423,12.4449],[108.0392,12.9805],[107.9715,13.007],[107.9707,13.0737],[107.9029,13.1003],[107.8999,13.3002],[107.8322,13.3267],[107.831,13.3932],[107.8297,13.4597],[107.762,13.4863],[107.7541,13.8179],[107.8218,13.7913],[107.8199,13.8575],[107.8876,13.8309],[107.8857,13.897],[107.8836,13.9631],[107.9513,13.9366],[107.9342,14.3977],[107.8665,14.4243],[107.8637,14.4899],[107.9314,14.4634],[107.909,14.9217],[107.8412,14.9483],[107.8376,15.0136],[107.7699,15.0401],[107.7022,15.0667],[107.6985,15.1319],[107.6308,15.1585],[107.627,15.2237],[107.6231,15.2888],[107.5554,15.3154],[107.5514,15.3805],[107.4837,15.407],[107.4797,15.4721],[107.5474,15.4455],[107.5162,15.8994],[107.4485,15.9259],[107.3808,15.9525],[107.376,16.0171],[107.3082,16.0437],[107.3033,16.1083],[107.2356,16.1348],[107.1679,16.1614],[107.1628,16.2259],[107.0951,16.2525],[107.09,16.317],[106.8868,16.3967],[106.8816,16.4611],[106.8139,16.4877],[106.8086,16.5521],[106.8032,16.6164],[106.7355,16.643],[106.73,16.7073],[106.7244,16.7715],[106.6567,16.7981],[106.651,16.8623],[106.6452,16.9264],[106.5775,16.953],[106.5716,17.0171],[106.5039,17.0436],[106.4979,17.1077]]]}}]}
