{"type":"FeatureCollection","features":[{"type":"Feature","properties":{"periodId":"dai-viet-1306","name":"Đại Việt thời Trần","control":"direct","confidence":"medium","height":12000,"color":"#d7a050","geometrySourceId":"khoahoc-45-maps","geometrySourceUrl":"https://e.khoahoc.tv/photos/image/2015/11/27/ban-do-viet-nam-18.jpg","geometrySourcePageUrl":"https://khoahoc.tv/45-tam-ban-do-viet-nam-qua-cac-giai-doan-tu-the-ky-10-phan-1-67140","imageYear":"1306","reconstructionMethod":"georeferenced-image-color-trace","precision":"illustrative-trace","georeferenceAccuracyKm":50,"sourceIds":"museum-1306,khoahoc-45-maps","referenceSourceIds":"wikipedia-territorial-history,diaocthongthai-atlas,khoahoc-45-maps"},"geometry":{"type":"Polygon","coordinates":[[[104.4415,23.849],[104.6152,23.7809],[104.6288,23.7304],[104.8024,23.6623],[104.8874,23.5385],[105.3504,23.3569],[105.3639,23.3063],[105.769,23.1474],[105.7824,23.0967],[105.8403,23.074],[105.8981,23.0513],[105.9114,23.0006],[105.9693,22.9779],[106.0272,22.9552],[106.0796,22.7521],[106.0218,22.7748],[106.0347,22.724],[105.9768,22.7467],[105.9897,22.6958],[106.0025,22.6448],[105.9446,22.6675],[106.0075,22.4123],[106.0654,22.3896],[106.1145,22.1847],[106.2881,22.1166],[106.3002,22.0653],[106.3581,22.0426],[106.416,22.0199],[106.428,21.9686],[106.4859,21.9459],[106.4979,21.8945],[106.5097,21.8431],[106.5676,21.8204],[106.5794,21.769],[106.6373,21.7463],[106.6952,21.7236],[106.7069,21.6721],[106.7648,21.6494],[106.8227,21.6267],[106.8344,21.5752],[107.1817,21.4389],[107.17,21.4905],[107.2279,21.4678],[107.2161,21.5193],[107.3898,21.4511],[107.378,21.5026],[107.6095,21.4118],[107.5976,21.4632],[107.6555,21.4405],[107.7134,21.4178],[107.7252,21.3664],[107.6674,21.3891],[107.6792,21.3376],[107.6213,21.3603],[107.633,21.3089],[107.5752,21.3316],[107.5173,21.3543],[107.5289,21.3027],[107.4711,21.3254],[107.4827,21.2739],[107.4248,21.2966],[107.4363,21.245],[107.3784,21.2677],[107.3899,21.2161],[107.2163,21.2842],[107.2277,21.2325],[107.239,21.1808],[107.1811,21.2035],[107.1923,21.1518],[107.1345,21.1745],[107.1456,21.1227],[106.972,21.1908],[107.016,20.9833],[106.9582,21.006],[106.9003,21.0287],[106.9111,20.9768],[106.8532,20.9995],[106.864,20.9475],[106.6903,21.0156],[106.701,20.9636],[106.238,21.1452],[106.2904,20.8845],[106.2325,20.9072],[106.2428,20.8549],[106.1849,20.8776],[106.1951,20.8253],[106.1372,20.848],[106.1969,20.5336],[106.139,20.5563],[106.1488,20.5037],[106.0909,20.5264],[106.1005,20.4739],[106.0426,20.4966],[105.9847,20.5193],[105.9943,20.4667],[105.9364,20.4894],[105.9459,20.4367],[105.9554,20.384],[105.8975,20.4067],[105.8396,20.4294],[105.8489,20.3767],[105.7911,20.3994],[105.7332,20.4221],[105.7425,20.3694],[105.6846,20.3921],[105.6267,20.4148],[105.6359,20.362],[105.578,20.3847],[105.6053,20.2261],[105.5474,20.2488],[105.5563,20.1958],[105.5652,20.1429],[105.5073,20.1656],[105.5674,19.7937],[105.5095,19.8164],[105.5178,19.7632],[105.526,19.7099],[105.4682,19.7326],[105.4763,19.6792],[105.4844,19.6259],[105.4265,19.6486],[105.4659,19.3811],[105.5238,19.3584],[105.5315,19.3049],[105.5391,19.2512],[105.597,19.2285],[105.6045,19.1749],[105.6624,19.1522],[105.7203,19.1295],[105.7277,19.0758],[105.6698,19.0985],[105.7131,18.7755],[105.771,18.7528],[105.778,18.6988],[105.7849,18.6449],[105.8427,18.6222],[105.8496,18.5681],[105.8563,18.5141],[105.9142,18.4914],[105.9209,18.4373],[105.9788,18.4146],[105.9854,18.3604],[106.0433,18.3377],[106.1012,18.315],[106.1077,18.2609],[106.2813,18.1927],[106.2878,18.1385],[106.3457,18.1158],[106.4036,18.0931],[106.41,18.0389],[106.4679,18.0162],[106.5107,17.6355],[106.5686,17.6128],[106.5745,17.5582],[106.6323,17.5355],[106.6381,17.481],[106.696,17.4583],[106.7017,17.4036],[106.7596,17.3809],[106.7652,17.3263],[106.8231,17.3036],[106.881,17.2809],[106.8865,17.2262],[106.9444,17.2035],[107.0023,17.1808],[107.0078,17.1261],[107.0657,17.1034],[107.1236,17.0807],[107.129,17.0259],[107.1343,16.9711],[107.1922,16.9484],[107.1975,16.8936],[107.2554,16.8709],[107.2606,16.8161],[107.3185,16.7934],[107.3386,16.5735],[107.5701,16.4827],[107.575,16.4277],[107.6329,16.405],[107.6377,16.3499],[107.6955,16.3272],[107.7003,16.2721],[107.7581,16.2494],[107.7628,16.1942],[107.8207,16.1715],[107.8253,16.1164],[107.8831,16.0937],[107.941,16.071],[107.9455,16.0157],[108.0034,15.993],[108.0613,15.9703],[108.0657,15.9151],[108.1236,15.8924],[108.128,15.8371],[108.1323,15.7817],[108.3638,15.6909],[108.368,15.6356],[108.3722,15.5801],[108.3143,15.6028],[108.3184,15.5474],[108.2605,15.5701],[108.2026,15.5928],[108.2066,15.5373],[108.1488,15.56],[108.1527,15.5045],[108.0948,15.5272],[108.0987,15.4717],[107.5199,15.6987],[107.516,15.7542],[107.4581,15.7769],[107.4542,15.8324],[107.3963,15.8551],[107.3923,15.9106],[107.3344,15.9333],[107.2765,15.956],[107.2725,16.0115],[107.2146,16.0342],[107.2104,16.0896],[107.0368,16.1577],[107.0325,16.213],[107.0282,16.2684],[106.9704,16.2911],[106.9125,16.3138],[106.9081,16.3691],[106.8502,16.3918],[106.8458,16.447],[106.7879,16.4697],[106.7834,16.525],[106.7788,16.5802],[106.7209,16.6029],[106.6631,16.6256],[106.629,17.0109],[106.5712,17.0336],[106.566,17.0885],[106.5081,17.1112],[106.5029,17.166],[106.445,17.1887],[106.4398,17.2436],[106.4344,17.2983],[106.3765,17.321],[106.3711,17.3758],[106.3132,17.3985],[106.3077,17.4532],[106.2499,17.4759],[106.192,17.4986],[106.1864,17.5533],[106.1285,17.576],[106.1229,17.6306],[106.065,17.6533],[106.0593,17.708],[106.0014,17.7307],[105.9719,18.0032],[105.914,18.0259],[105.9079,18.0802],[105.85,18.1029],[105.8438,18.1573],[105.7859,18.18],[105.7796,18.2343],[105.7733,18.2886],[105.7154,18.3113],[105.6575,18.334],[105.6511,18.3882],[105.5933,18.4109],[105.5868,18.4652],[105.5289,18.4879],[105.5223,18.542],[105.4645,18.5647],[105.4579,18.6189],[105.4,18.6416],[105.3933,18.6957],[105.3354,18.7184],[105.2775,18.7411],[105.2708,18.7951],[105.2129,18.8178],[105.155,18.8405],[105.1482,18.8946],[105.0903,18.9173],[105.0834,18.9713],[105.0764,19.0252],[105.0186,19.0479],[105.0115,19.1018],[104.9536,19.1245],[104.9024,19.5009],[104.8445,19.5236],[104.7866,19.5463],[104.779,19.6],[104.5475,19.6908],[104.5398,19.7444],[104.482,19.7671],[104.4241,19.7898],[104.4163,19.8433],[104.4085,19.8968],[104.3507,19.9195],[104.3428,19.973],[104.3348,20.0265],[104.3927,20.0038],[104.3847,20.0572],[104.4426,20.0345],[104.4345,20.0878],[104.4924,20.0651],[104.4337,20.4377],[104.3759,20.4604],[104.3672,20.5135],[104.3093,20.5362],[104.3006,20.5893],[104.2918,20.6423],[104.3497,20.6196],[104.3408,20.6726],[104.3987,20.6499],[104.3898,20.7028],[104.4477,20.6801],[104.4387,20.733],[104.4965,20.7103],[104.4875,20.7632],[104.4783,20.816],[104.5362,20.7933],[104.4989,21.0042],[104.5568,20.9815],[104.5281,21.1394],[104.586,21.1167],[104.5763,21.1692],[104.6341,21.1465],[104.5846,21.4086],[104.5267,21.4313],[104.4688,21.454],[104.4587,21.5064],[104.4008,21.5291],[104.3429,21.5518],[104.2594,21.969],[103.9121,22.1052],[103.9013,22.1572],[103.8434,22.1799],[103.8326,22.2319],[103.7747,22.2546],[103.7168,22.2773],[103.7059,22.3292],[103.6481,22.3519],[103.6371,22.4038],[103.5792,22.4265],[103.5213,22.4492],[103.5103,22.501],[103.4524,22.5237],[103.4413,22.5755],[103.4301,22.6273],[103.3722,22.65],[103.361,22.7017],[103.3031,22.7244],[103.2918,22.7761],[103.2339,22.7988],[103.2225,22.8505],[103.0489,22.9186],[103.0374,22.9702],[102.9795,22.9929],[102.968,23.0445],[102.9101,23.0672],[102.8985,23.1188],[102.8406,23.1415],[102.7827,23.1642],[102.7711,23.2157],[102.7132,23.2384],[102.7014,23.2899],[102.6896,23.3413],[102.6317,23.364],[102.5347,23.7743],[102.4768,23.797],[102.4644,23.8481],[102.4065,23.8708],[102.3235,23.9957],[102.3814,23.973],[102.3687,24.024],[102.4266,24.0013],[102.4845,23.9786],[102.4718,24.0296],[102.5297,24.0069],[102.5875,23.9842],[102.5747,24.0351],[102.6326,24.0124],[102.6905,23.9897],[102.6776,24.0406],[102.967,23.9271],[102.9541,23.978],[102.9411,24.0288],[102.999,24.0061],[103.0568,23.9834],[103.0438,24.0342],[103.1016,24.0115],[103.1595,23.9888],[103.1464,24.0395],[103.32,23.9714],[103.3068,24.0222],[103.3647,23.9995],[103.4226,23.9768],[103.4093,24.0274],[103.4672,24.0047],[103.525,23.982],[103.5117,24.0327],[103.5696,24.01],[103.6274,23.9873],[103.614,24.0379],[103.7877,23.9698],[103.7742,24.0204],[104.0057,23.9296],[104.0192,23.879],[104.3665,23.7428],[104.353,23.7934],[104.4108,23.7707],[104.3973,23.8212],[104.4551,23.7985],[104.4415,23.849]]]}}]}
