{"type":"FeatureCollection","features":[{"type":"Feature","properties":{"periodId":"dai-nam-1835","name":"Đại Nam","control":"direct","confidence":"medium","height":12000,"color":"#d75a3a","geometrySourceId":"khoahoc-45-maps","geometrySourceUrl":"https://e.khoahoc.tv/photos/image/2015/11/28/ban-do-viet-nam-48.jpg","geometrySourcePageUrl":"https://khoahoc.tv/45-tam-ban-do-viet-nam-qua-cac-giai-doan-tu-the-ky-10-phan-1-67140","imageYear":"1835","reconstructionMethod":"georeferenced-image-color-trace","precision":"illustrative-trace","georeferenceAccuracyKm":50,"sourceIds":"archives-nguyen-islands,khoahoc-45-maps","referenceSourceIds":"wikipedia-territorial-history,diaocthongthai-atlas,khoahoc-45-maps,commons-nguyen-1838"},"geometry":{"type":"MultiPolygon","coordinates":[[[[104.4507,23.8454],[104.6247,23.7772],[104.6383,23.7267],[104.6963,23.7039],[104.7543,23.6812],[104.8393,23.5573],[105.3611,23.3527],[105.3746,23.3021],[105.7224,23.1656],[105.7358,23.115],[105.9097,23.0468],[105.923,22.9961],[105.981,22.9733],[106.039,22.9506],[106.0914,22.7475],[106.0335,22.7702],[106.0464,22.7194],[105.9884,22.7421],[106.0013,22.6912],[106.0141,22.6403],[105.9561,22.663],[106.056,22.2542],[106.1139,22.2315],[106.1261,22.1802],[106.1841,22.1574],[106.2421,22.1347],[106.2542,22.0834],[106.4281,22.0152],[106.4401,21.9639],[106.4981,21.9411],[106.5101,21.8897],[106.5219,21.8383],[106.5799,21.8156],[106.5917,21.7641],[106.6497,21.7414],[106.7077,21.7187],[106.7194,21.6672],[106.7774,21.6444],[106.7891,21.5929],[107.1949,21.4337],[107.1833,21.4853],[107.2412,21.4625],[107.2295,21.514],[107.4034,21.4458],[107.3916,21.4972],[107.6235,21.4063],[107.6117,21.4577],[107.6696,21.4349],[107.7276,21.4122],[107.7395,21.3608],[107.6815,21.3835],[107.6933,21.3321],[107.6354,21.3548],[107.5774,21.3776],[107.5891,21.3261],[107.5311,21.3488],[107.5428,21.2973],[107.4848,21.32],[107.4964,21.2685],[107.4385,21.2912],[107.45,21.2396],[107.392,21.2624],[107.4035,21.2107],[107.2295,21.279],[107.2409,21.2273],[107.183,21.25],[107.1943,21.1983],[107.1363,21.2211],[107.1475,21.1693],[107.0896,21.1921],[107.1008,21.1403],[107.0428,21.163],[106.9848,21.1858],[107.0288,20.9783],[106.9708,21.0011],[106.9129,21.0238],[106.9237,20.9718],[106.8657,20.9946],[106.8765,20.9426],[106.7025,21.0108],[106.7132,20.9588],[106.2494,21.1407],[106.3018,20.88],[106.2438,20.9027],[106.1858,20.9255],[106.1961,20.8732],[106.2063,20.8209],[106.1483,20.8437],[106.1982,20.5817],[106.1403,20.6045],[106.1694,20.4469],[105.9955,20.5151],[106.005,20.4625],[105.947,20.4852],[105.9565,20.4326],[105.8986,20.4553],[105.8406,20.478],[105.85,20.4254],[105.8594,20.3726],[105.6854,20.4409],[105.6947,20.3881],[105.6367,20.4108],[105.6459,20.358],[105.588,20.3808],[105.5971,20.328],[105.6062,20.2751],[105.5482,20.2978],[105.575,20.139],[105.517,20.1618],[105.5771,19.7899],[105.5191,19.8127],[105.5274,19.7594],[105.5357,19.7061],[105.4777,19.7288],[105.4858,19.6755],[105.4939,19.6221],[105.436,19.6449],[105.4754,19.3775],[105.5333,19.3547],[105.541,19.3011],[105.5486,19.2475],[105.6066,19.2248],[105.6141,19.1711],[105.6721,19.1484],[105.7301,19.1256],[105.7375,19.0719],[105.6796,19.0947],[105.7228,18.7717],[105.7808,18.749],[105.7878,18.695],[105.7947,18.641],[105.8527,18.6183],[105.8595,18.5642],[105.8662,18.5102],[105.9242,18.4874],[105.9309,18.4333],[105.9889,18.4106],[105.9955,18.3565],[106.0535,18.3337],[106.1115,18.311],[106.118,18.2568],[106.2919,18.1886],[106.2984,18.1344],[106.3564,18.1116],[106.3628,18.0574],[106.4208,18.0347],[106.4788,18.0119],[106.5216,17.6312],[106.5796,17.6084],[106.5855,17.5539],[106.6434,17.5312],[106.6492,17.4766],[106.7072,17.4539],[106.7129,17.3992],[106.7185,17.3446],[106.8925,17.2764],[106.898,17.2217],[106.956,17.199],[107.014,17.1762],[107.0195,17.1215],[107.0775,17.0988],[107.1354,17.076],[107.1515,16.9117],[107.2095,16.8889],[107.2675,16.8662],[107.2727,16.8113],[107.3307,16.7886],[107.3459,16.6238],[107.4038,16.601],[107.4618,16.5783],[107.4668,16.5233],[107.5247,16.5005],[107.5296,16.4455],[107.5876,16.4228],[107.6456,16.4],[107.6503,16.3449],[107.6551,16.2898],[107.713,16.2671],[107.771,16.2443],[107.7757,16.1892],[107.8337,16.1665],[107.8382,16.1113],[107.8962,16.0885],[107.9007,16.0333],[108.0747,15.9651],[108.0878,15.7992],[108.3197,15.7082],[108.3239,15.6529],[108.3819,15.6301],[108.3861,15.5747],[108.444,15.552],[108.502,15.5292],[108.5141,15.3628],[108.572,15.34],[108.63,15.3173],[108.6339,15.2618],[108.6919,15.239],[108.7067,15.0164],[108.7647,14.9937],[108.8227,14.971],[108.8262,14.9152],[108.8296,14.8595],[108.8876,14.8367],[108.891,14.7809],[108.949,14.7582],[108.9523,14.7023],[109.0103,14.6796],[109.0135,14.6237],[109.0167,14.5678],[109.0747,14.545],[109.0778,14.4891],[109.1358,14.4664],[109.1388,14.4104],[109.1418,14.3543],[109.1997,14.3316],[109.2109,14.1071],[109.2689,14.0844],[109.3022,13.1807],[109.3602,13.158],[109.3617,13.1012],[109.3631,13.0444],[109.4211,13.0216],[109.4291,12.6228],[109.3711,12.6456],[109.3131,12.6683],[109.3167,12.3824],[109.2587,12.4051],[109.2007,12.4279],[109.1962,12.7709],[109.1383,12.7936],[109.1326,13.0785],[109.0746,13.1012],[109.0688,13.3284],[109.0108,13.3512],[109.0057,13.5212],[108.9477,13.5439],[108.9459,13.6006],[108.8879,13.6233],[108.8798,13.8494],[108.8218,13.8721],[108.7639,13.8948],[108.7617,13.9513],[108.7037,13.974],[108.7014,14.0304],[108.4115,14.1441],[108.4092,14.2004],[108.3512,14.2232],[108.3488,14.2795],[108.2908,14.3022],[108.2832,14.471],[108.1093,14.5392],[108.1066,14.5954],[108.0486,14.6181],[108.0459,14.6742],[107.9879,14.697],[107.9851,14.7531],[107.9271,14.7758],[107.8691,14.7985],[107.8662,14.8546],[107.8082,14.8773],[107.7502,14.9001],[107.7473,14.9561],[107.6893,14.9789],[107.6863,15.0348],[107.6283,15.0576],[107.6252,15.1135],[107.5672,15.1363],[107.564,15.1922],[107.506,15.2149],[107.5028,15.2708],[107.4995,15.3267],[107.4415,15.3494],[107.4381,15.4052],[107.4347,15.461],[107.3767,15.4837],[107.3732,15.5394],[107.3696,15.5951],[107.4275,15.5724],[107.4085,15.8504],[107.3505,15.8731],[107.3465,15.9286],[107.3424,15.984],[107.2844,16.0068],[107.2803,16.0622],[107.1063,16.1304],[107.1021,16.1858],[106.8122,16.2994],[106.8164,16.2441],[106.7585,16.2668],[106.7626,16.2114],[106.7667,16.156],[106.5348,16.2469],[106.5388,16.1914],[106.3069,16.2824],[106.3108,16.2269],[106.3147,16.1713],[106.2567,16.1941],[106.2605,16.1385],[106.0866,16.2067],[106.0903,16.1511],[105.8004,16.2648],[105.7967,16.3204],[105.6228,16.3886],[105.619,16.4442],[105.561,16.4669],[105.503,16.4897],[105.4991,16.5452],[105.2092,16.6589],[105.2053,16.7145],[105.1473,16.7372],[105.1433,16.7927],[105.1392,16.8481],[105.0812,16.8709],[105.046,17.3131],[104.988,17.3358],[104.9833,17.391],[104.9253,17.4137],[104.9057,17.6338],[104.9637,17.6111],[104.9586,17.666],[105.0166,17.6433],[105.0746,17.6205],[105.0694,17.6754],[105.1274,17.6527],[105.1854,17.6299],[105.1475,18.0132],[104.9735,18.0814],[104.9678,18.136],[104.9098,18.1588],[104.9041,18.2134],[104.8982,18.2679],[104.8402,18.2906],[104.7823,18.3134],[104.7763,18.3679],[104.7184,18.3906],[104.6604,18.4133],[104.6544,18.4678],[104.4225,18.5588],[104.4164,18.6132],[104.3584,18.6359],[104.3523,18.6903],[104.2943,18.7131],[104.2881,18.7674],[104.2819,18.8217],[104.2239,18.8445],[104.2176,18.8988],[104.1596,18.9215],[104.1532,18.9757],[104.0952,18.9985],[104.0887,19.0527],[104.0307,19.0754],[104.0242,19.1296],[104.0176,19.1837],[103.9596,19.2065],[103.9529,19.2606],[103.8949,19.2833],[103.8745,19.4454],[103.8165,19.4681],[103.8095,19.5221],[103.7515,19.5448],[103.7445,19.5988],[103.3966,19.7352],[103.3895,19.7891],[103.3315,19.8118],[103.2735,19.8345],[103.2664,19.8884],[102.9765,20.0021],[102.9836,19.9482],[102.9257,19.971],[102.8677,19.9937],[102.8888,19.832],[102.8308,19.8547],[102.7728,19.8774],[102.7445,20.093],[102.8025,20.0703],[102.7953,20.1241],[102.8533,20.1014],[102.8459,20.1552],[102.9039,20.1324],[102.8965,20.1861],[102.9545,20.1634],[102.9165,20.4315],[102.4527,20.6135],[102.4129,20.8807],[102.3549,20.9034],[102.3468,20.9568],[102.2888,20.9795],[102.2308,21.0022],[102.2226,21.0555],[102.1646,21.0783],[102.1563,21.1316],[102.0983,21.1543],[102.0899,21.2075],[102.032,21.2303],[101.9803,21.5489],[102.0382,21.5261],[102.0294,21.5791],[102.2033,21.5109],[102.1944,21.5638],[102.2524,21.5411],[102.3103,21.5183],[102.3013,21.5712],[102.3593,21.5485],[102.3502,21.6014],[102.5242,21.5331],[102.515,21.586],[102.573,21.5632],[102.631,21.5405],[102.565,21.9093],[102.623,21.8865],[102.6133,21.9391],[102.6713,21.9163],[102.6615,21.9688],[102.6516,22.0213],[102.7096,21.9986],[102.7676,21.9758],[102.7577,22.0282],[102.8157,22.0055],[102.8736,21.9828],[102.823,22.2444],[102.6491,22.3126],[102.6387,22.3648],[102.5124,22.4625],[102.4593,22.7228],[102.5172,22.7],[102.5064,22.752],[102.5644,22.7293],[102.5535,22.7812],[102.6115,22.7584],[102.5446,23.0692],[102.6026,23.0465],[102.5912,23.0981],[102.6491,23.0754],[102.6377,23.127],[102.6957,23.1043],[102.5403,23.7721],[102.4823,23.7949],[102.4698,23.846],[102.4118,23.8687],[102.3288,23.9936],[102.3867,23.9709],[102.3741,24.0219],[102.4321,23.9991],[102.49,23.9764],[102.4773,24.0274],[102.5353,24.0046],[102.5933,23.9819],[102.5805,24.0328],[102.6385,24.0101],[102.6964,23.9874],[102.6836,24.0383],[102.9735,23.9246],[102.9605,23.9754],[102.9475,24.0263],[103.0055,24.0035],[103.0635,23.9808],[103.0504,24.0316],[103.1084,24.0088],[103.1664,23.9861],[103.1532,24.0369],[103.3272,23.9686],[103.3139,24.0194],[103.3719,23.9966],[103.4299,23.9739],[103.4166,24.0246],[103.4746,24.0018],[103.5326,23.9791],[103.5192,24.0297],[103.5772,24.007],[103.6352,23.9843],[103.6217,24.0349],[103.6797,24.0121],[103.7377,23.9894],[103.7242,24.04],[104.0141,23.9263],[104.0276,23.8757],[104.3755,23.7393],[104.362,23.7898],[104.42,23.7671],[104.4064,23.8176],[104.4644,23.7949],[104.4507,23.8454]]],[[[106.3023,13.5075],[106.5922,13.3938],[106.5926,13.3365],[106.8825,13.2228],[106.8829,13.1654],[107.4047,12.9608],[107.405,12.9034],[107.4052,12.8459],[107.4632,12.8232],[107.4633,12.7657],[107.7532,12.652],[107.7533,12.5945],[107.7533,12.5369],[107.8113,12.5142],[107.8109,12.3413],[107.8689,12.3186],[107.9269,12.2959],[107.9266,12.2382],[107.9846,12.2154],[108.0426,12.1927],[108.0422,12.1349],[108.1002,12.1122],[108.1582,12.0895],[108.1578,12.0317],[108.2158,12.009],[108.2153,11.9512],[108.2733,11.9284],[108.2727,11.8706],[108.3307,11.8478],[108.3301,11.79],[108.3881,11.7672],[108.3849,11.5353],[108.4429,11.5126],[108.4386,11.2801],[108.6125,11.2119],[108.6113,11.1537],[108.5533,11.1765],[108.552,11.1182],[108.494,11.141],[108.4926,11.0827],[108.4911,11.0244],[108.4332,11.0471],[108.4316,10.9888],[108.3736,11.0115],[108.372,10.9531],[108.3141,10.9758],[108.3124,10.9174],[108.2544,10.9402],[108.2527,10.8817],[108.1947,10.9044],[108.1367,10.9272],[108.1349,10.8687],[108.0769,10.8914],[108.075,10.8329],[108.0171,10.8556],[108.011,10.6798],[107.953,10.7026],[107.895,10.7253],[107.8929,10.6666],[107.8349,10.6894],[107.8327,10.6306],[107.7747,10.6534],[107.7724,10.5946],[107.7144,10.6174],[107.712,10.5586],[107.654,10.5813],[107.5961,10.6041],[107.5936,10.5452],[107.5356,10.568],[107.5331,10.5091],[107.5305,10.4502],[107.4726,10.473],[107.4146,10.4957],[107.4119,10.4368],[107.3539,10.4595],[107.3512,10.4005],[107.2932,10.4233],[107.2904,10.3643],[107.0005,10.478],[106.9977,10.4189],[106.9397,10.4417],[106.9368,10.3826],[106.7628,10.4508],[106.7471,10.1549],[106.8051,10.1321],[106.8017,10.0728],[106.7437,10.0956],[106.7403,10.0363],[106.6823,10.059],[106.6716,9.8808],[106.6136,9.9035],[106.5944,9.6058],[106.5364,9.6285],[106.5324,9.5689],[106.4744,9.5916],[106.4702,9.5319],[106.2383,9.6229],[106.2211,9.3837],[106.1631,9.4065],[106.1586,9.3466],[106.1007,9.3693],[106.0961,9.3094],[106.0381,9.3321],[106.0335,9.2722],[105.9755,9.2949],[105.9176,9.3177],[105.9129,9.2577],[105.8549,9.2804],[105.8501,9.2204],[105.7921,9.2431],[105.7873,9.1831],[105.7293,9.2058],[105.7244,9.1457],[105.6664,9.1685],[105.6615,9.1083],[105.6035,9.1311],[105.5985,9.0709],[105.5405,9.0936],[105.4825,9.1164],[105.4774,9.0562],[105.4722,8.9959],[105.4142,9.0187],[105.3982,8.8377],[105.3403,8.8605],[105.3348,8.8001],[105.3293,8.7397],[105.2713,8.7624],[105.2657,8.702],[105.2077,8.7247],[105.202,8.6642],[105.144,8.6869],[105.1383,8.6264],[105.0803,8.6492],[105.0745,8.5886],[105.0165,8.6113],[105.0106,8.5507],[104.9527,8.5735],[104.8947,8.5962],[104.8887,8.5356],[104.8307,8.5583],[104.7728,8.581],[104.8739,9.727],[104.9319,9.7042],[104.9899,9.6815],[105.0166,10.0407],[104.8426,10.1089],[104.8468,10.1686],[104.5569,10.2823],[104.561,10.342],[104.5651,10.4017],[104.5071,10.4244],[104.5111,10.484],[104.515,10.5436],[104.4571,10.5663],[104.4609,10.6259],[104.4029,10.6486],[104.3449,10.6714],[104.3487,10.7309],[104.0008,10.8673],[103.9813,10.5694],[103.9233,10.5921],[103.8653,10.6149],[103.8612,10.5552],[103.8032,10.5779],[103.8269,10.9355],[103.653,11.0038],[103.6567,11.0632],[103.4248,11.1542],[103.4389,11.3917],[103.4969,11.369],[103.5549,11.3463],[103.5709,11.6424],[103.281,11.7561],[103.278,11.6969],[103.2748,11.6377],[102.9849,11.7514],[102.9881,11.8106],[102.9301,11.8334],[102.9601,12.482],[102.9021,12.5047],[102.9129,12.7981],[102.9709,12.7754],[102.9728,12.834],[103.0308,12.8112],[103.0327,12.8698],[103.0345,12.9283],[103.0925,12.9055],[103.1505,12.8828],[103.1522,12.9412],[103.1539,12.9997],[103.3278,12.9314],[103.3294,12.9898],[103.3309,13.0482],[103.3889,13.0254],[103.3931,13.2003],[103.4511,13.1775],[103.4523,13.2357],[103.4535,13.2939],[103.5115,13.2712],[103.5126,13.3293],[103.5706,13.3066],[103.5716,13.3647],[103.5726,13.4227],[103.6306,13.4],[103.6315,13.458],[103.6894,13.4353],[103.6929,13.7248],[103.7509,13.7021],[103.7513,13.7599],[103.8093,13.7372],[103.8673,13.7144],[103.8668,13.6566],[103.9248,13.6339],[103.9828,13.6111],[103.9822,13.5533],[104.3881,13.3941],[104.3886,13.452],[104.4466,13.4292],[104.4471,13.487],[104.5051,13.4643],[104.5055,13.5221],[104.5635,13.4993],[104.5638,13.5571],[104.6218,13.5343],[104.6224,13.7073],[104.6804,13.6846],[104.6804,13.7421],[104.7384,13.7194],[104.7964,13.6967],[104.7964,13.7542],[104.8543,13.7315],[104.9123,13.7087],[104.9122,13.7662],[105.0862,13.698],[105.0863,13.6405],[105.1442,13.6178],[105.1442,13.5602],[105.4341,13.4465],[105.4337,13.6765],[105.4916,13.6538],[105.5496,13.631],[105.5493,13.6884],[105.6073,13.6657],[105.6076,13.6083],[105.8395,13.5173],[105.84,13.3449],[105.898,13.3222],[105.898,13.2646],[106.1879,13.1509],[106.1867,13.4957],[106.2447,13.4729],[106.3027,13.4502],[106.3023,13.5075]]]]}}]}
