{"type":"FeatureCollection","features":[{"type":"Feature","properties":{"periodId":"dai-viet-1069","name":"Đại Việt thời Lý","control":"direct","confidence":"medium","height":12000,"color":"#d7a050","geometrySourceId":"khoahoc-45-maps","geometrySourceUrl":"https://e.khoahoc.tv/photos/image/2015/11/27/ban-do-viet-nam-15.jpg","geometrySourcePageUrl":"https://khoahoc.tv/45-tam-ban-do-viet-nam-qua-cac-giai-doan-tu-the-ky-10-phan-1-67140","imageYear":"1069","reconstructionMethod":"georeferenced-image-color-trace","precision":"illustrative-trace","georeferenceAccuracyKm":50,"sourceIds":"quang-binh-1069,khoahoc-45-maps","referenceSourceIds":"wikipedia-territorial-history,diaocthongthai-atlas,khoahoc-45-maps,commons-ly"},"geometry":{"type":"Polygon","coordinates":[[[103.7742,24.0204],[103.9034,23.9244],[103.9168,23.8738],[103.9302,23.8231],[104.3354,23.6642],[104.322,23.7149],[104.4956,23.6468],[104.4822,23.6974],[104.5401,23.6747],[104.5266,23.7253],[104.7581,23.6345],[104.8429,23.5106],[105.306,23.329],[105.3193,23.2783],[105.7245,23.1194],[105.7378,23.0687],[105.7957,23.046],[105.8536,23.0233],[105.9378,22.8992],[105.9957,22.8765],[106.0088,22.8257],[106.0218,22.7748],[105.9639,22.7975],[105.9768,22.7467],[105.9189,22.7694],[106.0322,22.3099],[106.0901,22.2872],[106.1023,22.236],[106.1145,22.1847],[106.2881,22.1166],[106.3002,22.0653],[106.3581,22.0426],[106.416,22.0199],[106.428,21.9686],[106.4859,21.9459],[106.4979,21.8945],[106.5097,21.8431],[106.6373,21.7463],[106.6491,21.6948],[106.7069,21.6721],[106.7648,21.6494],[106.7765,21.5979],[107.1817,21.4389],[107.17,21.4905],[107.2279,21.4678],[107.2857,21.4451],[107.274,21.4966],[107.4476,21.4284],[107.4358,21.4799],[107.6095,21.4118],[107.5976,21.4632],[107.6555,21.4405],[107.7134,21.4178],[107.7252,21.3664],[107.6674,21.3891],[107.6792,21.3376],[107.6213,21.3603],[107.633,21.3089],[107.5752,21.3316],[107.5173,21.3543],[107.5289,21.3027],[107.4711,21.3254],[107.4827,21.2739],[107.4248,21.2966],[107.4363,21.245],[107.3784,21.2677],[107.3899,21.2161],[107.2163,21.2842],[107.2277,21.2325],[107.239,21.1808],[107.1811,21.2035],[107.1923,21.1518],[107.1345,21.1745],[107.0766,21.1972],[107.0878,21.1454],[106.8562,21.2362],[106.9111,20.9768],[106.8532,20.9995],[106.864,20.9475],[106.6903,21.0156],[106.701,20.9636],[106.238,21.1452],[106.2904,20.8845],[106.2325,20.9072],[106.2428,20.8549],[106.1849,20.8776],[106.1951,20.8253],[106.1372,20.848],[106.1969,20.5336],[106.139,20.5563],[106.1488,20.5037],[106.0909,20.5264],[106.1005,20.4739],[106.0426,20.4966],[105.9847,20.5193],[105.9943,20.4667],[106.0038,20.414],[105.9459,20.4367],[105.9554,20.384],[105.8975,20.4067],[105.8396,20.4294],[105.8489,20.3767],[105.6753,20.4448],[105.6846,20.3921],[105.6267,20.4148],[105.5688,20.4375],[105.6053,20.2261],[105.5474,20.2488],[105.5563,20.1958],[105.5652,20.1429],[105.5073,20.1656],[105.5674,19.7937],[105.5095,19.8164],[105.5178,19.7632],[105.526,19.7099],[105.4682,19.7326],[105.4763,19.6792],[105.4844,19.6259],[105.4265,19.6486],[105.4659,19.3811],[105.5238,19.3584],[105.5315,19.3049],[105.5894,19.2822],[105.597,19.2285],[105.6045,19.1749],[105.6624,19.1522],[105.7203,19.1295],[105.7277,19.0758],[105.6698,19.0985],[105.7131,18.7755],[105.771,18.7528],[105.778,18.6988],[105.7849,18.6449],[105.8427,18.6222],[105.8496,18.5681],[105.8563,18.5141],[105.9142,18.4914],[105.9209,18.4373],[105.9788,18.4146],[105.9854,18.3604],[106.0433,18.3377],[106.1012,18.315],[106.1077,18.2609],[106.2813,18.1927],[106.2878,18.1385],[106.3457,18.1158],[106.4036,18.0931],[106.41,18.0389],[106.4679,18.0162],[106.5107,17.6355],[106.5686,17.6128],[106.5745,17.5582],[106.6323,17.5355],[106.6381,17.481],[106.696,17.4583],[106.7017,17.4036],[106.7596,17.3809],[106.7652,17.3263],[106.8231,17.3036],[106.881,17.2809],[106.8865,17.2262],[106.9444,17.2035],[107.0023,17.1808],[107.0078,17.1261],[107.0657,17.1034],[107.0711,17.0486],[107.129,17.0259],[107.1343,16.9711],[107.1922,16.9484],[107.1975,16.8936],[107.2027,16.8388],[107.2606,16.8161],[107.3185,16.7934],[107.3337,16.6286],[107.2758,16.6513],[107.2179,16.674],[107.2228,16.6189],[107.0492,16.687],[107.0541,16.632],[107.0589,16.5769],[107.001,16.5996],[107.0057,16.5445],[106.7742,16.6353],[106.7788,16.5802],[106.7209,16.6029],[106.7163,16.658],[106.7116,16.7131],[106.6537,16.7358],[106.629,17.0109],[106.5712,17.0336],[106.566,17.0885],[106.5081,17.1112],[106.5029,17.166],[106.445,17.1887],[106.4398,17.2436],[106.4344,17.2983],[106.3765,17.321],[106.3711,17.3758],[106.3132,17.3985],[106.3077,17.4532],[106.2499,17.4759],[106.192,17.4986],[106.1864,17.5533],[106.1285,17.576],[106.1229,17.6306],[106.065,17.6533],[106.0418,17.8716],[105.9839,17.8943],[105.9779,17.9487],[105.9719,18.0032],[105.914,18.0259],[105.9079,18.0802],[105.85,18.1029],[105.8438,18.1573],[105.7859,18.18],[105.7796,18.2343],[105.7218,18.257],[105.7154,18.3113],[105.6575,18.334],[105.6511,18.3882],[105.5933,18.4109],[105.5354,18.4336],[105.5289,18.4879],[105.471,18.5106],[105.4645,18.5647],[105.4579,18.6189],[105.4,18.6416],[105.3933,18.6957],[105.3354,18.7184],[105.3286,18.7724],[105.155,18.8405],[105.1482,18.8946],[105.1413,18.9486],[105.0834,18.9713],[105.0764,19.0252],[105.0186,19.0479],[105.0115,19.1018],[104.9536,19.1245],[104.9024,19.5009],[104.8445,19.5236],[104.7866,19.5463],[104.779,19.6],[104.4896,19.7135],[104.482,19.7671],[104.4241,19.7898],[104.4163,19.8433],[104.4085,19.8968],[104.3507,19.9195],[104.3428,19.973],[104.3348,20.0265],[104.3927,20.0038],[104.3847,20.0572],[104.4426,20.0345],[104.4345,20.0878],[104.4924,20.0651],[104.4423,20.3846],[104.3845,20.4073],[104.3759,20.4604],[104.3672,20.5135],[104.3093,20.5362],[104.3006,20.5893],[104.2918,20.6423],[104.3497,20.6196],[104.3408,20.6726],[104.3987,20.6499],[104.3898,20.7028],[104.4477,20.6801],[104.4387,20.733],[104.4965,20.7103],[104.4691,20.8688],[104.527,20.8461],[104.4989,21.0042],[104.5568,20.9815],[104.5281,21.1394],[104.586,21.1167],[104.5763,21.1692],[104.6341,21.1465],[104.5846,21.4086],[104.5267,21.4313],[104.4688,21.454],[104.4587,21.5064],[104.4008,21.5291],[104.3429,21.5518],[104.2594,21.969],[103.9121,22.1052],[103.9013,22.1572],[103.8434,22.1799],[103.8326,22.2319],[103.7747,22.2546],[103.7168,22.2773],[103.6504,22.5882],[103.5925,22.6109],[103.5468,22.8175],[103.7204,22.7494],[103.7088,22.801],[103.7667,22.7783],[103.8246,22.7556],[103.8129,22.8071],[103.8708,22.7844],[103.8591,22.8359],[103.9169,22.8132],[103.9748,22.7905],[103.963,22.8419],[104.0209,22.8192],[103.9485,23.1272],[103.8906,23.1499],[103.8328,23.1726],[103.8205,23.2237],[103.6923,23.3203],[103.6799,23.3714],[103.6674,23.4225],[103.539,23.519],[103.488,23.7228],[103.4301,23.7455],[103.4171,23.7964],[103.3593,23.8191],[103.3014,23.8418],[103.2884,23.8926],[103.2753,23.9434],[103.2174,23.9661],[103.2043,24.0168],[103.2621,23.9941],[103.32,23.9714],[103.3068,24.0222],[103.3647,23.9995],[103.4226,23.9768],[103.4093,24.0274],[103.4672,24.0047],[103.525,23.982],[103.5117,24.0327],[103.5696,24.01],[103.6274,23.9873],[103.614,24.0379],[103.7877,23.9698],[103.7742,24.0204]]]}}]}
