{"type":"FeatureCollection","features":[{"type":"Feature","properties":{"periodId":"dang-trong-ngoai","name":"Đàng Ngoài","control":"direct","confidence":"medium","height":12000,"color":"#d9a44f","geometrySourceId":"khoahoc-45-maps","geometrySourceUrl":"https://e.khoahoc.tv/photos/image/2015/11/28/ban-do-viet-nam-35.jpg","geometrySourcePageUrl":"https://khoahoc.tv/45-tam-ban-do-viet-nam-qua-cac-giai-doan-tu-the-ky-10-phan-1-67140","imageYear":"1693","reconstructionMethod":"georeferenced-image-color-trace","precision":"illustrative-trace","georeferenceAccuracyKm":50,"sourceIds":"hcmc-1698,museum-hoang-sa-bac-hai,khoahoc-45-maps","referenceSourceIds":"wikipedia-territorial-history,diaocthongthai-atlas,khoahoc-45-maps"},"geometry":{"type":"MultiPolygon","coordinates":[[[[104.9453,23.5158],[105.2925,23.3796],[105.306,23.329],[105.769,23.1474],[105.7824,23.0967],[105.8403,23.074],[105.8981,23.0513],[105.9114,23.0006],[105.9693,22.9779],[106.0272,22.9552],[106.0666,22.803],[106.0088,22.8257],[106.0218,22.7748],[106.0347,22.724],[105.9768,22.7467],[105.9897,22.6958],[106.0025,22.6448],[105.9446,22.6675],[106.0322,22.3099],[106.0901,22.2872],[106.1023,22.236],[106.1145,22.1847],[106.2881,22.1166],[106.3002,22.0653],[106.3581,22.0426],[106.416,22.0199],[106.428,21.9686],[106.4859,21.9459],[106.4979,21.8945],[106.5097,21.8431],[106.6373,21.7463],[106.6491,21.6948],[106.7069,21.6721],[106.7648,21.6494],[106.7765,21.5979],[107.1817,21.4389],[107.17,21.4905],[107.2279,21.4678],[107.2857,21.4451],[107.274,21.4966],[107.4476,21.4284],[107.4358,21.4799],[107.6095,21.4118],[107.5976,21.4632],[107.6555,21.4405],[107.7134,21.4178],[107.7252,21.3664],[107.6674,21.3891],[107.6792,21.3376],[107.6213,21.3603],[107.633,21.3089],[107.5752,21.3316],[107.5173,21.3543],[107.5289,21.3027],[107.4711,21.3254],[107.4827,21.2739],[107.4248,21.2966],[107.4363,21.245],[107.3784,21.2677],[107.3899,21.2161],[107.2163,21.2842],[107.2277,21.2325],[107.239,21.1808],[107.1811,21.2035],[107.1232,21.2262],[107.1345,21.1745],[107.0766,21.1972],[107.0878,21.1454],[106.8562,21.2362],[106.9111,20.9768],[106.8532,20.9995],[106.864,20.9475],[106.6903,21.0156],[106.701,20.9636],[106.238,21.1452],[106.2904,20.8845],[106.2325,20.9072],[106.1746,20.9299],[106.1849,20.8776],[106.1951,20.8253],[106.1372,20.848],[106.1969,20.5336],[106.139,20.5563],[106.1488,20.5037],[106.0909,20.5264],[106.1005,20.4739],[106.0426,20.4966],[105.9847,20.5193],[105.9943,20.4667],[105.9364,20.4894],[105.9459,20.4367],[105.888,20.4594],[105.8975,20.4067],[105.8396,20.4294],[105.8489,20.3767],[105.6753,20.4448],[105.6846,20.3921],[105.6267,20.4148],[105.6359,20.362],[105.578,20.3847],[105.6053,20.2261],[105.5474,20.2488],[105.5563,20.1958],[105.4984,20.2185],[105.5674,19.7937],[105.5095,19.8164],[105.5178,19.7632],[105.4599,19.7859],[105.4844,19.6259],[105.4265,19.6486],[105.4659,19.3811],[105.5238,19.3584],[105.5315,19.3049],[105.5894,19.2822],[105.597,19.2285],[105.6045,19.1749],[105.6624,19.1522],[105.7203,19.1295],[105.7277,19.0758],[105.6698,19.0985],[105.7131,18.7755],[105.771,18.7528],[105.778,18.6988],[105.7849,18.6449],[105.8427,18.6222],[105.8496,18.5681],[105.8563,18.5141],[105.9142,18.4914],[105.9209,18.4373],[105.9788,18.4146],[105.9854,18.3604],[105.9275,18.3831],[105.9209,18.4373],[105.863,18.46],[105.8696,18.4058],[105.6381,18.4966],[105.6447,18.4425],[105.471,18.5106],[105.4775,18.4563],[105.4196,18.479],[105.426,18.4248],[105.3681,18.4475],[105.3869,18.2846],[105.4448,18.2619],[105.4509,18.2075],[105.5088,18.1848],[105.5149,18.1303],[105.5728,18.1076],[105.5787,18.0532],[105.5209,18.0759],[105.5268,18.0214],[105.5847,17.9987],[105.6425,17.976],[105.6484,17.9214],[105.7063,17.8987],[105.712,17.8442],[106.0593,17.708],[106.065,17.6533],[106.1229,17.6306],[106.1285,17.576],[106.1864,17.5533],[106.192,17.4986],[106.3656,17.4305],[106.3819,17.2663],[106.4398,17.2436],[106.445,17.1887],[106.3872,17.2114],[106.3924,17.1566],[106.3345,17.1793],[106.3186,17.3437],[106.2608,17.3664],[106.2553,17.4212],[106.1975,17.4439],[106.1396,17.4666],[106.1341,17.5213],[106.0762,17.544],[106.0706,17.5987],[106.0128,17.6214],[106.0071,17.676],[105.4283,17.9031],[105.3931,18.2302],[105.3352,18.2529],[105.3291,18.3073],[105.3229,18.3616],[105.265,18.3843],[105.2587,18.4386],[105.2008,18.4613],[105.1945,18.5156],[105.1366,18.5383],[105.0787,18.561],[105.0723,18.6153],[105.0144,18.638],[105.008,18.6922],[104.9501,18.7149],[104.8922,18.7376],[104.8857,18.7917],[104.8278,18.8144],[104.8212,18.8686],[104.7633,18.8913],[104.7054,18.914],[104.6987,18.9681],[104.6408,18.9908],[104.6341,19.0448],[104.5762,19.0675],[104.5183,19.0902],[104.5115,19.1443],[104.5046,19.1983],[104.331,19.2664],[104.324,19.3203],[104.2661,19.343],[104.2591,19.3969],[104.2012,19.4196],[104.1941,19.4735],[104.1869,19.5274],[104.129,19.5501],[104.0711,19.5728],[104.0639,19.6266],[104.006,19.6493],[103.9987,19.703],[103.9913,19.7568],[103.7019,19.8703],[103.7381,19.6012],[103.6803,19.6239],[103.6366,19.9467],[103.5787,19.9694],[103.5481,20.1838],[103.3166,20.2746],[103.3088,20.3281],[102.73,20.5552],[102.7378,20.5016],[102.4484,20.6151],[102.4087,20.8824],[102.3508,20.9051],[102.3426,20.9584],[102.2847,20.9811],[102.2269,21.0038],[102.2186,21.0571],[102.2103,21.1104],[102.1524,21.1331],[102.0946,21.1558],[102.0862,21.209],[102.0283,21.2317],[101.9854,21.4973],[102.0433,21.4746],[102.0345,21.5276],[102.0924,21.5049],[102.0835,21.5579],[102.2571,21.4898],[102.2482,21.5427],[102.3061,21.52],[102.2971,21.5729],[102.355,21.5502],[102.3459,21.6031],[102.6353,21.4896],[102.5602,21.9112],[102.618,21.8885],[102.6083,21.941],[102.6662,21.9183],[102.6564,21.9708],[102.6466,22.0233],[102.8781,21.9325],[102.8175,22.2465],[102.7597,22.2692],[102.7018,22.2919],[102.6914,22.3441],[102.6336,22.3668],[102.5757,22.3895],[102.5653,22.4417],[102.5074,22.4644],[102.4969,22.5165],[102.4864,22.5686],[102.4285,22.5913],[102.4179,22.6434],[102.4757,22.6207],[102.4651,22.6727],[102.4543,22.7247],[102.5122,22.702],[102.5013,22.754],[102.5592,22.7313],[102.5483,22.7832],[102.6062,22.7605],[102.5393,23.0713],[102.5972,23.0486],[102.5858,23.1002],[102.6437,23.0775],[102.6322,23.1291],[102.6901,23.1064],[102.5347,23.7743],[102.4768,23.797],[102.4644,23.8481],[102.4065,23.8708],[102.3235,23.9957],[102.3814,23.973],[102.3687,24.024],[102.4266,24.0013],[102.4845,23.9786],[102.4718,24.0296],[102.5297,24.0069],[102.5875,23.9842],[102.5747,24.0351],[102.6326,24.0124],[102.6905,23.9897],[102.6776,24.0406],[102.8513,23.9725],[102.8641,23.9216],[102.922,23.8989],[102.9348,23.848],[102.9475,23.797],[103.0054,23.7743],[103.0633,23.7516],[103.1464,23.6268],[103.2043,23.6041],[103.2168,23.553],[103.2747,23.5303],[103.3326,23.5076],[103.345,23.4565],[103.3574,23.4054],[103.4153,23.3827],[103.4977,23.2575],[103.5556,23.2348],[103.5678,23.1836],[103.6256,23.1609],[103.6377,23.1096],[103.6956,23.0869],[103.7076,23.0355],[103.8813,22.9674],[103.9169,22.8132],[103.9748,22.7905],[103.9866,22.739],[104.3338,22.6028],[104.3221,22.6543],[104.38,22.6316],[104.3682,22.683],[104.3563,22.7344],[104.4142,22.7117],[104.3781,22.8658],[104.7254,22.7296],[104.6638,22.9855],[104.7217,22.9628],[104.6456,23.2688],[104.7034,23.2461],[104.6905,23.2969],[104.7484,23.2742],[104.8063,23.2515],[104.7933,23.3024],[104.8511,23.2797],[104.909,23.257],[104.8959,23.3078],[104.9538,23.2851],[104.9008,23.4879],[104.9587,23.4652],[104.9453,23.5158]]],[[[106.0433,18.3377],[106.1012,18.315],[106.1077,18.2609],[106.2813,18.1927],[106.2878,18.1385],[106.1142,18.2066],[106.1206,18.1524],[106.1785,18.1297],[106.1848,18.0754],[106.1269,18.0981],[106.1206,18.1524],[106.0627,18.1751],[106.0433,18.3377]]],[[[105.8183,18.3744],[105.8762,18.3517],[105.8827,18.2974],[105.8248,18.3201],[105.8312,18.2659],[105.7733,18.2886],[105.7669,18.3428],[105.8248,18.3201],[105.8183,18.3744]]]]}},{"type":"Feature","properties":{"periodId":"dang-trong-ngoai","name":"Đàng Trong","control":"direct","confidence":"medium","height":12000,"color":"#db7644","geometrySourceId":"khoahoc-45-maps","geometrySourceUrl":"https://e.khoahoc.tv/photos/image/2015/11/28/ban-do-viet-nam-35.jpg","geometrySourcePageUrl":"https://khoahoc.tv/45-tam-ban-do-viet-nam-qua-cac-giai-doan-tu-the-ky-10-phan-1-67140","imageYear":"1693","reconstructionMethod":"georeferenced-image-color-trace","precision":"illustrative-trace","georeferenceAccuracyKm":50,"sourceIds":"hcmc-1698,museum-hoang-sa-bac-hai,khoahoc-45-maps","referenceSourceIds":"wikipedia-territorial-history,diaocthongthai-atlas,khoahoc-45-maps"},"geometry":{"type":"MultiPolygon","coordinates":[[[[105.863,18.46],[105.9209,18.4373],[105.9275,18.3831],[105.9854,18.3604],[106.0433,18.3377],[106.0627,18.1751],[106.1206,18.1524],[106.1269,18.0981],[106.1848,18.0754],[106.1785,18.1297],[106.1206,18.1524],[106.1142,18.2066],[106.4036,18.0931],[106.41,18.0389],[106.4679,18.0162],[106.5107,17.6355],[106.5686,17.6128],[106.5745,17.5582],[106.6323,17.5355],[106.6381,17.481],[106.696,17.4583],[106.7017,17.4036],[106.7073,17.349],[106.881,17.2809],[106.8865,17.2262],[106.9444,17.2035],[107.0023,17.1808],[107.0078,17.1261],[107.0657,17.1034],[107.1236,17.0807],[107.129,17.0259],[107.1343,16.9711],[107.1922,16.9484],[107.1975,16.8936],[107.2554,16.8709],[107.2606,16.8161],[107.3185,16.7934],[107.3236,16.7385],[107.3815,16.7158],[107.3866,16.6608],[107.3916,16.6059],[107.4494,16.5832],[107.5073,16.5605],[107.5123,16.5054],[107.5701,16.4827],[107.575,16.4277],[107.6329,16.405],[107.6377,16.3499],[107.6424,16.2948],[107.7003,16.2721],[107.7581,16.2494],[107.7628,16.1942],[107.8207,16.1715],[107.8786,16.1488],[107.8831,16.0937],[107.8876,16.0384],[108.0613,15.9703],[108.0744,15.8044],[108.3638,15.6909],[108.368,15.6356],[108.3722,15.5801],[108.4301,15.5574],[108.4879,15.5347],[108.492,15.4793],[108.496,15.4238],[108.5539,15.4011],[108.5579,15.3456],[108.6158,15.3229],[108.6344,15.0448],[108.8081,14.9767],[108.8116,14.9209],[108.8695,14.8982],[108.8729,14.8425],[108.8763,14.7867],[108.9342,14.764],[108.9375,14.7081],[108.9954,14.6854],[108.9987,14.6295],[109.0565,14.6068],[109.0597,14.5509],[109.0628,14.495],[109.1207,14.4723],[109.1237,14.4163],[109.1267,14.3602],[109.1846,14.3375],[109.1957,14.1131],[109.2536,14.0904],[109.2612,13.9217],[109.3191,13.8989],[109.3261,13.7299],[109.2682,13.7526],[109.2854,13.2435],[109.3433,13.2208],[109.3478,13.0504],[109.4057,13.0277],[109.4127,12.686],[109.4706,12.6633],[109.4715,12.6062],[109.2979,12.6743],[109.3014,12.3884],[109.2436,12.4111],[109.2441,12.3538],[109.2445,12.2964],[109.1866,12.3191],[109.1862,12.3765],[109.1857,12.4338],[109.2436,12.4111],[109.2408,12.6399],[109.183,12.6626],[109.1768,13.0047],[109.1189,13.0274],[109.1176,13.0843],[109.0597,13.107],[109.0539,13.3343],[108.996,13.357],[108.9909,13.527],[108.933,13.5497],[108.9312,13.6063],[108.8733,13.629],[108.8653,13.8551],[108.8074,13.8778],[108.7495,13.9005],[108.7473,13.9569],[108.6894,13.9796],[108.6872,14.036],[108.3978,14.1495],[108.3954,14.2058],[108.3375,14.2285],[108.2797,14.2512],[108.2696,14.4763],[108.096,14.5444],[108.0933,14.6006],[108.0906,14.6567],[108.0327,14.6794],[108.0299,14.7355],[107.972,14.7582],[107.9691,14.8143],[107.9112,14.837],[107.8533,14.8597],[107.8504,14.9157],[107.7925,14.9384],[107.7346,14.9611],[107.7316,15.0171],[107.6737,15.0398],[107.6706,15.0957],[107.6674,15.1516],[107.6095,15.1743],[107.6063,15.2302],[107.5484,15.2529],[107.4905,15.2756],[107.4804,15.4431],[107.4225,15.4658],[107.4189,15.5215],[107.4154,15.5772],[107.4732,15.5545],[107.4542,15.8324],[107.3963,15.8551],[107.3923,15.9106],[107.3344,15.9333],[107.3303,15.9888],[107.2725,16.0115],[107.2683,16.0669],[107.0947,16.135],[107.0904,16.1903],[107.0325,16.213],[107.0282,16.2684],[107.0239,16.3237],[106.7924,16.4145],[106.7879,16.4697],[106.7834,16.525],[106.7255,16.5477],[106.7116,16.7131],[106.6537,16.7358],[106.6341,16.9559],[106.5762,16.9786],[106.5712,17.0336],[106.5133,17.0563],[106.5081,17.1112],[106.5029,17.166],[106.445,17.1887],[106.4398,17.2436],[106.3819,17.2663],[106.3656,17.4305],[106.192,17.4986],[106.1864,17.5533],[106.1285,17.576],[106.1229,17.6306],[106.065,17.6533],[106.0593,17.708],[105.712,17.8442],[105.7063,17.8987],[105.6484,17.9214],[105.6425,17.976],[105.5847,17.9987],[105.5268,18.0214],[105.5209,18.0759],[105.5787,18.0532],[105.5728,18.1076],[105.5149,18.1303],[105.5088,18.1848],[105.4509,18.2075],[105.4448,18.2619],[105.3869,18.2846],[105.3681,18.4475],[105.426,18.4248],[105.4196,18.479],[105.4775,18.4563],[105.471,18.5106],[105.6447,18.4425],[105.6381,18.4966],[105.8696,18.4058],[105.863,18.46]]],[[[107.4948,11.474],[107.5526,11.4513],[107.5512,11.393],[107.6091,11.3703],[107.6669,11.3476],[107.6621,11.1725],[107.72,11.1498],[107.7779,11.1271],[107.7761,11.0686],[107.834,11.0459],[107.8322,10.9874],[107.8901,10.9647],[107.8842,10.789],[107.8264,10.8117],[107.8243,10.753],[107.7664,10.7757],[107.7085,10.7984],[107.7063,10.7398],[107.7041,10.6811],[107.762,10.6584],[107.7597,10.5996],[107.7018,10.6223],[107.6994,10.5635],[107.6416,10.5862],[107.6391,10.5274],[107.5812,10.5501],[107.5787,10.4912],[107.5208,10.5139],[107.5182,10.455],[107.4604,10.4777],[107.4577,10.4188],[107.3998,10.4415],[107.3419,10.4642],[107.3392,10.4052],[107.2813,10.4279],[107.2785,10.3689],[106.9891,10.4824],[106.9863,10.4234],[106.9833,10.3643],[106.8097,10.4324],[106.7906,10.0772],[106.7327,10.0999],[106.7293,10.0406],[106.7258,9.9812],[106.6679,10.0039],[106.6847,10.3004],[106.6268,10.3231],[106.569,10.3458],[106.5721,10.405],[106.3985,10.4731],[106.4015,10.5322],[106.3437,10.5549],[106.3467,10.614],[106.2888,10.6367],[106.2309,10.6594],[106.2338,10.7185],[106.176,10.7412],[106.1788,10.8003],[106.1209,10.823],[106.1237,10.882],[106.0659,10.9047],[106.0835,11.3167],[106.0256,11.3394],[106.0278,11.3981],[106.2014,11.33],[106.2036,11.3887],[106.2615,11.366],[106.2636,11.4246],[106.2656,11.4832],[106.3235,11.4605],[106.3814,11.4378],[106.3793,11.3792],[106.7266,11.243],[106.7343,11.4772],[106.7922,11.4545],[106.7939,11.513],[107.0833,11.3995],[107.085,11.4579],[107.1429,11.4352],[107.1445,11.4936],[107.376,11.4028],[107.3775,11.4611],[107.4354,11.4384],[107.4933,11.4157],[107.4948,11.474]]]]}},{"type":"Feature","properties":{"periodId":"dang-trong-ngoai","name":"Trấn Thuận Thành","control":"autonomous","confidence":"low","height":6500,"color":"#8e7d72","geometrySourceId":"khoahoc-45-maps","geometrySourceUrl":"https://e.khoahoc.tv/photos/image/2015/11/28/ban-do-viet-nam-35.jpg","geometrySourcePageUrl":"https://khoahoc.tv/45-tam-ban-do-viet-nam-qua-cac-giai-doan-tu-the-ky-10-phan-1-67140","imageYear":"1693","reconstructionMethod":"georeferenced-image-color-trace","precision":"illustrative-trace","georeferenceAccuracyKm":50,"sourceIds":"hcmc-1698,museum-hoang-sa-bac-hai,khoahoc-45-maps","referenceSourceIds":"wikipedia-territorial-history,diaocthongthai-atlas,khoahoc-45-maps"},"geometry":{"type":"Polygon","coordinates":[[[108.8191,13.5385],[108.9927,13.4704],[108.9944,13.4137],[108.996,13.357],[109.0539,13.3343],[109.0597,13.107],[109.1176,13.0843],[109.1189,13.0274],[109.1768,13.0047],[109.183,12.6626],[109.2408,12.6399],[109.2436,12.4111],[109.1857,12.4338],[109.1862,12.3765],[109.1866,12.3191],[109.2445,12.2964],[109.2456,11.9517],[109.1878,11.9744],[109.1859,11.5705],[109.128,11.5932],[109.0701,11.6159],[109.0696,11.5581],[109.069,11.5002],[109.0111,11.5229],[109.0079,11.291],[108.95,11.3137],[108.8921,11.3364],[108.8912,11.2783],[108.8333,11.301],[108.8323,11.2429],[108.7744,11.2656],[108.7733,11.2075],[108.7154,11.2302],[108.7142,11.172],[108.6563,11.1947],[108.6551,11.1365],[108.5972,11.1592],[108.5393,11.1819],[108.538,11.1237],[108.5366,11.0654],[108.4787,11.0881],[108.4773,11.0298],[108.4194,11.0525],[108.4179,10.9942],[108.36,11.0169],[108.3584,10.9585],[108.3005,10.9812],[108.2988,10.9227],[108.2409,10.9454],[108.2392,10.887],[108.1813,10.9097],[108.1234,10.9324],[108.1216,10.8739],[108.0637,10.8966],[108.0579,10.7209],[108,10.7436],[107.9979,10.6849],[107.94,10.7076],[107.8821,10.7303],[107.88,10.6717],[107.8221,10.6944],[107.8199,10.6357],[107.762,10.6584],[107.7041,10.6811],[107.7063,10.7398],[107.7085,10.7984],[107.7664,10.7757],[107.8243,10.753],[107.8264,10.8117],[107.8842,10.789],[107.8901,10.9647],[107.8322,10.9874],[107.834,11.0459],[107.7761,11.0686],[107.7779,11.1271],[107.72,11.1498],[107.6621,11.1725],[107.6669,11.3476],[107.6091,11.3703],[107.5512,11.393],[107.5526,11.4513],[107.4948,11.474],[107.4933,11.4157],[107.4354,11.4384],[107.3775,11.4611],[107.376,11.4028],[107.1445,11.4936],[107.1429,11.4352],[107.085,11.4579],[107.0833,11.3995],[107.0254,11.4222],[106.9676,11.4449],[106.9875,13.1244],[107.3927,12.9655],[107.393,12.9081],[107.3932,12.8506],[107.4511,12.8279],[107.4512,12.7705],[107.7985,12.6343],[107.7984,12.6917],[107.8563,12.669],[107.8549,12.8986],[107.9128,12.8759],[107.9707,12.8532],[107.9702,12.9105],[108.2017,12.8197],[108.2011,12.8769],[108.259,12.8542],[108.2584,12.9115],[108.3162,12.8888],[108.3155,12.9459],[108.3734,12.9232],[108.3726,12.9804],[108.4305,12.9577],[108.4296,13.0148],[108.4875,12.9921],[108.4767,13.5045],[108.5345,13.4818],[108.533,13.5386],[108.7066,13.4705],[108.705,13.5272],[108.7629,13.5045],[108.8207,13.4818],[108.8191,13.5385]]]}}]}
