{"type":"FeatureCollection","features":[{"type":"Feature","properties":{"periodId":"doc-lap-1945","name":"Việt Nam Dân chủ Cộng hòa","control":"direct","confidence":"medium","height":12000,"color":"#d34f3c","geometrySourceId":"diaocthongthai-atlas","geometrySourceUrl":"https://cdn.diaocthongthai.com/2021/08/ban-do-lanh-tho-viet-nam-qua-cac-thoi-ky-69.jpg","geometrySourcePageUrl":"https://diaocthongthai.com/ban-do-lanh-tho-viet-nam-qua-cac-thoi-ky/","imageYear":"1945","reconstructionMethod":"georeferenced-image-color-trace","precision":"illustrative-trace","georeferenceAccuracyKm":50,"sourceIds":"mofa-islands-status,diaocthongthai-atlas","referenceSourceIds":"wikipedia-territorial-history,diaocthongthai-atlas"},"geometry":{"type":"Polygon","coordinates":[[[104.2386,24.0413],[104.4418,23.9616],[104.4579,23.9028],[104.5256,23.8763],[104.5416,23.8174],[104.6094,23.7909],[104.6253,23.732],[104.6411,23.673],[104.7088,23.6464],[104.7765,23.6199],[104.7923,23.5609],[105.2663,23.375],[105.2819,23.3159],[105.6883,23.1565],[105.7038,23.0974],[105.7715,23.0709],[105.8392,23.0443],[105.8547,22.9852],[105.9224,22.9586],[105.9377,22.8994],[106.0055,22.8728],[106.0207,22.8136],[105.953,22.8401],[105.9681,22.7808],[105.9832,22.7215],[105.9155,22.7481],[106.0608,22.1518],[106.264,22.0721],[106.278,22.0123],[106.3457,21.9857],[106.4134,21.9591],[106.4273,21.8992],[106.495,21.8726],[106.5089,21.8126],[106.5226,21.7526],[106.5903,21.726],[106.658,21.6995],[106.6716,21.6394],[106.7394,21.6128],[106.7529,21.5527],[107.4301,21.2871],[107.4435,21.2269],[107.3758,21.2534],[107.3891,21.1932],[107.3214,21.2198],[107.2537,21.2463],[107.2669,21.186],[107.1992,21.2126],[107.2124,21.1523],[107.1446,21.1788],[107.0769,21.2054],[107.09,21.145],[107.0223,21.1715],[107.0352,21.1111],[106.9675,21.1377],[106.8998,21.1642],[106.9381,20.9826],[106.8703,21.0092],[106.8829,20.9485],[106.6798,21.0282],[106.6922,20.9675],[106.2182,21.1534],[106.2791,20.8493],[106.2114,20.8758],[106.2233,20.8149],[106.1556,20.8414],[106.2137,20.5358],[106.146,20.5623],[106.1573,20.501],[106.0896,20.5276],[106.1008,20.4663],[106.0331,20.4928],[105.9654,20.5194],[105.9765,20.458],[105.9876,20.3966],[105.9198,20.4231],[105.9308,20.3617],[105.8631,20.3882],[105.8739,20.3267],[105.603,20.4329],[105.635,20.2481],[105.5673,20.2746],[105.5778,20.2129],[105.5882,20.1511],[105.5204,20.1777],[105.5904,19.7439],[105.5227,19.7704],[105.5323,19.7083],[105.5418,19.6461],[105.4741,19.6726],[105.5291,19.2983],[105.5969,19.2717],[105.6057,19.2091],[105.6734,19.1826],[105.7327,18.7433],[105.8004,18.7167],[105.8085,18.6537],[105.8165,18.5907],[105.8842,18.5642],[105.8921,18.5011],[105.9598,18.4745],[105.9676,18.4114],[106.0353,18.3849],[106.043,18.3217],[106.1107,18.2952],[106.1785,18.2686],[106.1861,18.2054],[106.2538,18.1788],[106.3215,18.1523],[106.329,18.089],[106.3967,18.0625],[106.4644,18.0359],[106.5075,17.6553],[106.5752,17.6288],[106.582,17.5652],[106.6498,17.5386],[106.6565,17.4749],[106.6632,17.4112],[106.7309,17.3847],[106.7374,17.3209],[106.9406,17.2413],[106.947,17.1775],[107.0148,17.1509],[107.0825,17.1243],[107.0888,17.0605],[107.1566,17.0339],[107.1628,16.97],[107.169,16.9061],[107.2367,16.8795],[107.3044,16.853],[107.3105,16.789],[107.3165,16.7249],[107.3842,16.6984],[107.3901,16.6343],[107.4578,16.6077],[107.4636,16.5436],[107.5313,16.517],[107.599,16.4904],[107.6047,16.4262],[107.6725,16.3997],[107.6781,16.3354],[107.6836,16.2711],[107.7513,16.2446],[107.819,16.218],[107.8244,16.1537],[107.8921,16.1271],[107.8974,16.0627],[107.9652,16.0362],[108.0329,16.0096],[108.0381,15.9452],[108.1058,15.9186],[108.1109,15.8541],[108.116,15.7896],[108.3868,15.6833],[108.4013,15.4894],[108.469,15.4628],[108.5368,15.4363],[108.5414,15.3715],[108.6091,15.345],[108.6137,15.2802],[108.6814,15.2536],[108.6945,15.059],[108.7622,15.0324],[108.7663,14.9674],[108.8341,14.9409],[108.8381,14.8758],[108.9059,14.8493],[108.9098,14.7842],[108.9775,14.7576],[108.9814,14.6925],[108.9852,14.6273],[109.0529,14.6007],[109.0566,14.5355],[109.1243,14.509],[109.1348,14.313],[109.2025,14.2864],[109.2122,14.09],[109.2799,14.0634],[109.3134,13.1408],[109.3811,13.1142],[109.3828,13.0479],[109.3844,12.9816],[109.4521,12.9551],[109.4586,12.6227],[109.3909,12.6493],[109.3231,12.6758],[109.3272,12.3422],[109.2595,12.3688],[109.1918,12.3954],[109.1935,12.0605],[109.2612,12.034],[109.2613,11.9669],[109.1935,11.9934],[109.1919,11.5897],[109.1241,11.6163],[109.1235,11.5488],[109.0558,11.5754],[109.0534,11.3727],[108.9857,11.3993],[108.9847,11.3316],[108.917,11.3582],[108.9159,11.2905],[108.8481,11.317],[108.8469,11.2493],[108.7792,11.2758],[108.7779,11.208],[108.7102,11.2346],[108.7088,11.1667],[108.6411,11.1933],[108.6396,11.1254],[108.5719,11.1519],[108.5704,11.084],[108.5026,11.1106],[108.501,11.0426],[108.4332,11.0691],[108.4315,11.0011],[108.3638,11.0276],[108.3619,10.9595],[108.2942,10.9861],[108.2922,10.9179],[108.2245,10.9445],[108.2225,10.8763],[108.1547,10.9028],[108.087,10.9294],[108.0803,10.7245],[108.0126,10.7511],[108.0102,10.6827],[107.9424,10.7092],[107.8747,10.7358],[107.8722,10.6673],[107.8045,10.6939],[107.8018,10.6254],[107.7341,10.652],[107.7314,10.5834],[107.6637,10.61],[107.6609,10.5414],[107.5932,10.5679],[107.5902,10.4993],[107.5225,10.5259],[107.5195,10.4572],[107.4518,10.4837],[107.4487,10.415],[107.381,10.4415],[107.3778,10.3727],[106.9715,10.5321],[106.9682,10.4633],[106.9648,10.3944],[106.8971,10.4209],[106.8936,10.352],[106.8259,10.3785],[106.7581,10.4051],[106.7352,9.9904],[106.6675,10.017],[106.6548,9.809],[106.5871,9.8355],[106.5687,9.5575],[106.501,9.5841],[106.4962,9.5144],[106.2253,9.6207],[106.2051,9.3416],[106.1374,9.3682],[106.1321,9.2983],[106.0643,9.3249],[105.9966,9.3514],[105.9912,9.2815],[105.9235,9.3081],[105.918,9.2381],[105.8503,9.2646],[105.8447,9.1946],[105.777,9.2212],[105.7713,9.1511],[105.7036,9.1776],[105.6978,9.1075],[105.6301,9.1341],[105.5624,9.1606],[105.5565,9.0905],[105.4888,9.117],[105.4828,9.0468],[105.4767,8.9765],[105.409,9.0031],[105.4029,8.9328],[105.3966,8.8624],[105.3289,8.8889],[105.3225,8.8185],[105.3161,8.748],[105.2484,8.7746],[105.2418,8.7041],[105.1741,8.7306],[105.1675,8.6601],[105.1608,8.5894],[105.093,8.616],[105.0253,8.6426],[105.0185,8.5719],[104.9508,8.5984],[104.9438,8.5277],[104.8761,8.5543],[104.8084,8.5808],[104.8549,9.0749],[104.7871,9.1014],[104.8345,9.663],[104.9022,9.6365],[104.9077,9.7065],[104.9754,9.6799],[105.0014,10.029],[104.9337,10.0556],[104.866,10.0822],[104.8709,10.1519],[104.6,10.2581],[104.6048,10.3277],[104.5371,10.3543],[104.5418,10.4239],[104.4741,10.4504],[104.4877,10.6589],[104.5554,10.6323],[104.5598,10.7017],[104.9661,10.5424],[104.9704,10.6117],[105.0381,10.5851],[105.0422,10.6544],[105.11,10.6279],[105.114,10.6971],[105.1817,10.6705],[105.1933,10.878],[105.5319,10.7452],[105.5356,10.8142],[105.8065,10.708],[105.8101,10.7769],[106.0809,10.6707],[106.1088,11.2894],[106.0411,11.316],[106.0437,11.3845],[106.1115,11.3579],[106.114,11.4263],[106.1817,11.3998],[106.2494,11.3732],[106.2519,11.4416],[106.7259,11.2557],[106.7326,11.4606],[106.8003,11.434],[106.8681,11.4075],[106.8701,11.4757],[107.141,11.3694],[107.1429,11.4376],[107.3461,11.3579],[107.348,11.426],[107.4157,11.3995],[107.4834,11.3729],[107.4852,11.4409],[107.5529,11.4144],[107.5546,11.4824],[107.6223,11.4558],[107.6238,11.5238],[107.827,11.4441],[107.8285,11.512],[107.8962,11.4854],[107.8976,11.5533],[107.9653,11.5267],[107.9745,12.4043],[108.0423,12.3778],[108.0423,12.4449],[108.0423,12.5121],[108.11,12.4855],[108.1083,12.8203],[108.0405,12.8469],[108.0399,12.9137],[108.0392,12.9805],[107.9715,13.007],[107.9707,13.0737],[107.9029,13.1003],[107.8987,13.3667],[107.831,13.3932],[107.8297,13.4597],[107.8283,13.5261],[107.7606,13.5527],[107.7541,13.8179],[107.8218,13.7913],[107.8199,13.8575],[107.8876,13.8309],[107.8857,13.897],[107.8836,13.9631],[107.9513,13.9366],[107.937,14.332],[107.8692,14.3585],[107.8665,14.4243],[107.8637,14.4899],[107.9314,14.4634],[107.909,14.9217],[107.8412,14.9483],[107.8376,15.0136],[107.7699,15.0401],[107.7022,15.0667],[107.6985,15.1319],[107.6308,15.1585],[107.627,15.2237],[107.5593,15.2502],[107.5554,15.3154],[107.5514,15.3805],[107.4837,15.407],[107.4797,15.4721],[107.4755,15.537],[107.5432,15.5105],[107.521,15.8347],[107.4532,15.8612],[107.3855,15.8878],[107.3808,15.9525],[107.376,16.0171],[107.3082,16.0437],[107.2405,16.0702],[107.2356,16.1348],[107.1679,16.1614],[107.1628,16.2259],[107.0951,16.2525],[107.09,16.317],[106.8191,16.4232],[106.8032,16.6164],[106.7355,16.643],[106.73,16.7073],[106.6623,16.7338],[106.6333,17.0546],[106.5656,17.0811],[106.4979,17.1077],[106.4794,17.2995],[106.4116,17.3261],[106.4053,17.3899],[106.3988,17.4537],[106.1957,17.5334],[106.1891,17.5972],[106.1214,17.6237],[106.1147,17.6874],[106.047,17.714],[106.0403,17.7776],[105.9726,17.8042],[105.9657,17.8678],[105.898,17.8944],[105.8911,17.9579],[105.8233,17.9845],[105.8163,18.048],[105.7486,18.0745],[105.7415,18.138],[105.6738,18.1645],[105.6665,18.228],[105.6592,18.2913],[105.5915,18.3179],[105.569,18.5076],[105.5012,18.5342],[105.4936,18.5974],[105.4258,18.6239],[105.418,18.687],[105.4101,18.7501],[105.207,18.8298],[105.199,18.8928],[105.1313,18.9193],[105.1232,18.9823],[105.0555,19.0088],[105.0473,19.0718],[104.9796,19.0983],[104.9285,19.4747],[104.7254,19.5544],[104.7165,19.617],[104.5133,19.6967],[104.5044,19.7592],[104.4367,19.7857],[104.369,19.8123],[104.3599,19.8748],[104.3508,19.9372],[104.2831,19.9637],[104.2154,19.9903],[104.2061,20.0527],[104.1384,20.0792],[104.1291,20.1415],[104.0614,20.1681],[103.9936,20.1947],[103.9842,20.2569],[103.9165,20.2835],[103.8488,20.3101],[103.8393,20.3723],[103.7715,20.3988],[103.7038,20.4254],[103.6942,20.4876],[103.6265,20.5141],[103.6168,20.5762],[103.5491,20.6028],[103.5393,20.6649],[103.607,20.6383],[103.5971,20.7003],[103.6648,20.6738],[103.6548,20.7357],[103.7225,20.7092],[103.692,20.8948],[103.7597,20.8682],[103.7493,20.93],[104.3588,20.691],[104.3483,20.7527],[104.4161,20.7261],[104.4055,20.7878],[104.4732,20.7613],[104.419,21.0689],[104.3512,21.0954],[104.3401,21.1568],[104.2724,21.1834],[104.2047,21.2099],[104.1707,21.3938],[103.8998,21.5],[103.8883,21.5612],[103.8766,21.6223],[103.9444,21.5958],[103.8848,21.9007],[103.8171,21.9272],[103.8049,21.9881],[103.7372,22.0146],[103.7249,22.0754],[103.3863,22.2082],[103.3986,22.1474],[103.1954,22.2271],[103.2076,22.1663],[103.2197,22.1054],[103.152,22.132],[103.164,22.071],[103.0963,22.0976],[103.0286,22.1241],[103.0166,22.1851],[102.9489,22.2116],[102.8811,22.2382],[102.869,22.2991],[102.6659,22.3788],[102.6537,22.4396],[102.586,22.4662],[102.5737,22.5269],[102.506,22.5535],[102.4382,22.5801],[102.4259,22.6408],[102.3581,22.6674],[102.3457,22.728],[102.3331,22.7887],[102.2654,22.8152],[102.2527,22.8758],[102.185,22.9024],[102.1722,22.9629],[102.1594,23.0234],[102.0916,23.05],[102.0787,23.1104],[102.1464,23.0838],[102.0936,23.3251],[102.053,23.5055],[101.9853,23.5321],[101.9716,23.5921],[101.9578,23.6521],[102.0255,23.6256],[101.955,23.9248],[102.0227,23.8982],[102.0083,23.9579],[101.9938,24.0176],[102.0616,23.991],[102.1293,23.9645],[102.1147,24.0241],[102.1824,23.9975],[102.2501,23.9709],[102.2355,24.0305],[102.3032,24.0039],[102.3709,23.9774],[102.3561,24.0369],[102.4238,24.0103],[102.4916,23.9838],[102.4767,24.0432],[102.6799,23.9635],[102.6649,24.0229],[102.7326,23.9964],[102.8003,23.9698],[102.7853,24.0292],[103.0562,23.9229],[103.041,23.9822],[103.0258,24.0415],[103.0935,24.0149],[103.1612,23.9883],[103.1459,24.0476],[103.5522,23.8882],[103.5367,23.9473],[103.8076,23.8411],[103.7607,24.0183],[103.8284,23.9917],[103.8962,23.9652],[103.8803,24.0241],[103.9481,23.9975],[104.0158,23.971],[103.9999,24.0299],[104.0676,24.0033],[104.1353,23.9768],[104.1193,24.0356],[104.187,24.0091],[104.2547,23.9825],[104.2386,24.0413]]]}}]}
