{"type":"FeatureCollection","features":[{"type":"Feature","properties":{"periodId":"gia-long-1802","name":"Việt Nam thời Gia Long","control":"direct","confidence":"high","height":12000,"color":"#d6613c","geometrySourceId":"khoahoc-45-maps","geometrySourceUrl":"https://e.khoahoc.tv/photos/image/2015/11/28/ban-do-viet-nam-46.jpg","geometrySourcePageUrl":"https://khoahoc.tv/45-tam-ban-do-viet-nam-qua-cac-giai-doan-tu-the-ky-10-phan-1-67140","imageYear":"1802","reconstructionMethod":"georeferenced-image-color-trace","precision":"illustrative-trace","georeferenceAccuracyKm":50,"sourceIds":"archives-nguyen-islands,khoahoc-45-maps","referenceSourceIds":"wikipedia-territorial-history,diaocthongthai-atlas,khoahoc-45-maps"},"geometry":{"type":"MultiPolygon","coordinates":[[[[104.4415,23.849],[104.6152,23.7809],[104.6288,23.7304],[104.8024,23.6623],[104.8874,23.5385],[105.3504,23.3569],[105.3639,23.3063],[105.769,23.1474],[105.7824,23.0967],[105.8403,23.074],[105.8981,23.0513],[105.9114,23.0006],[105.9693,22.9779],[106.0272,22.9552],[106.0796,22.7521],[106.0218,22.7748],[106.0347,22.724],[105.9768,22.7467],[105.9897,22.6958],[106.0025,22.6448],[105.9446,22.6675],[106.0199,22.3611],[106.0778,22.3384],[106.1145,22.1847],[106.2881,22.1166],[106.3002,22.0653],[106.3581,22.0426],[106.416,22.0199],[106.428,21.9686],[106.4859,21.9459],[106.4979,21.8945],[106.5097,21.8431],[106.6373,21.7463],[106.6491,21.6948],[106.8227,21.6267],[106.8344,21.5752],[107.1817,21.4389],[107.17,21.4905],[107.2279,21.4678],[107.2161,21.5193],[107.5634,21.383],[107.5516,21.4345],[107.6095,21.4118],[107.5976,21.4632],[107.6555,21.4405],[107.7134,21.4178],[107.7252,21.3664],[107.6674,21.3891],[107.6792,21.3376],[107.6213,21.3603],[107.633,21.3089],[107.5752,21.3316],[107.5173,21.3543],[107.5289,21.3027],[107.4711,21.3254],[107.4827,21.2739],[107.4248,21.2966],[107.4363,21.245],[107.3784,21.2677],[107.3899,21.2161],[107.2163,21.2842],[107.2277,21.2325],[107.1698,21.2552],[107.1811,21.2035],[107.1232,21.2262],[107.1345,21.1745],[107.0766,21.1972],[107.0878,21.1454],[106.8562,21.2362],[106.9111,20.9768],[106.8532,20.9995],[106.864,20.9475],[106.6903,21.0156],[106.701,20.9636],[106.238,21.1452],[106.2904,20.8845],[106.2325,20.9072],[106.1746,20.9299],[106.1849,20.8776],[106.1951,20.8253],[106.1372,20.848],[106.1969,20.5336],[106.139,20.5563],[106.1488,20.5037],[106.1584,20.4512],[105.9847,20.5193],[105.9943,20.4667],[105.9364,20.4894],[105.9459,20.4367],[105.888,20.4594],[105.8975,20.4067],[105.8396,20.4294],[105.7817,20.4521],[105.7911,20.3994],[105.7332,20.4221],[105.7425,20.3694],[105.6846,20.3921],[105.6267,20.4148],[105.6359,20.362],[105.578,20.3847],[105.5872,20.3318],[105.5963,20.279],[105.5384,20.3017],[105.5474,20.2488],[105.5563,20.1958],[105.4984,20.2185],[105.5674,19.7937],[105.5095,19.8164],[105.5178,19.7632],[105.526,19.7099],[105.4682,19.7326],[105.4763,19.6792],[105.4844,19.6259],[105.4265,19.6486],[105.4659,19.3811],[105.5238,19.3584],[105.5315,19.3049],[105.5391,19.2512],[105.597,19.2285],[105.6045,19.1749],[105.6624,19.1522],[105.7203,19.1295],[105.7277,19.0758],[105.6698,19.0985],[105.7131,18.7755],[105.771,18.7528],[105.778,18.6988],[105.7849,18.6449],[105.8427,18.6222],[105.8496,18.5681],[105.8563,18.5141],[105.9142,18.4914],[105.9209,18.4373],[105.9788,18.4146],[105.9854,18.3604],[106.0433,18.3377],[106.1012,18.315],[106.1077,18.2609],[106.2813,18.1927],[106.2878,18.1385],[106.3457,18.1158],[106.4036,18.0931],[106.41,18.0389],[106.4679,18.0162],[106.5107,17.6355],[106.5686,17.6128],[106.5745,17.5582],[106.6323,17.5355],[106.6381,17.481],[106.696,17.4583],[106.7017,17.4036],[106.7596,17.3809],[106.7652,17.3263],[106.8231,17.3036],[106.881,17.2809],[106.8865,17.2262],[106.9444,17.2035],[107.0023,17.1808],[107.0078,17.1261],[107.0657,17.1034],[107.1236,17.0807],[107.129,17.0259],[107.1343,16.9711],[107.1922,16.9484],[107.1975,16.8936],[107.2554,16.8709],[107.2606,16.8161],[107.3185,16.7934],[107.3236,16.7385],[107.3287,16.6835],[107.3866,16.6608],[107.3916,16.6059],[107.4494,16.5832],[107.5073,16.5605],[107.5123,16.5054],[107.5701,16.4827],[107.575,16.4277],[107.6329,16.405],[107.6377,16.3499],[107.6955,16.3272],[107.7003,16.2721],[107.7581,16.2494],[107.7628,16.1942],[107.8207,16.1715],[107.8786,16.1488],[107.8831,16.0937],[107.8876,16.0384],[108.0613,15.9703],[108.0657,15.9151],[108.0701,15.8598],[108.128,15.8371],[108.1323,15.7817],[108.3638,15.6909],[108.368,15.6356],[108.3722,15.5801],[108.4301,15.5574],[108.4879,15.5347],[108.5,15.3683],[108.5579,15.3456],[108.6158,15.3229],[108.6196,15.2673],[108.6775,15.2446],[108.6923,15.0221],[108.7502,14.9994],[108.8081,14.9767],[108.8116,14.9209],[108.8695,14.8982],[108.8729,14.8425],[108.8763,14.7867],[108.9342,14.764],[108.9375,14.7081],[108.9954,14.6854],[108.9987,14.6295],[109.0018,14.5736],[109.0597,14.5509],[109.0628,14.495],[109.1207,14.4723],[109.1237,14.4163],[109.1267,14.3602],[109.1846,14.3375],[109.1957,14.1131],[109.2536,14.0904],[109.2612,13.9217],[109.3191,13.8989],[109.3261,13.7299],[109.2682,13.7526],[109.2854,13.2435],[109.3433,13.2208],[109.3478,13.0504],[109.4057,13.0277],[109.4127,12.686],[109.4706,12.6633],[109.4715,12.6062],[109.2979,12.6743],[109.3014,12.3884],[109.2436,12.4111],[109.2456,11.9517],[109.1878,11.9744],[109.178,12.9478],[109.1201,12.9705],[109.1162,13.1412],[109.0584,13.1639],[109.0539,13.3343],[108.996,13.357],[108.9909,13.527],[108.933,13.5497],[108.9312,13.6063],[108.8733,13.629],[108.8653,13.8551],[108.8074,13.8778],[108.8052,13.9342],[108.7473,13.9569],[108.745,14.0133],[108.3978,14.1495],[108.3954,14.2058],[108.3375,14.2285],[108.3351,14.2849],[108.2773,14.3076],[108.2696,14.4763],[108.096,14.5444],[108.0933,14.6006],[108.0354,14.6233],[108.0327,14.6794],[107.9748,14.7021],[107.972,14.7582],[107.9141,14.7809],[107.9112,14.837],[107.8533,14.8597],[107.7954,14.8824],[107.7925,14.9384],[107.7346,14.9611],[107.7316,15.0171],[107.6737,15.0398],[107.6158,15.0625],[107.6127,15.1184],[107.5548,15.1411],[107.5516,15.197],[107.5484,15.2529],[107.4905,15.2756],[107.4872,15.3315],[107.4293,15.3542],[107.3963,15.8551],[107.3384,15.8778],[107.3344,15.9333],[107.3303,15.9888],[107.2725,16.0115],[107.2683,16.0669],[107.0947,16.135],[107.0904,16.1903],[107.0325,16.213],[107.0282,16.2684],[106.7388,16.3819],[106.7345,16.4372],[106.73,16.4924],[106.6722,16.5151],[106.6676,16.5704],[106.6631,16.6256],[106.6052,16.6483],[106.5762,16.9786],[106.5183,17.0013],[106.5133,17.0563],[106.4554,17.079],[106.4503,17.1339],[106.3924,17.1566],[106.3872,17.2114],[106.3293,17.2341],[106.324,17.289],[106.3186,17.3437],[106.2608,17.3664],[106.2029,17.3891],[106.1975,17.4439],[106.1396,17.4666],[106.1341,17.5213],[106.0762,17.544],[106.0706,17.5987],[105.897,17.6668],[105.8914,17.7215],[105.7177,17.7896],[105.712,17.8442],[105.6541,17.8669],[105.6484,17.9214],[105.5905,17.9441],[105.5326,17.9668],[105.5268,18.0214],[105.4689,18.0441],[105.463,18.0986],[105.4051,18.1213],[105.3991,18.1757],[105.3931,18.2302],[105.0458,18.3664],[105.0144,18.638],[104.9566,18.6607],[104.9501,18.7149],[104.8922,18.7376],[104.8343,18.7603],[104.8278,18.8144],[104.7699,18.8371],[104.7633,18.8913],[104.7054,18.914],[104.6475,18.9367],[104.6408,18.9908],[104.583,19.0135],[104.5762,19.0675],[104.5183,19.0902],[104.5115,19.1443],[104.4536,19.167],[104.3957,19.1897],[104.3888,19.2437],[104.331,19.2664],[104.2731,19.2891],[104.2661,19.343],[104.2591,19.3969],[104.0854,19.465],[104.0639,19.6266],[104.006,19.6493],[103.9987,19.703],[103.7093,19.8165],[103.7381,19.6012],[103.5645,19.6693],[103.5574,19.7232],[103.6153,19.7005],[103.5559,20.1303],[103.498,20.153],[103.4401,20.1757],[103.4324,20.2292],[102.7378,20.5016],[102.7456,20.4481],[102.514,20.5389],[102.5063,20.5924],[102.4484,20.6151],[102.4087,20.8824],[102.1771,20.9732],[102.169,21.0265],[102.1111,21.0492],[102.1029,21.1025],[102.0946,21.1558],[102.0367,21.1785],[102.0283,21.2317],[101.9704,21.2544],[101.962,21.3076],[102.0199,21.2849],[101.9854,21.4973],[102.0433,21.4746],[102.0345,21.5276],[102.0256,21.5806],[102.1993,21.5125],[102.1903,21.5654],[102.2482,21.5427],[102.3061,21.52],[102.2971,21.5729],[102.355,21.5502],[102.3459,21.6031],[102.5195,21.535],[102.5104,21.5878],[102.5683,21.5651],[102.6261,21.5424],[102.5602,21.9112],[102.618,21.8885],[102.6083,21.941],[102.6662,21.9183],[102.6564,21.9708],[102.7143,21.9481],[102.7045,22.0006],[102.7623,21.9779],[102.8202,21.9552],[102.8103,22.0076],[102.8682,21.9849],[102.8175,22.2465],[102.7597,22.2692],[102.7018,22.2919],[102.6914,22.3441],[102.6336,22.3668],[102.5757,22.3895],[102.5653,22.4417],[102.5074,22.4644],[102.4543,22.7247],[102.5122,22.702],[102.5013,22.754],[102.5592,22.7313],[102.5483,22.7832],[102.6062,22.7605],[102.5393,23.0713],[102.5972,23.0486],[102.5858,23.1002],[102.6437,23.0775],[102.6322,23.1291],[102.6901,23.1064],[102.5347,23.7743],[102.4768,23.797],[102.4644,23.8481],[102.4065,23.8708],[102.3235,23.9957],[102.3814,23.973],[102.3687,24.024],[102.4266,24.0013],[102.4845,23.9786],[102.4718,24.0296],[102.5297,24.0069],[102.5875,23.9842],[102.5747,24.0351],[102.6326,24.0124],[102.6905,23.9897],[102.6776,24.0406],[102.967,23.9271],[102.9541,23.978],[102.9411,24.0288],[102.999,24.0061],[103.0568,23.9834],[103.0438,24.0342],[103.1016,24.0115],[103.1595,23.9888],[103.1464,24.0395],[103.32,23.9714],[103.3068,24.0222],[103.3647,23.9995],[103.4226,23.9768],[103.4093,24.0274],[103.4672,24.0047],[103.525,23.982],[103.5117,24.0327],[103.5696,24.01],[103.6274,23.9873],[103.614,24.0379],[103.7877,23.9698],[103.7742,24.0204],[104.0057,23.9296],[104.0192,23.879],[104.3665,23.7428],[104.353,23.7934],[104.4108,23.7707],[104.3973,23.8212],[104.4551,23.7985],[104.4415,23.849]]],[[[107.4948,11.474],[107.5526,11.4513],[107.5512,11.393],[107.6091,11.3703],[107.6669,11.3476],[107.6621,11.1725],[107.72,11.1498],[107.7779,11.1271],[107.7761,11.0686],[107.834,11.0459],[107.8322,10.9874],[107.8901,10.9647],[107.8842,10.789],[107.9421,10.7663],[108,10.7436],[107.9979,10.6849],[107.94,10.7076],[107.8821,10.7303],[107.88,10.6717],[107.8221,10.6944],[107.8199,10.6357],[107.762,10.6584],[107.7597,10.5996],[107.7018,10.6223],[107.6994,10.5635],[107.6416,10.5862],[107.6391,10.5274],[107.5812,10.5501],[107.5787,10.4912],[107.5208,10.5139],[107.5182,10.455],[107.4604,10.4777],[107.4577,10.4188],[107.3998,10.4415],[107.3419,10.4642],[107.3392,10.4052],[107.2813,10.4279],[107.2785,10.3689],[106.9891,10.4824],[106.9863,10.4234],[106.9833,10.3643],[106.8097,10.4324],[106.7906,10.0772],[106.7327,10.0999],[106.7293,10.0406],[106.7258,9.9812],[106.6679,10.0039],[106.657,9.8256],[106.5991,9.8483],[106.5836,9.61],[106.5257,9.6327],[106.5217,9.5731],[106.5175,9.5134],[106.2281,9.6269],[106.2109,9.3877],[106.153,9.4104],[106.1485,9.3505],[106.0907,9.3732],[106.0861,9.3133],[106.0282,9.336],[106.0236,9.2761],[105.9657,9.2988],[105.961,9.2388],[105.9032,9.2615],[105.8453,9.2842],[105.8405,9.2242],[105.7826,9.2469],[105.7778,9.1868],[105.7199,9.2095],[105.715,9.1494],[105.6571,9.1721],[105.6522,9.112],[105.5943,9.1347],[105.5892,9.0745],[105.5314,9.0972],[105.5262,9.037],[105.4684,9.0597],[105.4632,8.9995],[105.4579,8.9392],[105.4,8.9619],[105.3947,8.9016],[105.3893,8.8412],[105.3314,8.8639],[105.326,8.8036],[105.3204,8.7431],[105.2626,8.7658],[105.257,8.7054],[105.1991,8.7281],[105.1934,8.6676],[105.1355,8.6903],[105.1298,8.6298],[105.124,8.5692],[105.0661,8.5919],[105.0082,8.6146],[105.0023,8.554],[104.9444,8.5767],[104.8866,8.5994],[104.8806,8.5387],[104.8227,8.5614],[104.7648,8.5842],[104.866,9.7301],[104.9239,9.7074],[104.9818,9.6847],[105.0084,10.0438],[104.8348,10.1119],[104.839,10.1717],[104.5496,10.2852],[104.5537,10.3449],[104.5578,10.4045],[104.4999,10.4272],[104.5039,10.4869],[104.5078,10.5464],[104.4499,10.5691],[104.4538,10.6287],[104.3959,10.6514],[104.338,10.6741],[104.3418,10.7336],[103.9945,10.8698],[103.9749,10.5719],[103.917,10.5946],[103.8591,10.6173],[103.855,10.5576],[103.7971,10.5803],[103.8209,10.9379],[103.6472,11.006],[103.6509,11.0655],[103.4194,11.1563],[103.4301,11.3345],[103.488,11.3118],[103.4914,11.3711],[103.5493,11.3484],[103.5527,11.4077],[103.6105,11.385],[103.6684,11.3623],[103.6717,11.4216],[103.6749,11.4808],[103.9064,11.39],[103.9096,11.4492],[103.9675,11.4265],[103.9705,11.4856],[104.0284,11.4629],[104.0314,11.5221],[104.0893,11.4994],[104.0923,11.5584],[104.0951,11.6175],[104.153,11.5948],[104.2109,11.5721],[104.208,11.513],[104.8447,11.2633],[104.8583,11.5582],[105.0898,11.4674],[105.0819,11.2906],[105.1398,11.2679],[105.137,11.2089],[105.1341,11.1498],[105.192,11.1271],[105.189,11.068],[105.186,11.0089],[105.2439,10.9862],[105.2408,10.9271],[105.7618,10.7228],[105.7792,11.0771],[105.8371,11.0544],[105.8473,11.2899],[105.9051,11.2672],[105.9075,11.326],[105.9098,11.3848],[105.9677,11.3621],[106.0256,11.3394],[106.0278,11.3981],[106.0857,11.3754],[106.0878,11.4341],[106.1457,11.4114],[106.2036,11.3887],[106.2057,11.4473],[106.7266,11.243],[106.7343,11.4772],[106.9079,11.4091],[106.9097,11.4676],[107.0833,11.3995],[107.085,11.4579],[107.1429,11.4352],[107.1445,11.4936],[107.4339,11.3801],[107.4354,11.4384],[107.4933,11.4157],[107.4948,11.474]]]]}}]}
