{"type":"FeatureCollection","features":[{"type":"Feature","properties":{"periodId":"hau-le-1428","name":"Đại Việt phục hồi","control":"direct","confidence":"medium","height":12000,"color":"#d7a050","geometrySourceId":"khoahoc-45-maps","geometrySourceUrl":"https://e.khoahoc.tv/photos/image/2015/11/28/ban-do-viet-nam-24.jpg","geometrySourcePageUrl":"https://khoahoc.tv/45-tam-ban-do-viet-nam-qua-cac-giai-doan-tu-the-ky-10-phan-1-67140","imageYear":"1428","reconstructionMethod":"georeferenced-image-color-trace","precision":"illustrative-trace","georeferenceAccuracyKm":50,"sourceIds":"museum-overview,khoahoc-45-maps","referenceSourceIds":"wikipedia-territorial-history,diaocthongthai-atlas,khoahoc-45-maps"},"geometry":{"type":"Polygon","coordinates":[[[104.4551,23.7985],[104.6288,23.7304],[104.6424,23.6799],[104.7002,23.6572],[104.7581,23.6345],[104.8429,23.5106],[105.306,23.329],[105.3193,23.2783],[105.7245,23.1194],[105.7378,23.0687],[105.7957,23.046],[105.8536,23.0233],[105.8668,22.9726],[105.9246,22.9499],[105.9825,22.9272],[105.9957,22.8765],[106.0088,22.8257],[105.9509,22.8484],[105.9639,22.7975],[105.9768,22.7467],[105.9189,22.7694],[105.9318,22.7185],[105.8739,22.7412],[105.9743,22.3326],[106.0322,22.3099],[106.0687,22.1561],[107.0527,21.7702],[107.0406,21.8215],[107.2721,21.7307],[107.2599,21.782],[107.3178,21.7593],[107.3757,21.7366],[107.3635,21.7878],[107.3512,21.839],[107.409,21.8163],[107.4669,21.7936],[107.4792,21.7424],[107.7108,21.6516],[107.793,21.5264],[107.8509,21.5037],[107.863,21.4524],[107.8051,21.4751],[107.8172,21.4238],[107.7593,21.4465],[107.7712,21.3951],[107.7134,21.4178],[107.7252,21.3664],[107.6674,21.3891],[107.6792,21.3376],[107.6213,21.3603],[107.633,21.3089],[107.5752,21.3316],[107.5173,21.3543],[107.5289,21.3027],[107.4711,21.3254],[107.4827,21.2739],[107.4248,21.2966],[107.4363,21.245],[107.3784,21.2677],[107.3899,21.2161],[107.2163,21.2842],[107.2277,21.2325],[107.239,21.1808],[107.1811,21.2035],[107.1923,21.1518],[107.1345,21.1745],[107.0766,21.1972],[107.0878,21.1454],[107.0299,21.1681],[106.972,21.1908],[107.016,20.9833],[106.9582,21.006],[106.9003,21.0287],[106.9111,20.9768],[106.9219,20.9248],[106.6903,21.0156],[106.701,20.9636],[106.238,21.1452],[106.2904,20.8845],[106.2325,20.9072],[106.2428,20.8549],[106.1849,20.8776],[106.1951,20.8253],[106.1372,20.848],[106.1969,20.5336],[106.139,20.5563],[106.1488,20.5037],[106.0909,20.5264],[106.1005,20.4739],[106.0426,20.4966],[105.9847,20.5193],[105.9943,20.4667],[105.9364,20.4894],[105.9459,20.4367],[105.9554,20.384],[105.8975,20.4067],[105.8396,20.4294],[105.8489,20.3767],[105.7911,20.3994],[105.8004,20.3467],[105.6267,20.4148],[105.6359,20.362],[105.578,20.3847],[105.5872,20.3318],[105.5963,20.279],[105.5384,20.3017],[105.5652,20.1429],[105.5073,20.1656],[105.5674,19.7937],[105.5095,19.8164],[105.5178,19.7632],[105.526,19.7099],[105.4682,19.7326],[105.5391,19.2512],[105.597,19.2285],[105.6045,19.1749],[105.6624,19.1522],[105.7203,19.1295],[105.7277,19.0758],[105.6698,19.0985],[105.7131,18.7755],[105.771,18.7528],[105.778,18.6988],[105.7849,18.6449],[105.8427,18.6222],[105.8496,18.5681],[105.8563,18.5141],[105.9142,18.4914],[105.9209,18.4373],[105.9788,18.4146],[105.9854,18.3604],[106.0433,18.3377],[106.1012,18.315],[106.1077,18.2609],[106.2813,18.1927],[106.2878,18.1385],[106.3457,18.1158],[106.4036,18.0931],[106.41,18.0389],[106.4679,18.0162],[106.5107,17.6355],[106.5686,17.6128],[106.5745,17.5582],[106.6323,17.5355],[106.6381,17.481],[106.696,17.4583],[106.7017,17.4036],[106.7596,17.3809],[106.7652,17.3263],[106.8231,17.3036],[106.881,17.2809],[106.8865,17.2262],[106.9444,17.2035],[107.0023,17.1808],[107.0078,17.1261],[107.0657,17.1034],[107.0711,17.0486],[107.129,17.0259],[107.1343,16.9711],[107.1922,16.9484],[107.1975,16.8936],[107.2554,16.8709],[107.2606,16.8161],[107.3185,16.7934],[107.3337,16.6286],[107.3916,16.6059],[107.4494,16.5832],[107.4544,16.5281],[107.5123,16.5054],[107.5171,16.4504],[107.575,16.4277],[107.6329,16.405],[107.6377,16.3499],[107.6955,16.3272],[107.7003,16.2721],[107.7581,16.2494],[107.7628,16.1942],[107.8207,16.1715],[107.8253,16.1164],[107.8831,16.0937],[107.8876,16.0384],[108.0613,15.9703],[108.0744,15.8044],[108.3638,15.6909],[108.368,15.6356],[108.3722,15.5801],[108.1985,15.6482],[108.2026,15.5928],[108.2066,15.5373],[108.1488,15.56],[108.1527,15.5045],[108.0948,15.5272],[108.0987,15.4717],[107.5199,15.6987],[107.516,15.7542],[107.4581,15.7769],[107.4542,15.8324],[107.3963,15.8551],[107.3923,15.9106],[107.3344,15.9333],[107.3303,15.9888],[107.3262,16.0442],[107.1525,16.1123],[107.1483,16.1676],[107.0904,16.1903],[107.0861,16.2457],[106.9125,16.3138],[106.9081,16.3691],[106.8502,16.3918],[106.7924,16.4145],[106.7788,16.5802],[106.7209,16.6029],[106.6631,16.6256],[106.6341,16.9559],[106.5762,16.9786],[106.5712,17.0336],[106.566,17.0885],[106.5081,17.1112],[106.5029,17.166],[106.445,17.1887],[106.4398,17.2436],[106.4344,17.2983],[106.3765,17.321],[106.3711,17.3758],[106.3132,17.3985],[106.2553,17.4212],[106.2499,17.4759],[106.192,17.4986],[106.1864,17.5533],[106.1285,17.576],[106.1229,17.6306],[106.065,17.6533],[106.0593,17.708],[106.0014,17.7307],[105.9957,17.7852],[106.0535,17.7625],[106.0358,17.926],[106.0937,17.9033],[106.0627,18.1751],[106.0048,18.1978],[105.9984,18.252],[105.5354,18.4336],[105.5289,18.4879],[105.5223,18.542],[105.4645,18.5647],[105.4579,18.6189],[105.4,18.6416],[105.3933,18.6957],[105.2196,18.7638],[105.2129,18.8178],[105.155,18.8405],[105.1482,18.8946],[105.0903,18.9173],[105.0834,18.9713],[105.0255,18.994],[105.0186,19.0479],[105.0115,19.1018],[104.9536,19.1245],[104.9024,19.5009],[104.8445,19.5236],[104.7866,19.5463],[104.779,19.6],[104.4896,19.7135],[104.482,19.7671],[104.4241,19.7898],[104.4163,19.8433],[104.4085,19.8968],[104.3507,19.9195],[104.3428,19.973],[104.3348,20.0265],[104.3927,20.0038],[104.3847,20.0572],[104.4426,20.0345],[104.4345,20.0878],[104.4924,20.0651],[104.4423,20.3846],[104.3845,20.4073],[104.3759,20.4604],[104.3672,20.5135],[104.3093,20.5362],[104.3006,20.5893],[104.2918,20.6423],[104.3497,20.6196],[104.3408,20.6726],[104.3987,20.6499],[104.3898,20.7028],[104.4477,20.6801],[104.4387,20.733],[104.4965,20.7103],[104.4875,20.7632],[104.4783,20.816],[104.5362,20.7933],[104.4894,21.0569],[104.5473,21.0342],[104.5377,21.0868],[104.5956,21.0641],[104.586,21.1167],[104.5763,21.1692],[104.6341,21.1465],[104.5846,21.4086],[104.4109,21.4767],[104.4008,21.5291],[104.2748,21.6267],[104.2646,21.679],[104.3224,21.6563],[104.2594,21.969],[103.97,22.0825],[103.9806,22.0305],[103.9228,22.0532],[103.8649,22.0759],[103.8542,22.1279],[103.7963,22.1506],[103.7384,22.1733],[103.7277,22.2253],[103.6698,22.248],[103.659,22.3],[103.6011,22.3227],[103.5432,22.3454],[103.5103,22.501],[103.3366,22.5691],[103.3255,22.6209],[103.1986,22.7181],[103.1646,22.8732],[103.1067,22.8959],[103.0489,22.9186],[103.0374,22.9702],[102.9795,22.9929],[102.968,23.0445],[102.9101,23.0672],[102.8985,23.1188],[102.8406,23.1415],[102.7827,23.1642],[102.7711,23.2157],[102.7132,23.2384],[102.6777,23.3928],[102.6199,23.4155],[102.6079,23.4668],[102.5959,23.5182],[102.6538,23.4955],[102.5926,23.7516],[102.5347,23.7743],[102.5223,23.8254],[102.5097,23.8765],[102.4519,23.8992],[102.394,23.9219],[102.3814,23.973],[102.3687,24.024],[102.4266,24.0013],[102.4845,23.9786],[102.4718,24.0296],[102.5297,24.0069],[102.5875,23.9842],[102.5747,24.0351],[102.6326,24.0124],[102.6905,23.9897],[102.6776,24.0406],[103.0249,23.9044],[103.012,23.9553],[102.999,24.0061],[103.0568,23.9834],[103.0438,24.0342],[103.1016,24.0115],[103.1595,23.9888],[103.1464,24.0395],[103.32,23.9714],[103.3068,24.0222],[103.3647,23.9995],[103.4226,23.9768],[103.4093,24.0274],[103.4672,24.0047],[103.525,23.982],[103.5117,24.0327],[103.5696,24.01],[103.6274,23.9873],[103.614,24.0379],[103.9613,23.9017],[103.9747,23.8511],[104.3799,23.6922],[104.3665,23.7428],[104.4243,23.7201],[104.4822,23.6974],[104.4687,23.748],[104.4551,23.7985]]]}}]}
