{"type":"FeatureCollection","features":[{"type":"Feature","properties":{"periodId":"minh-thuoc","name":"Giao Chỉ thuộc Minh","control":"autonomous","confidence":"medium","height":12000,"color":"#9a8261","geometrySourceId":"khoahoc-45-maps","geometrySourceUrl":"https://e.khoahoc.tv/photos/image/2015/11/28/ban-do-viet-nam-21.jpg","geometrySourcePageUrl":"https://khoahoc.tv/45-tam-ban-do-viet-nam-qua-cac-giai-doan-tu-the-ky-10-phan-1-67140","imageYear":"1407","reconstructionMethod":"georeferenced-image-boundary-trace","precision":"illustrative-trace","georeferenceAccuracyKm":50,"sourceIds":"museum-overview,khoahoc-45-maps","referenceSourceIds":"wikipedia-territorial-history,diaocthongthai-atlas,khoahoc-45-maps"},"geometry":{"type":"Polygon","coordinates":[[[104.4687,23.748],[105.5106,23.3394],[105.5241,23.2888],[106.1608,23.0391],[106.1742,22.9885],[106.4057,22.8977],[106.4191,22.847],[106.6506,22.7562],[106.6639,22.7055],[106.8954,22.6147],[106.9086,22.564],[107.0823,22.4959],[107.0954,22.4451],[107.1533,22.4224],[107.2112,22.3997],[107.2242,22.3489],[107.2821,22.3262],[107.34,22.3035],[107.353,22.2527],[107.4109,22.23],[107.4688,22.2073],[107.5525,22.0828],[107.6103,22.0601],[107.6682,22.0374],[107.681,21.9865],[107.7389,21.9638],[107.7968,21.9411],[107.8095,21.8901],[107.8674,21.8674],[107.9667,21.4583],[107.9088,21.481],[107.8509,21.5037],[107.863,21.4524],[107.8051,21.4751],[107.8172,21.4238],[107.7593,21.4465],[107.7712,21.3951],[107.7134,21.4178],[107.7252,21.3664],[107.6674,21.3891],[107.6792,21.3376],[107.6213,21.3603],[107.633,21.3089],[107.5752,21.3316],[107.5173,21.3543],[107.5289,21.3027],[107.4711,21.3254],[107.4827,21.2739],[107.4248,21.2966],[107.3669,21.3193],[107.3784,21.2677],[107.3206,21.2904],[107.2627,21.3131],[107.2741,21.2615],[107.2163,21.2842],[107.1584,21.3069],[107.1698,21.2552],[107.1119,21.2779],[107.1232,21.2262],[107.0653,21.2489],[107.0075,21.2716],[107.0187,21.2199],[106.9608,21.2426],[106.9029,21.2653],[106.9141,21.2135],[106.8562,21.2362],[106.7984,21.2589],[106.8095,21.2071],[106.7516,21.2298],[106.6937,21.2525],[106.7048,21.2006],[106.6469,21.2233],[106.589,21.246],[106.6,21.1942],[106.4263,21.2623],[106.4372,21.2103],[106.3793,21.233],[106.3902,21.1811],[106.3323,21.2038],[106.2744,21.2265],[106.2852,21.1745],[106.2273,21.1972],[106.238,21.1452],[106.1801,21.1679],[106.1907,21.1158],[106.1328,21.1385],[106.075,21.1612],[106.0855,21.1091],[106.0276,21.1318],[106.0381,21.0797],[105.9802,21.1024],[105.9906,21.0502],[106.001,20.998],[105.9431,21.0207],[105.9534,20.9684],[105.8955,20.9911],[105.9057,20.9388],[105.8478,20.9615],[105.8579,20.9092],[105.868,20.8569],[105.8101,20.8796],[105.8201,20.8272],[105.7622,20.8499],[105.7721,20.7974],[105.782,20.745],[105.7241,20.7677],[105.7339,20.7152],[105.7436,20.6626],[105.6857,20.6853],[105.7144,20.5275],[105.6565,20.5502],[105.666,20.4975],[105.6753,20.4448],[105.6174,20.4675],[105.6267,20.4148],[105.6359,20.362],[105.578,20.3847],[105.7398,19.3747],[105.7977,19.352],[105.8055,19.2985],[105.8132,19.2449],[105.7553,19.2676],[105.763,19.2141],[105.7706,19.1604],[105.7127,19.1831],[105.7203,19.1295],[105.7277,19.0758],[105.6698,19.0985],[105.7131,18.7755],[105.771,18.7528],[105.778,18.6988],[105.7849,18.6449],[105.8427,18.6222],[105.8496,18.5681],[105.8563,18.5141],[105.9142,18.4914],[105.9209,18.4373],[105.9788,18.4146],[105.9854,18.3604],[106.0433,18.3377],[106.1012,18.315],[106.1077,18.2609],[106.2813,18.1927],[106.2878,18.1385],[106.3457,18.1158],[106.4036,18.0931],[106.41,18.0389],[106.4163,17.9846],[106.4742,17.9619],[106.5107,17.6355],[106.5686,17.6128],[106.5745,17.5582],[106.6323,17.5355],[106.6381,17.481],[106.696,17.4583],[106.7017,17.4036],[106.7596,17.3809],[106.7652,17.3263],[106.8231,17.3036],[106.881,17.2809],[106.8865,17.2262],[106.9444,17.2035],[106.9499,17.1488],[106.9553,17.094],[107.0132,17.0713],[107.0186,17.0166],[107.0239,16.9617],[107.0817,16.939],[107.0869,16.8842],[107.1448,16.8615],[107.15,16.8066],[107.155,16.7516],[107.2129,16.7289],[107.2179,16.674],[107.2228,16.6189],[107.2807,16.5962],[107.2856,16.5412],[107.3435,16.5185],[107.3576,16.3531],[107.2997,16.3758],[107.2419,16.3985],[107.2464,16.3434],[107.1886,16.3661],[107.1307,16.3888],[107.1352,16.3335],[107.0773,16.3562],[107.0194,16.3789],[107.0149,16.4342],[106.957,16.4569],[106.9525,16.5121],[106.9478,16.5672],[106.8899,16.5899],[106.8852,16.645],[106.8273,16.6677],[106.8225,16.7228],[106.8177,16.7778],[106.7598,16.8006],[106.7549,16.8556],[106.7499,16.9105],[106.692,16.9332],[106.6869,16.9882],[106.6818,17.0431],[106.6239,17.0658],[106.6187,17.1206],[106.6134,17.1755],[106.5555,17.1982],[106.5502,17.2529],[106.4923,17.2756],[106.4869,17.3304],[106.4814,17.3851],[106.4235,17.4078],[106.4179,17.4625],[106.3601,17.4852],[106.3544,17.5398],[106.3487,17.5945],[106.2908,17.6172],[106.2851,17.6717],[106.2272,17.6944],[106.2213,17.749],[106.2154,17.8035],[106.1575,17.8262],[106.1516,17.8806],[106.1455,17.9351],[106.0876,17.9578],[106.0815,18.0121],[106.0236,18.0348],[106.0174,18.0892],[106.0112,18.1435],[105.9533,18.1662],[105.9469,18.2205],[105.8891,18.2432],[105.8827,18.2974],[105.8762,18.3517],[105.8183,18.3744],[105.8118,18.4285],[105.7539,18.4512],[105.7473,18.5054],[105.7406,18.5595],[105.6827,18.5822],[105.6759,18.6362],[105.6181,18.6589],[105.6112,18.713],[105.5533,18.7357],[105.5464,18.7896],[105.5395,18.8436],[105.4816,18.8663],[105.4746,18.9202],[105.4167,18.9429],[105.4096,18.9968],[105.4024,19.0506],[105.3445,19.0733],[105.3373,19.1272],[105.2794,19.1499],[105.2721,19.2036],[105.2142,19.2263],[105.2068,19.2801],[105.1993,19.3338],[105.1415,19.3565],[105.1339,19.4101],[105.076,19.4328],[105.0684,19.4865],[105.0106,19.5092],[105.0029,19.5628],[104.945,19.5855],[104.9373,19.639],[104.9295,19.6925],[104.8716,19.7152],[104.8637,19.7687],[104.8058,19.7914],[104.7979,19.8449],[104.74,19.8676],[104.732,19.921],[104.7239,19.9743],[104.666,19.997],[104.6578,20.0504],[104.6496,20.1037],[104.5917,20.1264],[104.5834,20.1796],[104.575,20.2329],[104.5172,20.2556],[104.5087,20.3088],[104.5002,20.3619],[104.4423,20.3846],[104.4337,20.4377],[104.4251,20.4908],[104.3672,20.5135],[104.3585,20.5666],[104.3006,20.5893],[104.2918,20.6423],[104.283,20.6953],[104.2251,20.718],[104.2161,20.7709],[104.2071,20.8238],[104.1493,20.8465],[104.1402,20.8994],[104.131,20.9522],[104.0732,20.9749],[104.0639,21.0277],[104.0547,21.0804],[103.9968,21.1031],[103.9874,21.1559],[103.978,21.2085],[103.9201,21.2312],[103.9106,21.2839],[103.901,21.3365],[103.8432,21.3592],[103.8335,21.4118],[103.8238,21.4643],[103.7659,21.487],[103.7562,21.5395],[103.7463,21.592],[103.6884,21.6147],[103.6785,21.6671],[103.6685,21.7195],[103.6106,21.7422],[103.6006,21.7945],[103.5905,21.8469],[103.5326,21.8696],[103.5224,21.9219],[103.5121,21.9741],[103.4542,21.9968],[103.4439,22.049],[103.4335,22.1012],[103.3756,22.1239],[103.3651,22.176],[103.3546,22.2281],[103.2967,22.2508],[103.2861,22.3029],[103.2754,22.3549],[103.2175,22.3776],[103.2067,22.4296],[103.1959,22.4816],[103.138,22.5043],[103.1271,22.5562],[103.1162,22.6081],[103.0583,22.6308],[103.0472,22.6826],[103.0361,22.7344],[102.9782,22.7571],[102.9445,22.9123],[102.8866,22.935],[102.8752,22.9867],[102.8638,23.0383],[102.8059,23.061],[102.7943,23.1126],[102.7827,23.1642],[102.7249,23.1869],[102.7132,23.2384],[102.7014,23.2899],[102.6436,23.3126],[102.6079,23.4668],[102.55,23.4895],[102.538,23.5409],[102.5259,23.5922],[102.468,23.6149],[102.3687,24.024],[102.4266,24.0013],[102.4845,23.9786],[102.4718,24.0296],[102.5297,24.0069],[102.5875,23.9842],[102.5747,24.0351],[102.6326,24.0124],[102.6905,23.9897],[102.6776,24.0406],[102.8513,23.9725],[102.8383,24.0234],[102.8962,24.0007],[102.9541,23.978],[102.9411,24.0288],[102.999,24.0061],[103.0568,23.9834],[103.0438,24.0342],[103.1016,24.0115],[103.1595,23.9888],[103.1464,24.0395],[103.32,23.9714],[103.3068,24.0222],[103.3647,23.9995],[103.4226,23.9768],[103.4093,24.0274],[103.4672,24.0047],[103.525,23.982],[103.5117,24.0327],[103.5696,24.01],[103.6274,23.9873],[103.614,24.0379],[104.4822,23.6974],[104.4687,23.748]]]}}]}
