{"type":"FeatureCollection","features":[{"type":"Feature","properties":{"periodId":"nam-viet","name":"Nam Việt","control":"direct","confidence":"low","height":12000,"color":"#d7a050","geometrySourceId":"diaocthongthai-atlas","geometrySourceUrl":"https://cdn.diaocthongthai.com/2021/08/ban-do-lanh-tho-viet-nam-qua-cac-thoi-ky-3.jpg","geometrySourcePageUrl":"https://diaocthongthai.com/ban-do-lanh-tho-viet-nam-qua-cac-thoi-ky/","imageYear":"Nam Việt","reconstructionMethod":"georeferenced-image-color-trace","precision":"illustrative-trace","georeferenceAccuracyKm":50,"sourceIds":"museum-overview,diaocthongthai-atlas","referenceSourceIds":"wikipedia-territorial-history,diaocthongthai-atlas"},"geometry":{"type":"Polygon","coordinates":[[[108.762,22.7357],[109.7101,22.3639],[110.2608,20.2317],[110.1931,20.2583],[110.1254,20.2848],[110.1389,20.2247],[109.9357,20.3044],[109.881,20.5446],[109.8133,20.5712],[109.7571,20.8107],[109.6894,20.8372],[109.6751,20.897],[109.6607,20.9567],[109.7284,20.9301],[109.625,21.3466],[109.2864,21.4794],[109.3015,21.4201],[109.2338,21.4466],[109.2487,21.3872],[109.181,21.4138],[109.1133,21.4403],[109.0983,21.4997],[108.4888,21.7388],[108.5038,21.6794],[108.5187,21.6199],[108.3155,21.6996],[108.3303,21.6401],[108.345,21.5806],[108.2772,21.6071],[108.2918,21.5475],[108.2241,21.5741],[108.2386,21.5144],[108.1709,21.541],[108.1031,21.5676],[108.1175,21.5079],[108.0498,21.5344],[108.0641,21.4747],[107.9964,21.5012],[107.9287,21.5278],[107.9429,21.468],[107.8751,21.4946],[107.8074,21.5211],[107.8215,21.4613],[107.7538,21.4878],[107.7678,21.4279],[107.7817,21.368],[107.714,21.3946],[107.7278,21.3346],[107.6601,21.3611],[107.5924,21.3877],[107.6061,21.3276],[107.5384,21.3542],[107.552,21.2941],[107.4843,21.3207],[107.4978,21.2605],[107.4301,21.2871],[107.4435,21.2269],[107.3758,21.2534],[107.3891,21.1932],[107.3214,21.2198],[107.2537,21.2463],[107.2669,21.186],[107.1992,21.2126],[107.2124,21.1523],[107.1446,21.1788],[107.0769,21.2054],[107.09,21.145],[107.0223,21.1715],[106.9545,21.1981],[107.0058,20.9561],[106.9381,20.9826],[106.8703,21.0092],[106.8829,20.9485],[106.6798,21.0282],[106.6922,20.9675],[106.3536,21.1003],[106.366,21.0396],[106.2983,21.0662],[106.3349,20.8836],[106.2671,20.9102],[106.2791,20.8493],[106.2114,20.8758],[106.2233,20.8149],[106.1556,20.8414],[106.2137,20.5358],[106.146,20.5623],[106.1573,20.501],[106.0896,20.5276],[106.1008,20.4663],[106.0331,20.4928],[105.9654,20.5194],[105.9765,20.458],[105.9088,20.4846],[105.9198,20.4231],[105.8521,20.4497],[105.8631,20.3882],[105.7953,20.4148],[105.7276,20.4413],[105.7385,20.3798],[105.6708,20.4064],[105.603,20.4329],[105.6138,20.3714],[105.6245,20.3097],[105.5567,20.3363],[105.5673,20.2746],[105.5778,20.2129],[105.5101,20.2395],[105.5709,19.8681],[105.5032,19.8946],[105.6145,19.1465],[105.6822,19.12],[105.7327,18.7433],[105.8004,18.7167],[105.8085,18.6537],[105.8165,18.5907],[105.7487,18.6173],[105.7408,18.6803],[105.673,18.7069],[105.665,18.7698],[105.6568,18.8327],[105.4536,18.9124],[105.4453,18.9753],[105.3776,19.0018],[105.3693,19.0646],[105.3608,19.1274],[105.2931,19.154],[105.2845,19.2167],[105.2168,19.2432],[105.2081,19.3059],[105.1404,19.3325],[105.1317,19.3951],[104.5222,19.6341],[104.4677,20.0087],[104.4,20.0353],[104.3905,20.0976],[104.3228,20.1241],[104.3133,20.1864],[104.381,20.1598],[104.3714,20.222],[104.6423,20.1157],[104.5928,20.4258],[105.1346,20.2133],[105.0933,20.4605],[105.161,20.434],[105.0395,21.1097],[104.9718,21.1362],[104.9602,21.1974],[104.6893,21.3036],[104.6539,21.4867],[104.5861,21.5133],[104.5741,21.5742],[104.5064,21.6008],[104.4943,21.6616],[104.4266,21.6882],[104.4144,21.749],[104.3467,21.7756],[104.3344,21.8364],[104.2667,21.8629],[104.2543,21.9237],[104.1866,21.9502],[104.1741,22.0109],[104.1064,22.0375],[104.0938,22.0981],[104.0811,22.1587],[104.0134,22.1853],[104.0007,22.2458],[103.7298,22.352],[103.6242,22.8346],[103.5565,22.8611],[103.5429,22.9212],[103.4752,22.9478],[103.4074,22.9743],[103.3379,23.2741],[103.4056,23.2475],[103.3914,23.3073],[103.4591,23.2807],[103.4448,23.3405],[103.7157,23.2342],[103.7013,23.2939],[103.769,23.2674],[103.7546,23.327],[103.8223,23.3005],[103.8077,23.3601],[103.8754,23.3335],[103.7859,23.6901],[104.3954,23.451],[104.3802,23.5103],[104.4479,23.4837],[104.4325,23.5429],[104.5003,23.5164],[104.4221,23.8116],[104.7607,23.6788],[104.7448,23.7377],[104.8125,23.7112],[104.7965,23.77],[104.7804,23.8288],[104.8481,23.8023],[104.9158,23.7757],[104.8996,23.8345],[104.9673,23.8079],[104.951,23.8666],[105.0188,23.8401],[105.0024,23.8987],[105.0701,23.8722],[105.1378,23.8456],[105.1213,23.9042],[105.4599,23.7714],[105.4764,23.7128],[105.6796,23.6331],[105.696,23.5745],[105.9668,23.4682],[105.9831,23.4095],[106.0509,23.383],[106.0671,23.3242],[106.4057,23.1914],[106.4218,23.1326],[106.4895,23.106],[106.5572,23.0795],[106.5732,23.0206],[106.8441,22.9144],[106.86,22.8555],[106.9278,22.8289],[106.9955,22.8024],[107.0113,22.7434],[107.2145,22.6637],[107.2302,22.6047],[108.1783,22.2329],[108.1625,22.2919],[108.2303,22.2653],[108.2144,22.3243],[108.2822,22.2977],[108.1187,22.8846],[108.7959,22.619],[108.779,22.6774],[108.762,22.7357]]]}}]}
