{"type":"FeatureCollection","features":[{"type":"Feature","properties":{"periodId":"nam-ky-1867","name":"Đại Nam còn lại","control":"direct","confidence":"high","height":12000,"color":"#b85a45","geometrySourceId":"diaocthongthai-atlas","geometrySourceUrl":"https://cdn.diaocthongthai.com/2021/08/ban-do-lanh-tho-viet-nam-qua-cac-thoi-ky-59.jpg","geometrySourcePageUrl":"https://diaocthongthai.com/ban-do-lanh-tho-viet-nam-qua-cac-thoi-ky/","imageYear":"1870","reconstructionMethod":"georeferenced-image-color-trace","precision":"illustrative-trace","georeferenceAccuracyKm":50,"sourceIds":"archives-nguyen-islands,diaocthongthai-atlas","referenceSourceIds":"wikipedia-territorial-history,diaocthongthai-atlas"},"geometry":{"type":"Polygon","coordinates":[[[104.4739,23.844],[104.6771,23.7643],[104.693,23.7054],[104.7607,23.6788],[104.7765,23.6199],[105.1151,23.4871],[105.1309,23.4281],[105.7403,23.189],[105.756,23.13],[105.8237,23.1034],[105.8914,23.0769],[105.9069,23.0178],[105.9747,22.9912],[106.0424,22.9646],[106.1036,22.7277],[106.0359,22.7543],[106.0509,22.6949],[105.9832,22.7215],[106.1144,22.1851],[106.3176,22.1054],[106.3317,22.0456],[106.3994,22.019],[106.4671,21.9925],[106.5089,21.8126],[106.5766,21.7861],[106.6443,21.7595],[106.658,21.6995],[106.7257,21.6729],[106.7935,21.6464],[106.8071,21.5863],[107.1457,21.4535],[107.1321,21.5136],[107.1998,21.487],[107.1861,21.547],[107.5924,21.3877],[107.6061,21.3276],[107.5384,21.3542],[107.552,21.2941],[107.4843,21.3207],[107.4978,21.2605],[107.4301,21.2871],[107.4435,21.2269],[107.3758,21.2534],[107.3891,21.1932],[107.3214,21.2198],[107.2537,21.2463],[107.2669,21.186],[107.1992,21.2126],[107.2124,21.1523],[107.1446,21.1788],[107.0769,21.2054],[107.09,21.145],[107.0223,21.1715],[106.9545,21.1981],[106.9675,21.1377],[106.8998,21.1642],[106.9381,20.9826],[106.8703,21.0092],[106.8829,20.9485],[106.6798,21.0282],[106.6922,20.9675],[106.2182,21.1534],[106.2791,20.8493],[106.2114,20.8758],[106.1437,20.9024],[106.2137,20.5358],[106.146,20.5623],[106.1573,20.501],[106.0896,20.5276],[106.1008,20.4663],[106.0331,20.4928],[105.9654,20.5194],[105.9765,20.458],[105.9876,20.3966],[105.9198,20.4231],[105.8521,20.4497],[105.8631,20.3882],[105.7953,20.4148],[105.8062,20.3533],[105.603,20.4329],[105.6138,20.3714],[105.6245,20.3097],[105.5567,20.3363],[105.5882,20.1511],[105.5204,20.1777],[105.5904,19.7439],[105.5227,19.7704],[105.5323,19.7083],[105.5418,19.6461],[105.4741,19.6726],[105.5291,19.2983],[105.5969,19.2717],[105.6057,19.2091],[105.6145,19.1465],[105.6822,19.12],[105.7327,18.7433],[105.8004,18.7167],[105.8085,18.6537],[105.8165,18.5907],[105.8842,18.5642],[105.8921,18.5011],[105.9598,18.4745],[105.9676,18.4114],[106.0353,18.3849],[106.043,18.3217],[106.1107,18.2952],[106.1785,18.2686],[106.1861,18.2054],[106.2538,18.1788],[106.3215,18.1523],[106.329,18.089],[106.3967,18.0625],[106.4644,18.0359],[106.5075,17.6553],[106.5752,17.6288],[106.582,17.5652],[106.6498,17.5386],[106.6565,17.4749],[106.6632,17.4112],[106.7309,17.3847],[106.7374,17.3209],[106.9406,17.2413],[106.947,17.1775],[107.0148,17.1509],[107.0825,17.1243],[107.0888,17.0605],[107.1566,17.0339],[107.1628,16.97],[107.169,16.9061],[107.2367,16.8795],[107.3044,16.853],[107.3105,16.789],[107.3165,16.7249],[107.3842,16.6984],[107.3901,16.6343],[107.4578,16.6077],[107.4636,16.5436],[107.5313,16.517],[107.537,16.4528],[107.6047,16.4262],[107.6725,16.3997],[107.6781,16.3354],[107.6836,16.2711],[107.7513,16.2446],[107.7567,16.1802],[107.8244,16.1537],[107.8921,16.1271],[107.8974,16.0627],[107.9652,16.0362],[108.0329,16.0096],[108.0381,15.9452],[108.1058,15.9186],[108.1109,15.8541],[108.116,15.7896],[108.3191,15.7099],[108.324,15.6453],[108.3289,15.5807],[108.3966,15.5541],[108.4643,15.5275],[108.469,15.4628],[108.5368,15.4363],[108.5414,15.3715],[108.6091,15.345],[108.6137,15.2802],[108.6814,15.2536],[108.6945,15.059],[108.7622,15.0324],[108.7663,14.9674],[108.8341,14.9409],[108.8381,14.8758],[108.9059,14.8493],[108.9098,14.7842],[108.9137,14.719],[108.9814,14.6925],[108.9852,14.6273],[109.0529,14.6007],[109.0566,14.5355],[109.1243,14.509],[109.1348,14.313],[109.2025,14.2864],[109.2122,14.09],[109.2799,14.0634],[109.3134,13.1408],[109.3811,13.1142],[109.3828,13.0479],[109.3844,12.9816],[109.4521,12.9551],[109.4586,12.6227],[109.3909,12.6493],[109.3231,12.6758],[109.3272,12.3422],[109.2595,12.3688],[109.1918,12.3954],[109.1812,13.0613],[109.1135,13.0879],[109.1066,13.3528],[109.0389,13.3794],[109.0327,13.5776],[108.965,13.6042],[108.9627,13.6702],[108.895,13.6967],[108.8877,13.8944],[108.82,13.9209],[108.8173,13.9867],[108.7496,14.0133],[108.7469,14.079],[108.4083,14.2118],[108.4054,14.2775],[108.3377,14.304],[108.3287,14.5008],[108.0578,14.607],[108.0546,14.6725],[107.9869,14.699],[107.9191,14.7256],[107.9158,14.791],[107.8481,14.8176],[107.8447,14.883],[107.777,14.9095],[107.7093,14.9361],[107.7058,15.0014],[107.6381,15.028],[107.6345,15.0933],[107.5668,15.1198],[107.5631,15.1851],[107.4954,15.2116],[107.4916,15.2768],[107.4877,15.3419],[107.42,15.3685],[107.3808,15.9525],[107.3131,15.979],[107.3082,16.0437],[106.8342,16.2296],[106.839,16.165],[106.7713,16.1915],[106.7036,16.2181],[106.7083,16.1534],[106.302,16.3128],[106.3156,16.1184],[106.1125,16.1981],[106.1168,16.1332],[105.8459,16.2394],[105.8416,16.3043],[105.5707,16.4105],[105.5663,16.4754],[105.4985,16.5019],[105.4308,16.5285],[105.4263,16.5933],[105.2231,16.673],[105.2185,16.7377],[105.1508,16.7643],[105.146,16.829],[105.0783,16.8555],[105.0425,17.307],[104.9747,17.3335],[104.9692,17.3978],[104.9637,17.4621],[104.8959,17.4886],[104.8902,17.5528],[104.8845,17.617],[104.9522,17.5904],[104.9463,17.6545],[105.014,17.6279],[105.0817,17.6014],[105.0757,17.6654],[105.1435,17.6389],[105.2112,17.6123],[105.1733,17.9956],[105.1056,18.0221],[105.0379,18.0487],[105.0312,18.1124],[104.9635,18.1389],[104.8958,18.1655],[104.889,18.2292],[104.8213,18.2557],[104.8145,18.3193],[104.7468,18.3459],[104.7398,18.4094],[104.4689,18.5157],[104.4619,18.5792],[104.3942,18.6057],[104.3871,18.6692],[104.3193,18.6957],[104.3121,18.7591],[104.2444,18.7857],[104.2371,18.8491],[104.1694,18.8756],[104.162,18.9389],[104.0942,18.9655],[104.0867,19.0287],[104.0791,19.092],[104.0114,19.1185],[104.0037,19.1817],[103.936,19.2082],[103.9282,19.2713],[103.9203,19.3344],[103.8526,19.361],[103.8446,19.424],[103.8365,19.4869],[103.7688,19.5135],[103.7606,19.5764],[103.422,19.7092],[103.4137,19.7721],[102.872,19.9845],[102.8803,19.9217],[102.8884,19.8588],[102.8207,19.8853],[102.753,19.9119],[102.7448,19.9748],[102.7365,20.0377],[102.8043,20.0111],[102.7959,20.0739],[102.7874,20.1367],[102.8551,20.1101],[102.8114,20.4232],[102.5405,20.5294],[102.5315,20.5919],[102.4638,20.6184],[102.4267,20.8678],[102.3589,20.8944],[102.3494,20.9566],[102.2817,20.9831],[102.214,21.0097],[102.2044,21.0719],[102.1366,21.0984],[102.1269,21.1606],[102.0592,21.1871],[102.0494,21.2492],[101.9817,21.2757],[101.9517,21.4617],[102.0194,21.4351],[102.0093,21.497],[101.999,21.5588],[102.0667,21.5322],[102.0563,21.594],[102.2595,21.5143],[102.249,21.5761],[102.3167,21.5495],[102.3062,21.6112],[102.3739,21.5846],[102.4416,21.558],[102.4309,21.6197],[102.6341,21.54],[102.5681,21.9087],[102.6359,21.8821],[102.6245,21.9434],[102.6131,22.0047],[102.6808,21.9781],[102.7485,21.9515],[102.737,22.0127],[102.8047,21.9862],[102.8725,21.9596],[102.8134,22.2648],[102.6102,22.3444],[102.5982,22.4053],[102.5304,22.4319],[102.4685,22.7356],[102.5362,22.709],[102.5236,22.7696],[102.5913,22.743],[102.5265,23.0452],[102.5942,23.0187],[102.581,23.0789],[102.5677,23.1392],[102.6354,23.1126],[102.6219,23.1728],[102.6897,23.1463],[102.6071,23.5064],[102.5393,23.5329],[102.4679,23.8317],[102.4002,23.8582],[102.3856,23.9178],[102.3179,23.9444],[102.3032,24.0039],[102.3709,23.9774],[102.3561,24.0369],[102.4238,24.0103],[102.4916,23.9838],[102.4767,24.0432],[102.6799,23.9635],[102.6649,24.0229],[102.9358,23.9167],[102.9207,23.976],[102.9056,24.0353],[102.9733,24.0088],[103.041,23.9822],[103.0258,24.0415],[103.0935,24.0149],[103.1612,23.9883],[103.1459,24.0476],[103.349,23.9679],[103.3336,24.027],[103.4013,24.0005],[103.469,23.9739],[103.4535,24.033],[103.5212,24.0065],[103.5889,23.9799],[103.5733,24.0389],[103.641,24.0124],[103.7087,23.9858],[103.693,24.0448],[103.8962,23.9652],[103.8803,24.0241],[103.9481,23.9975],[103.9639,23.9386],[104.4379,23.7527],[104.4221,23.8116],[104.4898,23.7851],[104.4739,23.844]]]}},{"type":"Feature","properties":{"periodId":"nam-ky-1867","name":"Thuộc địa Nam Kỳ","control":"autonomous","confidence":"high","height":12000,"color":"#9a8261","geometrySourceId":"diaocthongthai-atlas","geometrySourceUrl":"https://cdn.diaocthongthai.com/2021/08/ban-do-lanh-tho-viet-nam-qua-cac-thoi-ky-59.jpg","geometrySourcePageUrl":"https://diaocthongthai.com/ban-do-lanh-tho-viet-nam-qua-cac-thoi-ky/","imageYear":"1870","reconstructionMethod":"georeferenced-image-color-trace","precision":"illustrative-trace","georeferenceAccuracyKm":50,"sourceIds":"archives-nguyen-islands,diaocthongthai-atlas","referenceSourceIds":"wikipedia-territorial-history,diaocthongthai-atlas"},"geometry":{"type":"Polygon","coordinates":[[[107.6359,12.5371],[107.8391,12.4575],[107.839,12.3903],[107.9067,12.3637],[107.9065,12.2964],[107.9742,12.2699],[108.0419,12.2433],[108.0149,10.8194],[108.0826,10.7929],[108.0803,10.7245],[108.0126,10.7511],[108.0102,10.6827],[107.9424,10.7092],[107.8747,10.7358],[107.8722,10.6673],[107.8045,10.6939],[107.8018,10.6254],[107.7341,10.652],[107.7314,10.5834],[107.6637,10.61],[107.6609,10.5414],[107.5932,10.5679],[107.5902,10.4993],[107.5225,10.5259],[107.5195,10.4572],[107.4518,10.4837],[107.4487,10.415],[107.381,10.4415],[107.3778,10.3727],[106.9715,10.5321],[106.9682,10.4633],[106.9648,10.3944],[106.8971,10.4209],[106.8936,10.352],[106.8259,10.3785],[106.7581,10.4051],[106.7352,9.9904],[106.6675,10.017],[106.6548,9.809],[106.5871,9.8355],[106.5687,9.5575],[106.501,9.5841],[106.4962,9.5144],[106.2253,9.6207],[106.2051,9.3416],[106.1374,9.3682],[106.1321,9.2983],[106.0643,9.3249],[105.9966,9.3514],[105.9912,9.2815],[105.9235,9.3081],[105.918,9.2381],[105.8503,9.2646],[105.8447,9.1946],[105.777,9.2212],[105.7713,9.1511],[105.7036,9.1776],[105.6978,9.1075],[105.6301,9.1341],[105.5624,9.1606],[105.5565,9.0905],[105.4888,9.117],[105.4828,9.0468],[105.4767,8.9765],[105.409,9.0031],[105.4029,8.9328],[105.3966,8.8624],[105.3289,8.8889],[105.3225,8.8185],[105.3161,8.748],[105.2484,8.7746],[105.2418,8.7041],[105.1741,8.7306],[105.1675,8.6601],[105.1608,8.5894],[105.093,8.616],[105.0253,8.6426],[105.0185,8.5719],[104.9508,8.5984],[104.9438,8.5277],[104.8761,8.5543],[104.8084,8.5808],[104.8549,9.0749],[104.7871,9.1014],[104.8345,9.663],[104.9022,9.6365],[104.9337,10.0556],[104.5951,10.1884],[104.6,10.2581],[104.5323,10.2846],[104.5371,10.3543],[103.8599,10.6199],[103.8551,10.5502],[103.7874,10.5768],[103.7825,10.5071],[103.7147,10.5337],[103.7097,10.4639],[103.642,10.4905],[103.5743,10.5171],[103.5793,10.5868],[103.5116,10.6134],[103.526,10.8223],[103.2552,10.9285],[103.2731,11.2063],[103.2054,11.2329],[103.1377,11.2595],[103.1501,11.4673],[103.0824,11.4939],[103.0147,11.5204],[103.0263,11.7279],[102.9586,11.7544],[102.9937,12.5111],[103.0614,12.4846],[103.064,12.5531],[103.2672,12.4734],[103.2697,12.5419],[103.4729,12.4622],[103.4753,12.5306],[103.543,12.504],[103.6108,12.4775],[103.6131,12.5458],[103.8163,12.4661],[103.8185,12.5344],[103.8862,12.5079],[103.9539,12.4813],[103.9561,12.5495],[104.1592,12.4699],[104.1613,12.5381],[104.229,12.5115],[104.2967,12.485],[104.2987,12.5531],[104.5019,12.4734],[104.5037,12.5415],[104.7069,12.4618],[104.7086,12.5299],[104.7764,12.5033],[104.8441,12.4768],[104.8457,12.5448],[105.0489,12.4651],[105.0505,12.5331],[105.1182,12.5065],[105.1859,12.4799],[105.1874,12.5478],[105.3905,12.4682],[105.3919,12.536],[105.4596,12.5095],[105.5274,12.4829],[105.5287,12.5507],[105.7318,12.471],[105.733,12.5388],[105.8007,12.5122],[105.8684,12.4857],[105.8695,12.5534],[106.0727,12.4737],[106.0737,12.5413],[106.2769,12.4617],[106.2778,12.5293],[106.3455,12.5027],[106.4132,12.4761],[106.414,12.5437],[106.6172,12.464],[106.6179,12.5315],[106.6856,12.505],[106.7533,12.4784],[106.7539,12.5459],[106.9571,12.4662],[106.9576,12.5336],[107.0253,12.507],[107.0931,12.4805],[107.0935,12.5478],[107.2966,12.4682],[107.297,12.5355],[107.3647,12.5089],[107.4324,12.4824],[107.4326,12.5496],[107.6358,12.4699],[107.6359,12.5371]]]}}]}
