{"type":"FeatureCollection","features":[{"type":"Feature","properties":{"periodId":"nam-bac-trieu","name":"Bắc triều · Nhà Mạc","control":"direct","confidence":"medium","height":12000,"color":"#b7a151","geometrySourceId":"khoahoc-45-maps","geometrySourceUrl":"https://e.khoahoc.tv/photos/image/2015/11/28/ban-do-viet-nam-29.jpg","geometrySourcePageUrl":"https://khoahoc.tv/45-tam-ban-do-viet-nam-qua-cac-giai-doan-tu-the-ky-10-phan-1-67140","imageYear":"1554","reconstructionMethod":"georeferenced-image-color-trace","precision":"illustrative-trace","georeferenceAccuracyKm":50,"sourceIds":"museum-overview,khoahoc-45-maps","referenceSourceIds":"wikipedia-territorial-history,diaocthongthai-atlas,khoahoc-45-maps"},"geometry":{"type":"Polygon","coordinates":[[[104.9453,23.5158],[105.2925,23.3796],[105.306,23.329],[105.7111,23.1701],[105.7957,23.046],[105.9693,22.9779],[105.9825,22.9272],[106.0404,22.9045],[106.0536,22.8538],[105.9957,22.8765],[106.0088,22.8257],[106.0218,22.7748],[105.9639,22.7975],[106.0025,22.6448],[105.9446,22.6675],[106.0322,22.3099],[106.0901,22.2872],[106.1266,22.1334],[106.3581,22.0426],[106.3701,21.9913],[106.428,21.9686],[106.44,21.9172],[106.4519,21.8658],[106.5097,21.8431],[106.5216,21.7917],[106.5794,21.769],[106.6373,21.7463],[106.6491,21.6948],[106.7069,21.6721],[106.7186,21.6206],[107.1817,21.4389],[107.17,21.4905],[107.2279,21.4678],[107.2857,21.4451],[107.274,21.4966],[107.6213,21.3603],[107.633,21.3089],[107.5752,21.3316],[107.5173,21.3543],[107.5289,21.3027],[107.4711,21.3254],[107.4827,21.2739],[107.4248,21.2966],[107.4363,21.245],[107.3784,21.2677],[107.3899,21.2161],[107.2163,21.2842],[107.2277,21.2325],[107.239,21.1808],[107.0653,21.2489],[107.0766,21.1972],[107.0187,21.2199],[107.0299,21.1681],[106.8562,21.2362],[106.9003,21.0287],[106.8424,21.0514],[106.8532,20.9995],[106.864,20.9475],[106.6903,21.0156],[106.701,20.9636],[106.6431,20.9863],[106.5853,21.009],[106.6273,20.8005],[106.3379,20.914],[106.3483,20.8618],[106.1167,20.9526],[106.1969,20.5336],[106.139,20.5563],[106.0812,20.579],[106.0909,20.5264],[106.1005,20.4739],[106.0426,20.4966],[105.9847,20.5193],[105.9943,20.4667],[105.9364,20.4894],[105.9459,20.4367],[105.888,20.4594],[105.8302,20.4821],[105.8396,20.4294],[105.8489,20.3767],[105.7911,20.3994],[105.7817,20.4521],[105.7238,20.4748],[105.7144,20.5275],[105.5408,20.5956],[105.5313,20.6483],[105.4734,20.671],[105.4155,20.6937],[105.4059,20.7463],[105.3481,20.769],[105.3384,20.8216],[105.2805,20.8443],[105.2708,20.8968],[105.213,20.9195],[105.1551,20.9422],[105.1453,20.9947],[104.9138,21.0855],[104.9039,21.138],[104.846,21.1607],[104.8361,21.2131],[104.7782,21.2358],[104.7204,21.2585],[104.7104,21.3109],[104.6525,21.3336],[104.6424,21.3859],[104.4688,21.454],[104.4587,21.5064],[103.9377,21.7107],[103.9275,21.7629],[103.8697,21.7856],[103.8594,21.8379],[103.8015,21.8606],[103.7912,21.9128],[103.2703,22.1171],[103.2806,22.0649],[103.2909,22.0127],[103.233,22.0354],[103.1751,22.0581],[103.1853,22.0058],[103.0117,22.0739],[103.0015,22.1262],[102.8278,22.1943],[102.8175,22.2465],[102.7597,22.2692],[102.7018,22.2919],[102.6914,22.3441],[102.6336,22.3668],[102.5757,22.3895],[102.5653,22.4417],[102.5548,22.4938],[102.4969,22.5165],[102.4651,22.6727],[102.5229,22.65],[102.5122,22.702],[102.5701,22.6793],[102.5592,22.7313],[102.6171,22.7086],[102.6062,22.7605],[102.6641,22.7378],[102.5858,23.1002],[102.6437,23.0775],[102.6322,23.1291],[102.6901,23.1064],[102.5223,23.8254],[102.4644,23.8481],[102.4519,23.8992],[102.394,23.9219],[102.3361,23.9446],[102.3235,23.9957],[102.3109,24.0467],[102.253,24.0694],[102.2146,24.2222],[102.0859,24.3185],[102.0729,24.3693],[102.0598,24.4201],[102.1177,24.3974],[102.1756,24.3747],[102.1624,24.4255],[102.1492,24.4762],[102.2071,24.4535],[102.1938,24.5042],[102.2517,24.4815],[102.265,24.4308],[102.3228,24.4081],[102.3807,24.3854],[102.3939,24.3346],[102.6833,24.2211],[102.6965,24.1704],[102.7544,24.1477],[102.8122,24.125],[102.8769,23.8707],[103.0054,23.7743],[103.0181,23.7233],[103.076,23.7006],[103.1338,23.6779],[103.2168,23.553],[103.2747,23.5303],[103.2872,23.4792],[103.345,23.4565],[103.3574,23.4054],[103.4153,23.3827],[103.4276,23.3315],[103.4398,23.2802],[103.5678,23.1836],[103.5799,23.1323],[103.6377,23.1096],[103.6498,23.0582],[103.8813,22.9674],[103.9169,22.8132],[103.9748,22.7905],[103.9866,22.739],[104.3917,22.5801],[104.38,22.6316],[104.4379,22.6089],[104.4022,22.7631],[104.4601,22.7404],[104.4481,22.7918],[104.7375,22.6782],[104.6638,22.9855],[104.7217,22.9628],[104.7092,23.0139],[104.7671,22.9912],[104.7034,23.2461],[104.7613,23.2234],[104.8192,23.2007],[104.8063,23.2515],[104.8642,23.2288],[104.8511,23.2797],[104.909,23.257],[104.9669,23.2343],[104.9008,23.4879],[104.9587,23.4652],[104.9453,23.5158]]]}},{"type":"Feature","properties":{"periodId":"nam-bac-trieu","name":"Nam triều · Lê trung hưng","control":"direct","confidence":"medium","height":12000,"color":"#c87847","geometrySourceId":"khoahoc-45-maps","geometrySourceUrl":"https://e.khoahoc.tv/photos/image/2015/11/28/ban-do-viet-nam-29.jpg","geometrySourcePageUrl":"https://khoahoc.tv/45-tam-ban-do-viet-nam-qua-cac-giai-doan-tu-the-ky-10-phan-1-67140","imageYear":"1554","reconstructionMethod":"georeferenced-image-color-trace","precision":"illustrative-trace","georeferenceAccuracyKm":50,"sourceIds":"museum-overview,khoahoc-45-maps","referenceSourceIds":"wikipedia-territorial-history,diaocthongthai-atlas,khoahoc-45-maps"},"geometry":{"type":"Polygon","coordinates":[[[105.0295,21.0401],[105.0874,21.0174],[105.1453,20.9947],[105.1551,20.9422],[105.213,20.9195],[105.2708,20.8968],[105.2805,20.8443],[105.3384,20.8216],[105.3481,20.769],[105.4059,20.7463],[105.4155,20.6937],[105.4734,20.671],[105.5313,20.6483],[105.5408,20.5956],[105.7144,20.5275],[105.7238,20.4748],[105.7332,20.4221],[105.6753,20.4448],[105.6846,20.3921],[105.6267,20.4148],[105.6359,20.362],[105.578,20.3847],[105.5872,20.3318],[105.5963,20.279],[105.5384,20.3017],[105.5474,20.2488],[105.5563,20.1958],[105.4984,20.2185],[105.5674,19.7937],[105.5095,19.8164],[105.5178,19.7632],[105.4599,19.7859],[105.5391,19.2512],[105.597,19.2285],[105.6045,19.1749],[105.6624,19.1522],[105.7203,19.1295],[105.7277,19.0758],[105.6698,19.0985],[105.7131,18.7755],[105.771,18.7528],[105.778,18.6988],[105.7849,18.6449],[105.8427,18.6222],[105.8496,18.5681],[105.8563,18.5141],[105.9142,18.4914],[105.9209,18.4373],[105.9788,18.4146],[105.9854,18.3604],[106.0433,18.3377],[106.1012,18.315],[106.1077,18.2609],[106.2813,18.1927],[106.2878,18.1385],[106.3457,18.1158],[106.4036,18.0931],[106.41,18.0389],[106.4679,18.0162],[106.5107,17.6355],[106.5686,17.6128],[106.5745,17.5582],[106.6323,17.5355],[106.6381,17.481],[106.696,17.4583],[106.7017,17.4036],[106.7596,17.3809],[106.7652,17.3263],[106.8231,17.3036],[106.881,17.2809],[106.8865,17.2262],[106.9444,17.2035],[107.0023,17.1808],[107.0078,17.1261],[107.0657,17.1034],[107.1236,17.0807],[107.129,17.0259],[107.1343,16.9711],[107.1922,16.9484],[107.1975,16.8936],[107.2554,16.8709],[107.2606,16.8161],[107.3185,16.7934],[107.3337,16.6286],[107.5073,16.5605],[107.5123,16.5054],[107.5171,16.4504],[107.575,16.4277],[107.6329,16.405],[107.6377,16.3499],[107.6955,16.3272],[107.7003,16.2721],[107.7581,16.2494],[107.7628,16.1942],[107.8207,16.1715],[107.8253,16.1164],[107.8831,16.0937],[107.8876,16.0384],[108.0613,15.9703],[108.0744,15.8044],[108.3059,15.7136],[108.3101,15.6583],[108.368,15.6356],[108.3722,15.5801],[108.4301,15.5574],[108.4342,15.502],[108.492,15.4793],[108.496,15.4238],[108.5539,15.4011],[108.5579,15.3456],[108.6158,15.3229],[108.6196,15.2673],[108.6775,15.2446],[108.6923,15.0221],[108.7502,14.9994],[108.8081,14.9767],[108.8116,14.9209],[108.8695,14.8982],[108.8729,14.8425],[108.8763,14.7867],[108.9342,14.764],[108.9375,14.7081],[108.9954,14.6854],[108.9987,14.6295],[109.0018,14.5736],[109.0597,14.5509],[109.0628,14.495],[109.1207,14.4723],[109.1237,14.4163],[109.1267,14.3602],[109.1846,14.3375],[109.1957,14.1131],[109.2536,14.0904],[109.2612,13.9217],[109.3191,13.8989],[109.3261,13.7299],[109.2682,13.7526],[109.2854,13.2435],[109.3433,13.2208],[109.3478,13.0504],[109.4057,13.0277],[109.4127,12.686],[109.4706,12.6633],[109.4715,12.6062],[109.24,12.697],[109.2423,12.5255],[109.1845,12.5482],[109.178,12.9478],[109.1201,12.9705],[109.1162,13.1412],[109.0584,13.1639],[109.0539,13.3343],[108.533,13.5386],[108.5445,13.0265],[108.4866,13.0492],[108.4875,12.9921],[108.4296,13.0148],[108.4172,13.584],[108.1857,13.6748],[108.1841,13.7315],[108.2419,13.7088],[108.2998,13.6861],[108.2773,14.3076],[108.1036,14.3757],[108.0933,14.6006],[108.0354,14.6233],[108.0327,14.6794],[107.9748,14.7021],[107.972,14.7582],[107.9141,14.7809],[107.9112,14.837],[107.7376,14.9051],[107.7346,14.9611],[107.7316,15.0171],[107.6737,15.0398],[107.6158,15.0625],[107.6127,15.1184],[107.5548,15.1411],[107.5516,15.197],[107.5484,15.2529],[107.4905,15.2756],[107.4872,15.3315],[107.4293,15.3542],[107.3963,15.8551],[107.3384,15.8778],[107.3344,15.9333],[107.3303,15.9888],[107.1567,16.0569],[107.1525,16.1123],[107.0947,16.135],[107.0904,16.1903],[107.0325,16.213],[107.0282,16.2684],[106.8546,16.3365],[106.8502,16.3918],[106.7924,16.4145],[106.7345,16.4372],[106.7209,16.6029],[106.6631,16.6256],[106.6584,16.6807],[106.6005,16.7034],[106.5712,17.0336],[106.5133,17.0563],[106.5081,17.1112],[106.4503,17.1339],[106.445,17.1887],[106.3872,17.2114],[106.3819,17.2663],[106.3765,17.321],[106.3186,17.3437],[106.3132,17.3985],[106.2553,17.4212],[106.1975,17.4439],[106.192,17.4986],[106.1341,17.5213],[106.1285,17.576],[106.0706,17.5987],[106.065,17.6533],[105.8335,17.7442],[105.8278,17.7988],[105.7699,17.8215],[105.712,17.8442],[105.7063,17.8987],[105.6484,17.9214],[105.5905,17.9441],[105.5847,17.9987],[105.5268,18.0214],[105.5209,18.0759],[105.463,18.0986],[105.457,18.153],[105.4509,18.2075],[105.3931,18.2302],[105.3869,18.2846],[105.3291,18.3073],[105.3229,18.3616],[105.265,18.3843],[105.2587,18.4386],[105.2008,18.4613],[105.1945,18.5156],[104.7314,18.6972],[104.6987,18.9681],[104.6408,18.9908],[104.6341,19.0448],[104.5762,19.0675],[104.5694,19.1216],[104.5115,19.1443],[104.5046,19.1983],[104.4467,19.221],[104.3888,19.2437],[104.3819,19.2976],[104.2082,19.3657],[104.1869,19.5274],[104.129,19.5501],[104.0711,19.5728],[104.0639,19.6266],[104.006,19.6493],[103.9987,19.703],[103.9913,19.7568],[103.5861,19.9157],[103.5481,20.1838],[103.3745,20.2519],[103.3667,20.3054],[103.3088,20.3281],[102.73,20.5552],[102.7378,20.5016],[102.4484,20.6151],[102.4087,20.8824],[102.3508,20.9051],[102.3426,20.9584],[102.3344,21.0117],[102.3923,20.989],[102.384,21.0423],[102.5576,20.9742],[102.5492,21.0274],[102.6071,21.0047],[102.665,20.982],[102.6565,21.0352],[102.7144,21.0125],[102.7723,20.9898],[102.7638,21.0429],[102.9374,20.9748],[102.9289,21.028],[102.9867,21.0053],[103.0446,20.9826],[103.036,21.0356],[103.2096,20.9675],[103.2009,21.0206],[103.2588,20.9979],[103.3166,20.9752],[103.3078,21.0282],[103.3657,21.0055],[103.4236,20.9828],[103.4147,21.0358],[103.5884,20.9677],[103.5795,21.0206],[103.6373,20.9979],[103.6952,20.9752],[103.6862,21.0281],[103.7441,21.0054],[103.802,20.9827],[103.7929,21.0356],[103.9665,20.9675],[103.9574,21.0203],[104.0153,20.9976],[104.0732,20.9749],[104.0639,21.0277],[104.1218,21.005],[104.1797,20.9823],[104.1704,21.035],[104.2283,21.0123],[104.2862,20.9896],[104.2768,21.0423],[104.4505,20.9742],[104.441,21.0269],[104.4989,21.0042],[104.5568,20.9815],[104.5473,21.0342],[104.6052,21.0115],[104.6631,20.9888],[104.6535,21.0414],[104.8271,20.9733],[104.8175,21.0259],[104.8754,21.0032],[104.9333,20.9805],[104.9236,21.033],[104.9814,21.0103],[105.0393,20.9876],[105.0295,21.0401]]]}}]}
