{"type":"FeatureCollection","features":[{"type":"Feature","properties":{"periodId":"ngo-quyen","name":"Nhà Ngô","control":"direct","confidence":"medium","height":12000,"color":"#d7a050","geometrySourceId":"khoahoc-45-maps","geometrySourceUrl":"https://e.khoahoc.tv/photos/image/2015/11/27/ban-do-viet-nam-5.jpg","geometrySourcePageUrl":"https://khoahoc.tv/45-tam-ban-do-viet-nam-qua-cac-giai-doan-tu-the-ky-10-phan-1-67140","imageYear":"938","reconstructionMethod":"georeferenced-image-color-trace","precision":"illustrative-trace","georeferenceAccuracyKm":50,"sourceIds":"museum-overview,khoahoc-45-maps","referenceSourceIds":"wikipedia-territorial-history,diaocthongthai-atlas,khoahoc-45-maps,commons-tinh-hai-ngo"},"geometry":{"type":"Polygon","coordinates":[[[104.6714,23.9837],[104.7294,23.9609],[104.7873,23.9382],[104.8291,23.7871],[104.8871,23.7644],[104.9282,23.613],[104.9862,23.5902],[104.9998,23.5397],[105.0133,23.4891],[105.0712,23.4664],[105.0847,23.4158],[105.3166,23.3248],[105.3299,23.2742],[105.7358,23.115],[105.7491,23.0643],[105.8071,23.0416],[105.865,23.0188],[105.9494,22.8946],[106.0074,22.8719],[106.0205,22.8211],[106.0335,22.7702],[105.9755,22.793],[105.9884,22.7421],[105.9304,22.7649],[106.056,22.2542],[106.1139,22.2315],[106.1261,22.1802],[106.1841,22.1574],[106.2421,22.1347],[106.2542,22.0834],[106.4281,22.0152],[106.4401,21.9639],[106.4981,21.9411],[106.5101,21.8897],[106.5219,21.8383],[106.6497,21.7414],[106.6615,21.6899],[106.7194,21.6672],[106.7774,21.6444],[106.7891,21.5929],[107.1949,21.4337],[107.1833,21.4853],[107.2412,21.4625],[107.2295,21.514],[107.4034,21.4458],[107.3916,21.4972],[107.6235,21.4063],[107.6117,21.4577],[107.6696,21.4349],[107.7276,21.4122],[107.7395,21.3608],[107.6815,21.3835],[107.6933,21.3321],[107.6354,21.3548],[107.5774,21.3776],[107.5891,21.3261],[107.5311,21.3488],[107.5428,21.2973],[107.4848,21.32],[107.4964,21.2685],[107.4385,21.2912],[107.45,21.2396],[107.392,21.2624],[107.4035,21.2107],[107.2295,21.279],[107.2409,21.2273],[107.183,21.25],[107.1943,21.1983],[107.1363,21.2211],[107.1475,21.1693],[107.0896,21.1921],[107.1008,21.1403],[107.0428,21.163],[106.9848,21.1858],[107.0288,20.9783],[106.9708,21.0011],[106.9129,21.0238],[106.9237,20.9718],[106.8657,20.9946],[106.8765,20.9426],[106.7025,21.0108],[106.7132,20.9588],[106.2494,21.1407],[106.3018,20.88],[106.2438,20.9027],[106.1858,20.9255],[106.1961,20.8732],[106.2063,20.8209],[106.1483,20.8437],[106.208,20.5292],[106.15,20.552],[106.1598,20.4994],[106.1018,20.5222],[106.1114,20.4696],[106.0534,20.4923],[105.9955,20.5151],[106.005,20.4625],[105.947,20.4852],[105.9565,20.4326],[105.966,20.3799],[105.908,20.4026],[105.85,20.4254],[105.8594,20.3726],[105.8014,20.3954],[105.8107,20.3426],[105.6367,20.4108],[105.6459,20.358],[105.588,20.3808],[105.5971,20.328],[105.6062,20.2751],[105.5482,20.2978],[105.575,20.139],[105.517,20.1618],[105.5771,19.7899],[105.5191,19.8127],[105.5274,19.7594],[105.5357,19.7061],[105.4777,19.7288],[105.4858,19.6755],[105.4939,19.6221],[105.436,19.6449],[105.4754,19.3775],[105.5333,19.3547],[105.541,19.3011],[105.5486,19.2475],[105.6066,19.2248],[105.6141,19.1711],[105.6721,19.1484],[105.7301,19.1256],[105.7375,19.0719],[105.6796,19.0947],[105.7228,18.7717],[105.7808,18.749],[105.7878,18.695],[105.7947,18.641],[105.8527,18.6183],[105.8595,18.5642],[105.8662,18.5102],[105.9242,18.4874],[105.9309,18.4333],[105.699,18.5243],[105.6923,18.5784],[105.6343,18.6011],[105.6276,18.6552],[105.6207,18.7092],[105.5628,18.732],[105.5559,18.786],[105.5489,18.8399],[105.4909,18.8626],[105.4839,18.9166],[105.4259,18.9393],[105.3822,19.2621],[105.2083,19.3303],[105.2007,19.3839],[105.1427,19.4067],[105.1351,19.4603],[105.0772,19.483],[105.0539,19.6437],[104.822,19.7347],[104.8141,19.7881],[104.7562,19.8109],[104.7482,19.8643],[104.8062,19.8416],[104.7486,20.2147],[104.6906,20.2374],[104.6821,20.2906],[104.6735,20.3437],[104.6155,20.3664],[104.6069,20.4195],[104.5489,20.4423],[104.5402,20.4953],[104.4822,20.5181],[104.4375,20.7827],[104.4955,20.76],[104.4863,20.8128],[104.4771,20.8656],[104.5351,20.8429],[104.4975,21.0537],[104.5555,21.0309],[104.546,21.0836],[104.5363,21.1361],[104.5943,21.1134],[104.5846,21.1659],[104.6426,21.1432],[104.593,21.4053],[104.535,21.4281],[104.477,21.4508],[104.4669,21.5031],[104.4089,21.5259],[104.3509,21.5486],[104.2674,21.9659],[103.9195,22.1023],[103.9087,22.1543],[103.8508,22.177],[103.8399,22.229],[103.782,22.2517],[103.724,22.2745],[103.6462,22.6371],[103.5882,22.6599],[103.5538,22.8148],[103.6118,22.792],[103.6698,22.7693],[103.6582,22.8208],[103.8321,22.7526],[103.8204,22.8041],[103.8784,22.7814],[103.8667,22.8329],[103.9247,22.8102],[103.9826,22.7874],[103.9708,22.8389],[103.9589,22.8903],[104.0169,22.8675],[104.0749,22.8448],[104.0021,23.1525],[104.0601,23.1298],[104.0477,23.1809],[104.1057,23.1582],[104.0933,23.2093],[104.1512,23.1866],[104.2092,23.1638],[104.1967,23.2149],[104.2547,23.1922],[104.2421,23.2432],[104.3001,23.2205],[104.2874,23.2715],[104.6353,23.135],[104.571,23.3896],[104.513,23.4123],[104.4999,23.4631],[104.3708,23.5593],[104.3309,23.7114],[104.5049,23.6432],[104.4914,23.6938],[104.4779,23.7444],[104.5359,23.7216],[104.495,23.8731],[104.553,23.8504],[104.5392,23.9008],[104.5972,23.8781],[104.5833,23.9285],[104.5694,23.9788],[104.6274,23.9561],[104.6854,23.9333],[104.6714,23.9837]]]}}]}
