{"type":"FeatureCollection","features":[{"type":"Feature","properties":{"periodId":"phap-thuoc-1887","name":"Đông Dương thuộc Pháp · phần Việt Nam","control":"autonomous","confidence":"high","height":12000,"color":"#9a8261","geometrySourceId":"diaocthongthai-atlas","geometrySourceUrl":"https://cdn.diaocthongthai.com/2021/08/ban-do-lanh-tho-viet-nam-qua-cac-thoi-ky-62.jpg","geometrySourcePageUrl":"https://diaocthongthai.com/ban-do-lanh-tho-viet-nam-qua-cac-thoi-ky/","imageYear":"1887","reconstructionMethod":"georeferenced-image-color-trace","precision":"illustrative-trace","georeferenceAccuracyKm":50,"sourceIds":"archives-french-hoang-sa,mofa-islands-status,diaocthongthai-atlas","referenceSourceIds":"wikipedia-territorial-history,diaocthongthai-atlas"},"geometry":{"type":"MultiPolygon","coordinates":[[[[104.2386,24.0413],[104.4418,23.9616],[104.4579,23.9028],[104.5256,23.8763],[104.5416,23.8174],[104.6094,23.7909],[104.6253,23.732],[104.693,23.7054],[104.7088,23.6464],[104.7765,23.6199],[104.7923,23.5609],[105.2663,23.375],[105.2819,23.3159],[105.756,23.13],[105.7715,23.0709],[105.8392,23.0443],[105.8547,22.9852],[105.9224,22.9586],[105.9901,22.932],[106.0359,22.7543],[105.9681,22.7808],[105.9832,22.7215],[105.9982,22.6621],[105.9304,22.6887],[106.0467,22.2117],[106.1144,22.1851],[106.1285,22.1253],[106.3317,22.0456],[106.3457,21.9857],[106.4134,21.9591],[106.4811,21.9326],[106.495,21.8726],[106.5089,21.8126],[106.5766,21.7861],[106.5903,21.726],[106.658,21.6995],[106.7257,21.6729],[106.7394,21.6128],[107.4843,21.3207],[107.4978,21.2605],[107.4301,21.2871],[107.4435,21.2269],[107.3758,21.2534],[107.4155,21.0726],[107.3478,21.0991],[107.3609,21.0387],[107.3738,20.9783],[107.3061,21.0049],[107.2384,21.0314],[107.2512,20.9709],[107.1835,20.9975],[107.1963,20.937],[106.9931,21.0166],[107.0058,20.9561],[106.9381,20.9826],[106.9506,20.922],[106.6798,21.0282],[106.7532,20.6634],[106.6855,20.6899],[106.6974,20.6289],[106.6296,20.6555],[106.6415,20.5945],[106.6532,20.5334],[106.5855,20.5599],[106.5971,20.4988],[106.6086,20.4376],[106.5409,20.4642],[106.5749,20.2804],[106.5071,20.3069],[106.5183,20.2455],[106.4506,20.2721],[106.4616,20.2107],[106.3939,20.2372],[106.4048,20.1757],[106.3371,20.2023],[106.348,20.1408],[106.3587,20.0792],[106.291,20.1058],[106.3017,20.0441],[106.2339,20.0707],[106.2445,20.009],[106.1768,20.0356],[106.1873,19.9739],[106.1195,20.0004],[106.1299,19.9386],[106.0622,19.9652],[106.0725,19.9034],[106.0048,19.9299],[105.937,19.9565],[105.9673,19.7707],[105.8996,19.7973],[105.9095,19.7353],[105.9193,19.6732],[105.8516,19.6998],[105.8613,19.6376],[105.8709,19.5755],[105.8032,19.602],[105.8406,19.3529],[105.7729,19.3794],[105.8,19.192],[105.7323,19.2186],[105.7412,19.156],[105.7499,19.0934],[105.6822,19.12],[105.7327,18.7433],[105.8004,18.7167],[105.8085,18.6537],[105.8165,18.5907],[105.8842,18.5642],[105.8921,18.5011],[105.9598,18.4745],[105.9676,18.4114],[106.0353,18.3849],[106.043,18.3217],[106.1107,18.2952],[106.1785,18.2686],[106.1861,18.2054],[106.2538,18.1788],[106.3215,18.1523],[106.329,18.089],[106.3967,18.0625],[106.4644,18.0359],[106.5075,17.6553],[106.5752,17.6288],[106.582,17.5652],[106.6498,17.5386],[106.6565,17.4749],[106.6632,17.4112],[106.7309,17.3847],[106.7374,17.3209],[106.9406,17.2413],[106.947,17.1775],[107.0148,17.1509],[107.0825,17.1243],[107.0888,17.0605],[107.1566,17.0339],[107.1628,16.97],[107.169,16.9061],[107.2367,16.8795],[107.3044,16.853],[107.3105,16.789],[107.3782,16.7624],[107.446,16.7358],[107.4519,16.6718],[107.5197,16.6452],[107.5255,16.5811],[107.7287,16.5015],[107.7345,16.4373],[108.0731,16.3045],[108.0788,16.2403],[108.1465,16.2138],[108.1521,16.1495],[108.2198,16.123],[108.2875,16.0964],[108.293,16.0321],[108.2984,15.9678],[108.3662,15.9412],[108.3715,15.8768],[108.4392,15.8502],[108.4444,15.7858],[108.4495,15.7213],[108.5173,15.6947],[108.5223,15.6302],[108.59,15.6036],[108.5949,15.5391],[108.6626,15.5125],[108.6675,15.4479],[108.7352,15.4213],[108.8029,15.3947],[108.8077,15.33],[108.8754,15.3035],[108.889,15.1091],[108.9567,15.0826],[108.9695,14.8877],[109.0372,14.8612],[109.0413,14.7962],[109.0453,14.7311],[109.113,14.7045],[109.1348,14.313],[109.2025,14.2864],[109.2122,14.09],[109.2799,14.0634],[109.3134,13.1408],[109.3811,13.1142],[109.3828,13.0479],[109.3844,12.9816],[109.4521,12.9551],[109.4586,12.6227],[109.3909,12.6493],[109.3231,12.6758],[109.3272,12.3422],[109.2595,12.3688],[109.1918,12.3954],[109.1827,12.9949],[109.115,13.0215],[109.1085,13.2867],[109.0407,13.3132],[109.0327,13.5776],[108.965,13.6042],[108.8973,13.6307],[108.8877,13.8944],[108.82,13.9209],[108.7522,13.9475],[108.7496,14.0133],[108.4787,14.1195],[108.476,14.1852],[108.4083,14.2118],[108.4054,14.2775],[108.3377,14.304],[108.3348,14.3696],[108.3318,14.4352],[108.1286,14.5149],[108.1255,14.5804],[108.0578,14.607],[107.9901,14.6336],[107.9869,14.699],[107.9191,14.7256],[107.9158,14.791],[107.8481,14.8176],[107.7804,14.8441],[107.777,14.9095],[107.7093,14.9361],[107.7058,15.0014],[107.6381,15.028],[107.6345,15.0933],[107.5668,15.1198],[107.5631,15.1851],[107.4954,15.2116],[107.4916,15.2768],[107.4239,15.3034],[107.3902,15.8231],[107.3224,15.8496],[107.3178,15.9144],[107.3131,15.979],[107.2453,16.0056],[107.1776,16.0322],[107.1728,16.0968],[106.8342,16.2296],[106.839,16.165],[106.7713,16.1915],[106.776,16.1268],[106.302,16.3128],[106.3156,16.1184],[106.2479,16.1449],[106.1802,16.1715],[106.1846,16.1066],[106.1168,16.1332],[106.0491,16.1597],[106.0534,16.0948],[105.9856,16.1214],[105.9179,16.1479],[105.9137,16.2129],[105.7105,16.2925],[105.7062,16.3574],[105.4353,16.4637],[105.4308,16.5285],[105.2277,16.6082],[105.2231,16.673],[105.1554,16.6995],[105.0877,16.7261],[105.0479,17.2426],[104.9802,17.2692],[104.9747,17.3335],[104.9692,17.3978],[104.9015,17.4244],[104.8845,17.617],[104.9522,17.5904],[104.9463,17.6545],[105.014,17.6279],[105.008,17.692],[105.0757,17.6654],[105.1435,17.6389],[105.1121,17.9584],[105.0444,17.9849],[105.0379,18.0487],[104.9701,18.0752],[104.9635,18.1389],[104.8958,18.1655],[104.889,18.2292],[104.8213,18.2557],[104.8145,18.3193],[104.4759,18.4521],[104.4689,18.5157],[104.4012,18.5422],[104.3942,18.6057],[104.3265,18.6323],[104.2588,18.6588],[104.2516,18.7223],[104.2444,18.7857],[104.1767,18.8123],[104.1694,18.8756],[104.1016,18.9022],[104.0942,18.9655],[104.0265,18.992],[104.019,19.0553],[104.0114,19.1185],[103.9437,19.1451],[103.936,19.2082],[103.8683,19.2348],[103.8605,19.2979],[103.8526,19.361],[103.7849,19.3875],[103.7769,19.4505],[103.7688,19.5135],[103.4302,19.6463],[103.422,19.7092],[103.3543,19.7358],[103.346,19.7986],[103.0074,19.9314],[103.0157,19.8686],[102.948,19.8951],[102.9561,19.8322],[102.9642,19.7692],[102.8965,19.7958],[102.8288,19.8224],[102.8207,19.8853],[102.753,19.9119],[102.7282,20.1005],[102.7959,20.0739],[102.7437,20.4497],[102.4728,20.556],[102.4454,20.7432],[102.3777,20.7698],[102.3684,20.8321],[102.3589,20.8944],[102.2912,20.9209],[102.2817,20.9831],[102.214,21.0097],[102.1463,21.0363],[102.1366,21.0984],[102.1269,21.1606],[102.0592,21.1871],[102.0494,21.2492],[101.9817,21.2757],[101.9517,21.4617],[102.0194,21.4351],[102.0093,21.497],[101.999,21.5588],[102.0667,21.5322],[102.0563,21.594],[102.2595,21.5143],[102.249,21.5761],[102.3167,21.5495],[102.3062,21.6112],[102.3739,21.5846],[102.3632,21.6462],[102.6341,21.54],[102.5681,21.9087],[102.6359,21.8821],[102.6245,21.9434],[102.6131,22.0047],[102.6808,21.9781],[102.6693,22.0393],[102.8725,21.9596],[102.8134,22.2648],[102.6102,22.3444],[102.5982,22.4053],[102.5304,22.4319],[102.5182,22.4927],[102.506,22.5535],[102.4382,22.5801],[102.4259,22.6408],[102.4134,22.7015],[102.4811,22.6749],[102.4685,22.7356],[102.5362,22.709],[102.5236,22.7696],[102.5108,22.8301],[102.5785,22.8036],[102.5133,23.1055],[102.581,23.0789],[102.5677,23.1392],[102.6354,23.1126],[102.6219,23.1728],[102.6897,23.1463],[102.6211,23.4465],[102.5533,23.473],[102.4679,23.8317],[102.4002,23.8582],[102.3856,23.9178],[102.3179,23.9444],[102.3032,24.0039],[102.3709,23.9774],[102.3561,24.0369],[102.4238,24.0103],[102.4916,23.9838],[102.4767,24.0432],[102.6799,23.9635],[102.6649,24.0229],[102.7326,23.9964],[102.8003,23.9698],[102.7853,24.0292],[102.9884,23.9495],[102.9733,24.0088],[103.041,23.9822],[103.0258,24.0415],[103.0935,24.0149],[103.1612,23.9883],[103.1459,24.0476],[103.5522,23.8882],[103.5367,23.9473],[103.7399,23.8677],[103.7244,23.9268],[103.7921,23.9002],[103.7765,23.9593],[103.7607,24.0183],[103.8284,23.9917],[103.8962,23.9652],[103.8803,24.0241],[103.9481,23.9975],[104.0158,23.971],[103.9999,24.0299],[104.0676,24.0033],[104.1353,23.9768],[104.1193,24.0356],[104.187,24.0091],[104.2547,23.9825],[104.2386,24.0413]]],[[[106.2121,13.564],[106.6184,13.4046],[106.619,13.3378],[106.9576,13.205],[106.958,13.1381],[107.2966,13.0053],[107.2962,13.0722],[107.3639,13.0456],[107.3643,12.9787],[107.432,12.9521],[107.4324,12.8852],[107.5001,12.8586],[107.5003,12.7916],[107.7712,12.6854],[107.7714,12.6183],[107.8391,12.5917],[107.839,12.3903],[107.9067,12.3637],[107.9065,12.2964],[108.1096,12.2168],[108.1093,12.1494],[108.177,12.1229],[108.1766,12.0555],[108.2443,12.029],[108.312,12.0024],[108.3115,11.935],[108.3109,11.8675],[108.3786,11.841],[108.3779,11.7735],[108.4456,11.7469],[108.4448,11.6794],[108.4439,11.6117],[108.9857,11.3993],[108.9847,11.3316],[108.917,11.3582],[108.9159,11.2905],[108.8481,11.317],[108.8469,11.2493],[108.7792,11.2758],[108.7779,11.208],[108.7102,11.2346],[108.7088,11.1667],[108.6411,11.1933],[108.6396,11.1254],[108.5719,11.1519],[108.5704,11.084],[108.5026,11.1106],[108.501,11.0426],[108.4332,11.0691],[108.4315,11.0011],[108.3638,11.0276],[108.3619,10.9595],[108.2942,10.9861],[108.2922,10.9179],[108.2245,10.9445],[108.2225,10.8763],[108.1547,10.9028],[108.087,10.9294],[108.0803,10.7245],[108.0126,10.7511],[108.0102,10.6827],[107.9424,10.7092],[107.8747,10.7358],[107.8722,10.6673],[107.8045,10.6939],[107.8018,10.6254],[107.7341,10.652],[107.7314,10.5834],[107.6637,10.61],[107.6609,10.5414],[107.5932,10.5679],[107.5902,10.4993],[107.5225,10.5259],[107.5195,10.4572],[107.4518,10.4837],[107.4487,10.415],[107.381,10.4415],[107.3778,10.3727],[106.9715,10.5321],[106.9682,10.4633],[106.9648,10.3944],[106.8971,10.4209],[106.8936,10.352],[106.8259,10.3785],[106.7581,10.4051],[106.7352,9.9904],[106.6675,10.017],[106.6548,9.809],[106.5871,9.8355],[106.5687,9.5575],[106.501,9.5841],[106.4962,9.5144],[106.2253,9.6207],[106.2051,9.3416],[106.1374,9.3682],[106.1321,9.2983],[106.0643,9.3249],[105.9966,9.3514],[105.9912,9.2815],[105.9235,9.3081],[105.918,9.2381],[105.8503,9.2646],[105.8447,9.1946],[105.777,9.2212],[105.7713,9.1511],[105.7036,9.1776],[105.6978,9.1075],[105.6301,9.1341],[105.5624,9.1606],[105.5565,9.0905],[105.4888,9.117],[105.4828,9.0468],[105.4767,8.9765],[105.409,9.0031],[105.4029,8.9328],[105.3966,8.8624],[105.3289,8.8889],[105.3225,8.8185],[105.3161,8.748],[105.2484,8.7746],[105.2418,8.7041],[105.1741,8.7306],[105.1675,8.6601],[105.1608,8.5894],[105.093,8.616],[105.0253,8.6426],[105.0185,8.5719],[104.9508,8.5984],[104.9438,8.5277],[104.8761,8.5543],[104.8084,8.5808],[104.8549,9.0749],[104.7871,9.1014],[104.8345,9.663],[104.9022,9.6365],[104.9337,10.0556],[104.5951,10.1884],[104.6,10.2581],[104.5323,10.2846],[104.5371,10.3543],[103.8599,10.6199],[103.8551,10.5502],[103.7874,10.5768],[103.7825,10.5071],[103.7147,10.5337],[103.7097,10.4639],[103.642,10.4905],[103.5743,10.5171],[103.5793,10.5868],[103.5116,10.6134],[103.5165,10.683],[103.5213,10.7527],[103.1827,10.8855],[103.2054,11.2329],[103.1377,11.2595],[103.1501,11.4673],[103.0824,11.4939],[103.0147,11.5204],[103.0186,11.5896],[103.0225,11.6588],[102.9548,11.6853],[102.8871,11.7119],[102.9016,11.988],[102.8338,12.0145],[102.8682,12.838],[102.9359,12.8114],[103.0036,12.7848],[103.0059,12.8531],[103.008,12.9214],[103.0757,12.8948],[103.0778,12.963],[103.1455,12.9365],[103.1474,13.0046],[103.3506,12.9249],[103.3575,13.197],[103.4252,13.1705],[103.4267,13.2384],[103.428,13.3062],[103.4958,13.2797],[103.497,13.3475],[103.5648,13.3209],[103.566,13.3887],[103.6337,13.3621],[103.6382,13.7002],[103.7059,13.6736],[103.7065,13.7411],[103.707,13.8085],[103.7748,13.7819],[103.7759,14.051],[104.0468,13.9448],[104.0461,13.743],[104.1138,13.7165],[104.1815,13.6899],[104.1811,13.6225],[104.5197,13.4897],[104.5201,13.5571],[104.5878,13.5305],[104.5882,13.5979],[104.5884,13.6651],[104.6561,13.6386],[104.6562,13.7058],[104.6563,13.7729],[104.724,13.7464],[104.7917,13.7198],[104.7917,13.7869],[105.4012,13.5479],[105.401,13.615],[105.4008,13.682],[105.4685,13.6554],[105.4681,13.7224],[105.8067,13.5896],[105.8071,13.5226],[106.1457,13.3898],[106.1453,13.4568],[106.2131,13.4302],[106.2126,13.4971],[106.2121,13.564]]]]}}]}
