{"type":"FeatureCollection","features":[{"type":"Feature","properties":{"periodId":"tay-son","name":"Lãnh thổ Tây Sơn","control":"direct","confidence":"medium","height":12000,"color":"#d66d3f","geometrySourceId":"khoahoc-45-maps","geometrySourceUrl":"https://e.khoahoc.tv/photos/image/2015/11/28/ban-do-viet-nam-44.jpg","geometrySourcePageUrl":"https://khoahoc.tv/45-tam-ban-do-viet-nam-qua-cac-giai-doan-tu-the-ky-10-phan-1-67140","imageYear":"1788","reconstructionMethod":"georeferenced-image-color-trace","precision":"illustrative-trace","georeferenceAccuracyKm":50,"sourceIds":"museum-tay-son-islands,khoahoc-45-maps","referenceSourceIds":"wikipedia-territorial-history,diaocthongthai-atlas,khoahoc-45-maps"},"geometry":{"type":"Polygon","coordinates":[[[104.4994,23.8263],[104.5573,23.8036],[104.6152,23.7809],[104.6288,23.7304],[104.6867,23.7077],[104.7446,23.685],[104.8295,23.5612],[105.2925,23.3796],[105.306,23.329],[105.7111,23.1701],[105.7245,23.1194],[105.7824,23.0967],[105.8403,23.074],[105.8536,23.0233],[105.9114,23.0006],[105.9693,22.9779],[106.0536,22.8538],[105.9957,22.8765],[106.0476,22.6731],[105.9897,22.6958],[106.0025,22.6448],[105.9446,22.6675],[106.0322,22.3099],[106.0901,22.2872],[106.1023,22.236],[106.1145,22.1847],[106.1724,22.162],[106.2303,22.1393],[106.2424,22.088],[106.3002,22.0653],[106.3581,22.0426],[106.3701,21.9913],[106.428,21.9686],[106.4859,21.9459],[106.4979,21.8945],[106.5097,21.8431],[106.5676,21.8204],[106.5794,21.769],[106.5912,21.7175],[106.6491,21.6948],[106.7069,21.6721],[106.7186,21.6206],[107.2395,21.4162],[107.2279,21.4678],[107.2857,21.4451],[107.3436,21.4224],[107.3319,21.4738],[107.5055,21.4057],[107.4937,21.4572],[107.6674,21.3891],[107.6792,21.3376],[107.6213,21.3603],[107.633,21.3089],[107.5752,21.3316],[107.5173,21.3543],[107.5289,21.3027],[107.4711,21.3254],[107.4827,21.2739],[107.4248,21.2966],[107.4363,21.245],[107.3784,21.2677],[107.3899,21.2161],[107.2163,21.2842],[107.2277,21.2325],[107.1698,21.2552],[107.1811,21.2035],[107.1232,21.2262],[107.1345,21.1745],[107.0766,21.1972],[107.0878,21.1454],[106.8562,21.2362],[106.9003,21.0287],[106.8424,21.0514],[106.8532,20.9995],[106.864,20.9475],[106.6903,21.0156],[106.701,20.9636],[106.6431,20.9863],[106.5853,21.009],[106.6273,20.8005],[106.28,20.9367],[106.2904,20.8845],[106.1167,20.9526],[106.1871,20.5861],[106.1293,20.6088],[106.139,20.5563],[106.0812,20.579],[106.0233,20.6017],[106.033,20.5491],[106.0426,20.4966],[105.9847,20.5193],[105.9269,20.542],[105.9364,20.4894],[105.9459,20.4367],[105.7723,20.5048],[105.7817,20.4521],[105.7911,20.3994],[105.7332,20.4221],[105.6753,20.4448],[105.6846,20.3921],[105.6267,20.4148],[105.5688,20.4375],[105.5963,20.279],[105.5384,20.3017],[105.4805,20.3244],[105.5506,19.9002],[105.4927,19.9229],[105.5178,19.7632],[105.4599,19.7859],[105.5466,19.1976],[105.6045,19.1749],[105.612,19.1212],[105.6698,19.0985],[105.7131,18.7755],[105.771,18.7528],[105.778,18.6988],[105.7849,18.6449],[105.8427,18.6222],[105.8496,18.5681],[105.8563,18.5141],[105.9142,18.4914],[105.9209,18.4373],[105.9788,18.4146],[105.9854,18.3604],[106.0433,18.3377],[106.1012,18.315],[106.1077,18.2609],[106.2813,18.1927],[106.2878,18.1385],[106.3457,18.1158],[106.4036,18.0931],[106.41,18.0389],[106.4679,18.0162],[106.5107,17.6355],[106.5686,17.6128],[106.5745,17.5582],[106.6323,17.5355],[106.6381,17.481],[106.696,17.4583],[106.7017,17.4036],[106.7596,17.3809],[106.7652,17.3263],[106.8231,17.3036],[106.881,17.2809],[106.8865,17.2262],[106.9444,17.2035],[107.0023,17.1808],[107.0078,17.1261],[107.0657,17.1034],[107.0711,17.0486],[107.129,17.0259],[107.1343,16.9711],[107.1922,16.9484],[107.2078,16.7839],[107.2657,16.7612],[107.3236,16.7385],[107.3435,16.5185],[107.575,16.4277],[107.5798,16.3726],[107.6377,16.3499],[107.6424,16.2948],[107.7003,16.2721],[107.7049,16.2169],[107.7628,16.1942],[107.8207,16.1715],[107.8342,16.0059],[108.0078,15.9378],[108.0122,15.8825],[108.0701,15.8598],[108.0828,15.6936],[108.4301,15.5574],[108.4342,15.502],[108.492,15.4793],[108.496,15.4238],[108.5,15.3683],[108.5579,15.3456],[108.5618,15.29],[108.6196,15.2673],[108.6234,15.2118],[108.6813,15.1891],[108.6923,15.0221],[108.7502,14.9994],[108.7537,14.9436],[108.8116,14.9209],[108.8151,14.8652],[108.8184,14.8094],[108.8763,14.7867],[108.8796,14.7308],[108.9375,14.7081],[108.9954,14.6854],[108.9987,14.6295],[109.0018,14.5736],[109.0597,14.5509],[109.0628,14.495],[109.1207,14.4723],[109.1237,14.4163],[109.1267,14.3602],[109.1846,14.3375],[109.1957,14.1131],[109.2536,14.0904],[109.2612,13.9217],[109.3191,13.8989],[109.3261,13.7299],[109.2682,13.7526],[109.2854,13.2435],[109.3433,13.2208],[109.3478,13.0504],[109.4057,13.0277],[109.4127,12.686],[109.4706,12.6633],[109.4715,12.6062],[109.2979,12.6743],[109.3014,12.3884],[109.2436,12.4111],[109.2456,11.9517],[109.1878,11.9744],[109.178,12.9478],[109.1201,12.9705],[109.1162,13.1412],[109.0584,13.1639],[109.0539,13.3343],[108.996,13.357],[108.9891,13.5836],[108.9312,13.6063],[108.9293,13.6629],[108.8714,13.6856],[108.8653,13.8551],[108.8074,13.8778],[108.8052,13.9342],[108.7473,13.9569],[108.745,14.0133],[108.1662,14.2403],[108.1857,13.6748],[108.4172,13.584],[108.4188,13.5272],[108.4767,13.5045],[108.4911,12.7062],[108.549,12.6835],[108.6069,12.6608],[108.6089,12.3164],[108.6667,12.2937],[108.6668,12.1211],[108.7247,12.0984],[108.7237,11.8677],[108.7816,11.845],[108.7812,11.7872],[108.7807,11.7294],[108.6071,11.7975],[108.6045,11.5659],[108.5466,11.5886],[108.4887,11.6113],[108.4913,11.8429],[108.4334,11.8656],[108.3756,11.8883],[108.376,11.9461],[108.3764,12.0039],[108.3186,12.0266],[108.2607,12.0493],[108.2615,12.2224],[108.0878,12.2905],[108.0878,12.5782],[108.0299,12.6009],[107.972,12.6236],[107.9696,12.9677],[107.796,13.0358],[107.791,13.3786],[107.4438,13.5148],[107.4427,13.5719],[107.4415,13.6288],[107.3837,13.6515],[107.3258,13.6742],[107.0364,13.7877],[107.0375,13.7308],[107.0386,13.6737],[106.9807,13.6964],[106.9747,13.9811],[106.801,14.0492],[106.7996,14.106],[106.7981,14.1628],[106.7402,14.1855],[106.6824,14.2082],[106.6719,14.5482],[106.2668,14.7071],[106.2756,14.4239],[106.2178,14.4466],[106.2261,14.1055],[106.1682,14.1282],[106.1103,14.1509],[106.1036,14.4352],[105.4669,14.6849],[105.4684,14.6282],[105.4105,14.6509],[105.4119,14.594],[105.2383,14.6621],[105.2368,14.719],[105.179,14.7417],[105.1775,14.7984],[105.1196,14.8212],[105.118,14.8779],[105.4074,14.7644],[105.4058,14.8211],[105.4041,14.8778],[105.462,14.8551],[105.4637,14.7984],[105.4653,14.7417],[105.9284,14.5601],[105.9089,15.1256],[105.6774,15.2164],[105.6623,15.554],[105.6044,15.5767],[105.5466,15.5994],[105.5381,15.7677],[105.0172,15.972],[105.0201,15.9159],[104.8464,15.984],[104.8598,15.7032],[104.6862,15.7713],[104.6887,15.715],[104.3414,15.8512],[104.3311,16.0761],[103.5786,16.3712],[103.5981,15.9208],[103.5402,15.9435],[103.5381,16],[103.4802,16.0227],[103.4629,16.4166],[103.405,16.4393],[103.4022,16.4954],[103.3994,16.5515],[104.1519,16.2564],[104.143,16.4245],[104.2008,16.4018],[104.1977,16.4578],[104.545,16.3216],[104.5284,16.6008],[104.5863,16.5781],[104.6442,16.5554],[104.6639,16.2202],[105.1848,16.0159],[105.1817,16.0719],[105.2396,16.0492],[105.2975,16.0265],[105.2738,16.4171],[105.6211,16.2809],[105.6174,16.3366],[105.6137,16.3922],[105.6715,16.3695],[105.7294,16.3468],[105.7439,16.1241],[105.8018,16.1014],[105.8597,16.0787],[105.8632,16.0229],[105.8665,15.9671],[106.2717,15.8082],[106.2541,16.0869],[106.312,16.0642],[106.3698,16.0415],[106.3584,16.2082],[106.4163,16.1855],[106.3782,16.6839],[106.4361,16.6612],[106.4315,16.7164],[106.6052,16.6483],[106.5712,17.0336],[106.5133,17.0563],[106.5081,17.1112],[106.3345,17.1793],[106.3186,17.3437],[106.2608,17.3664],[106.2029,17.3891],[106.1975,17.4439],[106.1396,17.4666],[106.1341,17.5213],[106.0762,17.544],[106.0183,17.5667],[106.0128,17.6214],[105.7812,17.7122],[105.7641,17.876],[105.5905,17.9441],[105.5847,17.9987],[105.5268,18.0214],[105.4689,18.0441],[105.4509,18.2075],[105.3931,18.2302],[105.3352,18.2529],[105.3291,18.3073],[105.2712,18.33],[105.265,18.3843],[105.2071,18.407],[105.1492,18.4297],[105.1429,18.484],[104.7378,18.6429],[104.7684,18.371],[104.7105,18.3937],[104.7164,18.3392],[104.6586,18.3619],[104.6007,18.3846],[104.6065,18.33],[104.6123,18.2755],[104.5544,18.2982],[104.4965,18.3209],[104.4546,18.7021],[103.9916,18.8837],[103.9853,18.938],[103.979,18.9923],[103.9211,19.015],[103.9147,19.0693],[103.9082,19.1235],[104.3713,18.9419],[104.324,19.3203],[104.2661,19.343],[104.2591,19.3969],[104.2012,19.4196],[104.1941,19.4735],[104.1362,19.4962],[104.129,19.5501],[103.7239,19.709],[103.731,19.6551],[103.6732,19.6778],[103.644,19.893],[103.5861,19.9157],[103.5787,19.9694],[103.5711,20.0231],[103.2817,20.1366],[103.2741,20.1902],[103.1005,20.2583],[103.0928,20.3119],[103.0851,20.3654],[102.6221,20.547],[102.6298,20.4935],[102.4561,20.5616],[102.4327,20.7221],[102.0854,20.8583],[102.0283,21.2317],[101.9704,21.2544],[101.962,21.3076],[102.0199,21.2849],[101.9766,21.5503],[102.0345,21.5276],[102.0256,21.5806],[102.2571,21.4898],[102.2482,21.5427],[102.3061,21.52],[102.2971,21.5729],[102.355,21.5502],[102.3459,21.6031],[102.6353,21.4896],[102.5504,21.9637],[102.261,22.0772],[102.2513,22.1297],[102.7143,21.9481],[102.7045,22.0006],[102.7623,21.9779],[102.6914,22.3441],[102.6336,22.3668],[102.5757,22.3895],[102.5653,22.4417],[102.5074,22.4644],[102.4651,22.6727],[102.5229,22.65],[102.5122,22.702],[102.5701,22.6793],[102.5592,22.7313],[102.6171,22.7086],[102.6062,22.7605],[102.5952,22.8124],[102.6531,22.7897],[102.5858,23.1002],[102.6437,23.0775],[102.6322,23.1291],[102.6901,23.1064],[102.5347,23.7743],[102.4768,23.797],[102.4644,23.8481],[102.4519,23.8992],[102.394,23.9219],[102.3361,23.9446],[102.3235,23.9957],[102.3814,23.973],[102.3687,24.024],[102.4266,24.0013],[102.4845,23.9786],[102.4718,24.0296],[102.5297,24.0069],[102.5875,23.9842],[102.5747,24.0351],[102.6326,24.0124],[102.6905,23.9897],[102.6776,24.0406],[102.967,23.9271],[102.9541,23.978],[102.9411,24.0288],[102.999,24.0061],[103.0568,23.9834],[103.0438,24.0342],[103.2174,23.9661],[103.2043,24.0168],[103.2621,23.9941],[103.32,23.9714],[103.3068,24.0222],[103.3647,23.9995],[103.4226,23.9768],[103.4093,24.0274],[103.4672,24.0047],[103.525,23.982],[103.5117,24.0327],[103.5696,24.01],[103.6274,23.9873],[103.614,24.0379],[103.7877,23.9698],[103.7742,24.0204],[103.9478,23.9523],[103.9613,23.9017],[104.3665,23.7428],[104.353,23.7934],[104.4108,23.7707],[104.4687,23.748],[104.4551,23.7985],[104.513,23.7758],[104.4994,23.8263]]]}},{"type":"Feature","properties":{"periodId":"tay-son","name":"Vùng Nguyễn Ánh","control":"autonomous","confidence":"low","height":6500,"color":"#b08a5a","geometrySourceId":"khoahoc-45-maps","geometrySourceUrl":"https://e.khoahoc.tv/photos/image/2015/11/28/ban-do-viet-nam-44.jpg","geometrySourcePageUrl":"https://khoahoc.tv/45-tam-ban-do-viet-nam-qua-cac-giai-doan-tu-the-ky-10-phan-1-67140","imageYear":"1788","reconstructionMethod":"georeferenced-image-color-trace","precision":"illustrative-trace","georeferenceAccuracyKm":50,"sourceIds":"museum-tay-son-islands,khoahoc-45-maps","referenceSourceIds":"wikipedia-territorial-history,diaocthongthai-atlas,khoahoc-45-maps"},"geometry":{"type":"Polygon","coordinates":[[[107.4354,11.4384],[107.6669,11.3476],[107.6621,11.1725],[107.72,11.1498],[107.7779,11.1271],[107.7761,11.0686],[107.834,11.0459],[107.8322,10.9874],[107.8901,10.9647],[107.8842,10.789],[107.9421,10.7663],[108,10.7436],[107.9979,10.6849],[107.94,10.7076],[107.8821,10.7303],[107.88,10.6717],[107.8221,10.6944],[107.8199,10.6357],[107.762,10.6584],[107.7597,10.5996],[107.7018,10.6223],[107.6994,10.5635],[107.6416,10.5862],[107.6391,10.5274],[107.5812,10.5501],[107.5787,10.4912],[107.5208,10.5139],[107.5182,10.455],[107.4604,10.4777],[107.4577,10.4188],[107.3998,10.4415],[107.3419,10.4642],[107.3392,10.4052],[107.2813,10.4279],[107.2785,10.3689],[106.9891,10.4824],[106.9863,10.4234],[106.9833,10.3643],[106.8097,10.4324],[106.7906,10.0772],[106.7327,10.0999],[106.7293,10.0406],[106.7258,9.9812],[106.6679,10.0039],[106.657,9.8256],[106.5991,9.8483],[106.5836,9.61],[106.5257,9.6327],[106.5217,9.5731],[106.5175,9.5134],[106.2281,9.6269],[106.2109,9.3877],[106.153,9.4104],[106.1485,9.3505],[106.0907,9.3732],[106.0861,9.3133],[106.0282,9.336],[106.0236,9.2761],[105.9657,9.2988],[105.961,9.2388],[105.9032,9.2615],[105.8453,9.2842],[105.8405,9.2242],[105.7826,9.2469],[105.7778,9.1868],[105.7199,9.2095],[105.715,9.1494],[105.6571,9.1721],[105.6522,9.112],[105.5943,9.1347],[105.5892,9.0745],[105.5314,9.0972],[105.5262,9.037],[105.4684,9.0597],[105.4632,8.9995],[105.4579,8.9392],[105.4,8.9619],[105.3947,8.9016],[105.3893,8.8412],[105.3314,8.8639],[105.326,8.8036],[105.3204,8.7431],[105.2626,8.7658],[105.257,8.7054],[105.1991,8.7281],[105.1934,8.6676],[105.1355,8.6903],[105.1298,8.6298],[105.124,8.5692],[105.0661,8.5919],[105.0082,8.6146],[105.0023,8.554],[104.9444,8.5767],[104.8866,8.5994],[104.8806,8.5387],[104.8227,8.5614],[104.7648,8.5842],[104.866,9.7301],[104.9239,9.7074],[104.9818,9.6847],[105.0084,10.0438],[104.8348,10.1119],[104.839,10.1717],[104.5496,10.2852],[104.5537,10.3449],[104.5578,10.4045],[104.4999,10.4272],[104.5039,10.4869],[104.5078,10.5464],[104.4499,10.5691],[104.4538,10.6287],[104.3959,10.6514],[104.338,10.6741],[104.3418,10.7336],[104.2839,10.7563],[104.2876,10.8158],[103.9982,10.9293],[103.9749,10.5719],[103.917,10.5946],[103.8591,10.6173],[103.855,10.5576],[103.7971,10.5803],[103.8246,10.9974],[103.4194,11.1563],[103.4301,11.3345],[103.488,11.3118],[103.4914,11.3711],[103.5493,11.3484],[103.6072,11.3257],[103.6105,11.385],[103.6684,11.3623],[103.6717,11.4216],[103.6749,11.4808],[103.9064,11.39],[103.9096,11.4492],[103.9675,11.4265],[103.9705,11.4856],[104.0284,11.4629],[104.0314,11.5221],[104.0893,11.4994],[104.1472,11.4767],[104.1501,11.5357],[104.8447,11.2633],[104.8557,11.4993],[104.9136,11.4766],[104.9162,11.5355],[105.0898,11.4674],[105.0819,11.2906],[105.1398,11.2679],[105.137,11.2089],[105.1341,11.1498],[105.192,11.1271],[105.189,11.068],[105.186,11.0089],[105.2439,10.9862],[105.2408,10.9271],[105.5881,10.7909],[105.5912,10.85],[105.7648,10.7819],[105.7792,11.0771],[105.8371,11.0544],[105.8473,11.2899],[105.9051,11.2672],[105.9075,11.326],[105.9098,11.3848],[105.9677,11.3621],[106.0256,11.3394],[106.0278,11.3981],[106.0857,11.3754],[106.0878,11.4341],[106.1457,11.4114],[106.2036,11.3887],[106.2057,11.4473],[106.7266,11.243],[106.7343,11.4772],[107.0237,11.3637],[107.0254,11.4222],[107.0833,11.3995],[107.085,11.4579],[107.1429,11.4352],[107.1445,11.4936],[107.4339,11.3801],[107.4354,11.4384]]]}}]}
