{"type":"FeatureCollection","features":[{"type":"Feature","properties":{"periodId":"tinh-hai-quan","name":"Tĩnh Hải quân","control":"direct","confidence":"medium","height":12000,"color":"#d7a050","geometrySourceId":"khoahoc-45-maps","geometrySourceUrl":"https://e.khoahoc.tv/photos/image/2015/11/27/ban-do-viet-nam-1.jpg","geometrySourcePageUrl":"https://khoahoc.tv/45-tam-ban-do-viet-nam-qua-cac-giai-doan-tu-the-ky-10-phan-1-67140","imageYear":"905","reconstructionMethod":"georeferenced-image-color-trace","precision":"illustrative-trace","georeferenceAccuracyKm":50,"sourceIds":"museum-overview,khoahoc-45-maps","referenceSourceIds":"wikipedia-territorial-history,diaocthongthai-atlas,khoahoc-45-maps,commons-tinh-hai-ngo"},"geometry":{"type":"Polygon","coordinates":[[[104.6617,23.9875],[104.7195,23.9648],[104.7774,23.9421],[104.7914,23.8918],[104.8053,23.8414],[104.8632,23.8187],[104.9182,23.6169],[104.9761,23.5942],[104.9896,23.5437],[105.0031,23.4931],[105.061,23.4704],[105.0745,23.4198],[105.306,23.329],[105.3193,23.2783],[105.7245,23.1194],[105.7378,23.0687],[105.7957,23.046],[105.8536,23.0233],[105.9378,22.8992],[105.9957,22.8765],[106.0088,22.8257],[106.0218,22.7748],[105.9639,22.7975],[105.9768,22.7467],[105.9189,22.7694],[106.0322,22.3099],[106.0901,22.2872],[106.1023,22.236],[106.1145,22.1847],[106.2881,22.1166],[106.3002,22.0653],[106.3581,22.0426],[106.416,22.0199],[106.428,21.9686],[106.4859,21.9459],[106.4979,21.8945],[106.5097,21.8431],[106.5676,21.8204],[106.5794,21.769],[106.6373,21.7463],[106.6952,21.7236],[106.7069,21.6721],[106.7648,21.6494],[106.7765,21.5979],[107.1817,21.4389],[107.17,21.4905],[107.2279,21.4678],[107.2161,21.5193],[107.4476,21.4284],[107.4358,21.4799],[107.6095,21.4118],[107.5976,21.4632],[107.6555,21.4405],[107.7134,21.4178],[107.7252,21.3664],[107.6674,21.3891],[107.6792,21.3376],[107.6213,21.3603],[107.633,21.3089],[107.5752,21.3316],[107.5173,21.3543],[107.5289,21.3027],[107.4711,21.3254],[107.4827,21.2739],[107.4248,21.2966],[107.4363,21.245],[107.3784,21.2677],[107.3899,21.2161],[107.2163,21.2842],[107.2277,21.2325],[107.1698,21.2552],[107.1811,21.2035],[107.1232,21.2262],[107.1345,21.1745],[107.0766,21.1972],[107.0878,21.1454],[107.0299,21.1681],[106.972,21.1908],[107.016,20.9833],[106.9582,21.006],[106.9003,21.0287],[106.9111,20.9768],[106.9219,20.9248],[106.6903,21.0156],[106.701,20.9636],[106.238,21.1452],[106.2904,20.8845],[106.2325,20.9072],[106.1746,20.9299],[106.1849,20.8776],[106.1951,20.8253],[106.1372,20.848],[106.1969,20.5336],[106.139,20.5563],[106.1488,20.5037],[106.1584,20.4512],[105.9847,20.5193],[105.9943,20.4667],[105.9364,20.4894],[105.9459,20.4367],[105.9554,20.384],[105.8975,20.4067],[105.8396,20.4294],[105.8489,20.3767],[105.7911,20.3994],[105.8004,20.3467],[105.6267,20.4148],[105.6359,20.362],[105.578,20.3847],[105.5872,20.3318],[105.5963,20.279],[105.5384,20.3017],[105.5652,20.1429],[105.5073,20.1656],[105.5674,19.7937],[105.5095,19.8164],[105.5178,19.7632],[105.526,19.7099],[105.4682,19.7326],[105.4763,19.6792],[105.4844,19.6259],[105.4265,19.6486],[105.4659,19.3811],[105.5238,19.3584],[105.5315,19.3049],[105.5391,19.2512],[105.597,19.2285],[105.6045,19.1749],[105.6624,19.1522],[105.7203,19.1295],[105.7277,19.0758],[105.6698,19.0985],[105.7131,18.7755],[105.771,18.7528],[105.778,18.6988],[105.7849,18.6449],[105.8427,18.6222],[105.8496,18.5681],[105.8563,18.5141],[105.9142,18.4914],[105.9209,18.4373],[105.6894,18.5281],[105.6827,18.5822],[105.6759,18.6362],[105.6181,18.6589],[105.6112,18.713],[105.6043,18.7669],[105.5464,18.7896],[105.5395,18.8436],[105.4816,18.8663],[105.4746,18.9202],[105.4167,18.9429],[105.373,19.2657],[105.1993,19.3338],[105.1918,19.3874],[105.1339,19.4101],[105.1263,19.4638],[105.0684,19.4865],[105.0452,19.6471],[104.8137,19.7379],[104.8058,19.7914],[104.7479,19.8141],[104.74,19.8676],[104.7979,19.8449],[104.7402,20.218],[104.6824,20.2407],[104.6739,20.2938],[104.6653,20.3469],[104.6074,20.3696],[104.5987,20.4227],[104.5409,20.4454],[104.5321,20.4985],[104.4743,20.5212],[104.4387,20.733],[104.4965,20.7103],[104.4691,20.8688],[104.527,20.8461],[104.4894,21.0569],[104.5473,21.0342],[104.5377,21.0868],[104.5281,21.1394],[104.586,21.1167],[104.5763,21.1692],[104.6341,21.1465],[104.5846,21.4086],[104.5267,21.4313],[104.4688,21.454],[104.4587,21.5064],[104.4008,21.5291],[104.3429,21.5518],[104.2594,21.969],[103.9121,22.1052],[103.9013,22.1572],[103.8434,22.1799],[103.8326,22.2319],[103.7059,22.3292],[103.6504,22.5882],[103.5925,22.6109],[103.5583,22.7659],[103.6162,22.7432],[103.6047,22.7948],[103.6626,22.7721],[103.6509,22.8237],[103.8246,22.7556],[103.8129,22.8071],[103.8708,22.7844],[103.8591,22.8359],[103.9169,22.8132],[103.9748,22.7905],[103.963,22.8419],[104.0209,22.8192],[104.009,22.8706],[104.0669,22.8479],[104.0064,23.1045],[104.0643,23.0818],[104.052,23.1329],[104.0396,23.1841],[104.0975,23.1614],[104.085,23.2125],[104.1429,23.1898],[104.2008,23.1671],[104.1883,23.2182],[104.2462,23.1955],[104.2336,23.2466],[104.2915,23.2239],[104.2788,23.2749],[104.6261,23.1387],[104.5617,23.3932],[104.5039,23.4159],[104.4198,23.5401],[104.3619,23.5628],[104.3487,23.6135],[104.3354,23.6642],[104.3932,23.6415],[104.3799,23.6922],[104.4378,23.6695],[104.4956,23.6468],[104.4822,23.6974],[104.5401,23.6747],[104.4857,23.8768],[104.5436,23.8541],[104.5298,23.9045],[104.5877,23.8818],[104.5738,23.9322],[104.6317,23.9095],[104.6178,23.9599],[104.6756,23.9372],[104.6617,23.9875]]]}}]}
