{"type":"FeatureCollection","features":[{"type":"Feature","properties":{"periodId":"trung-vuong","name":"Vùng lõi Trưng Vương","control":"direct","confidence":"low","height":12000,"color":"#d7a050","geometrySourceId":"diaocthongthai-atlas","geometrySourceUrl":"https://cdn.diaocthongthai.com/2021/08/ban-do-lanh-tho-viet-nam-qua-cac-thoi-ky-5.jpg","geometrySourcePageUrl":"https://diaocthongthai.com/ban-do-lanh-tho-viet-nam-qua-cac-thoi-ky/","imageYear":"Trưng Vương","reconstructionMethod":"georeferenced-image-color-trace","precision":"illustrative-trace","georeferenceAccuracyKm":50,"sourceIds":"museum-overview,diaocthongthai-atlas","referenceSourceIds":"wikipedia-territorial-history,diaocthongthai-atlas"},"geometry":{"type":"Polygon","coordinates":[[[104.951,23.8666],[105.0188,23.8401],[105.0351,23.7814],[105.1028,23.7548],[105.119,23.696],[105.1867,23.6695],[105.2028,23.6107],[105.2705,23.5841],[105.3383,23.5576],[105.3543,23.4987],[105.422,23.4721],[105.4379,23.4132],[105.5056,23.3867],[105.5734,23.3601],[105.5892,23.3012],[105.6569,23.2746],[105.7246,23.248],[105.7403,23.189],[106.1467,23.0297],[106.1623,22.9706],[106.23,22.9441],[106.2977,22.9175],[106.3133,22.8584],[106.381,22.8318],[106.4487,22.8053],[106.4642,22.7461],[106.5319,22.7196],[106.5996,22.693],[106.6149,22.6338],[106.8181,22.5541],[106.8333,22.4949],[106.9011,22.4683],[106.9462,22.2903],[107.014,22.2637],[107.0288,22.2042],[107.0965,22.1777],[107.1113,22.1182],[107.179,22.0916],[107.1937,22.0321],[107.2083,21.9725],[107.276,21.9459],[107.2905,21.8863],[107.3582,21.8597],[107.4259,21.8332],[107.4403,21.7735],[107.9821,21.561],[107.9677,21.6207],[108.0354,21.5941],[108.1031,21.5676],[108.1175,21.5079],[108.0498,21.5344],[108.0641,21.4747],[107.9964,21.5012],[107.9287,21.5278],[107.9429,21.468],[107.8751,21.4946],[107.8074,21.5211],[107.8215,21.4613],[107.7538,21.4878],[107.7678,21.4279],[107.7817,21.368],[107.714,21.3946],[107.7278,21.3346],[107.6601,21.3611],[107.5924,21.3877],[107.6061,21.3276],[107.5384,21.3542],[107.552,21.2941],[107.4843,21.3207],[107.4978,21.2605],[107.4301,21.2871],[107.4435,21.2269],[107.3758,21.2534],[107.3891,21.1932],[107.3214,21.2198],[107.2537,21.2463],[107.2669,21.186],[107.1992,21.2126],[107.2124,21.1523],[107.1446,21.1788],[107.0769,21.2054],[107.09,21.145],[107.0223,21.1715],[107.0608,20.9901],[106.9931,21.0166],[107.0058,20.9561],[106.9381,20.9826],[106.9506,20.922],[106.6798,21.0282],[106.6922,20.9675],[106.6245,20.9941],[106.5568,21.0206],[106.6057,20.7774],[106.2671,20.9102],[106.2791,20.8493],[106.2114,20.8758],[106.2233,20.8149],[106.1556,20.8414],[106.225,20.4745],[106.1573,20.501],[106.1685,20.4397],[105.9654,20.5194],[105.9765,20.458],[105.9876,20.3966],[105.9198,20.4231],[105.9308,20.3617],[105.8631,20.3882],[105.7953,20.4148],[105.8062,20.3533],[105.603,20.4329],[105.635,20.2481],[105.5673,20.2746],[105.5778,20.2129],[105.5882,20.1511],[105.5204,20.1777],[105.5807,19.806],[105.513,19.8326],[105.5418,19.6461],[105.4741,19.6726],[105.5291,19.2983],[105.5969,19.2717],[105.6057,19.2091],[105.6734,19.1826],[105.7327,18.7433],[105.8004,18.7167],[105.8085,18.6537],[105.8165,18.5907],[105.7487,18.6173],[105.681,18.6438],[105.673,18.7069],[105.6053,18.7334],[105.5972,18.7964],[105.5295,18.8229],[105.5213,18.8858],[105.4536,18.9124],[105.4453,18.9753],[105.3776,19.0018],[105.3693,19.0646],[105.3015,19.0912],[105.2931,19.154],[105.2254,19.1805],[105.2168,19.2432],[105.1491,19.2698],[105.1404,19.3325],[105.0727,19.359],[105.064,19.4216],[104.9962,19.4482],[104.9874,19.5107],[104.9197,19.5373],[104.8519,19.5639],[104.843,19.6264],[104.7753,19.6529],[104.7076,19.6795],[104.6985,19.742],[104.6308,19.7685],[104.6217,19.8309],[104.554,19.8575],[104.5447,19.9199],[104.477,19.9464],[104.4093,19.973],[104.4,20.0353],[104.3905,20.0976],[104.3228,20.1241],[104.3133,20.1864],[104.381,20.1598],[104.3714,20.222],[104.5746,20.1423],[104.5649,20.2044],[104.9712,20.045],[104.9614,20.1071],[105.0291,20.0806],[105.0192,20.1426],[105.0092,20.2045],[105.0769,20.178],[105.0669,20.2399],[105.1346,20.2133],[105.0613,20.6454],[105.129,20.6189],[105.0624,20.9873],[104.9947,21.0138],[104.9833,21.0751],[104.9718,21.1362],[104.9041,21.1628],[104.8924,21.2239],[104.8247,21.2505],[104.813,21.3116],[104.7453,21.3381],[104.7335,21.3992],[104.6658,21.4257],[104.6539,21.4867],[104.5861,21.5133],[104.5741,21.5742],[104.5064,21.6008],[104.4943,21.6616],[104.4266,21.6882],[104.4144,21.749],[104.3467,21.7756],[104.3344,21.8364],[104.2667,21.8629],[104.2543,21.9237],[104.1866,21.9502],[104.1741,22.0109],[104.1615,22.0716],[104.0938,22.0981],[104.0811,22.1587],[104.0134,22.1853],[104.0007,22.2458],[103.9329,22.2724],[103.9201,22.3329],[103.9071,22.3933],[103.8394,22.4199],[103.8264,22.4802],[103.7586,22.5068],[103.7455,22.5671],[103.7322,22.6274],[103.6645,22.654],[103.6512,22.7142],[103.6378,22.7744],[103.57,22.801],[103.5565,22.8611],[103.4888,22.8877],[103.4752,22.9478],[103.4614,23.0078],[103.3937,23.0344],[103.3237,23.3339],[103.5268,23.2542],[103.5126,23.3139],[103.7157,23.2342],[103.7013,23.2939],[103.769,23.2674],[103.7546,23.327],[103.74,23.3866],[103.8077,23.3601],[103.793,23.4196],[103.8607,23.3931],[103.846,23.4526],[103.9137,23.426],[103.8988,23.4854],[103.9665,23.4589],[103.9516,23.5183],[104.0193,23.4917],[104.087,23.4652],[104.072,23.5245],[104.1397,23.498],[104.2074,23.4714],[104.1923,23.5307],[104.4631,23.4245],[104.4479,23.4837],[104.5156,23.4572],[104.5003,23.5164],[104.4848,23.5755],[104.5525,23.549],[104.537,23.6081],[104.6047,23.5815],[104.5891,23.6406],[104.6568,23.614],[104.6411,23.673],[104.6253,23.732],[104.693,23.7054],[104.6771,23.7643],[104.7448,23.7377],[104.7288,23.7966],[104.7965,23.77],[104.7804,23.8288],[104.8481,23.8023],[104.8319,23.861],[104.8996,23.8345],[104.9673,23.8079],[104.951,23.8666]]]}},{"type":"Feature","properties":{"periodId":"trung-vuong","name":"Hợp Phố / Lĩnh Nam · phạm vi truyền thống","control":"influence","confidence":"low","height":6500,"color":"#668d82","geometrySourceId":"diaocthongthai-atlas","geometrySourceUrl":"https://cdn.diaocthongthai.com/2021/08/ban-do-lanh-tho-viet-nam-qua-cac-thoi-ky-5.jpg","geometrySourcePageUrl":"https://diaocthongthai.com/ban-do-lanh-tho-viet-nam-qua-cac-thoi-ky/","imageYear":"Trưng Vương","reconstructionMethod":"georeferenced-image-color-trace","precision":"illustrative-trace","georeferenceAccuracyKm":50,"sourceIds":"museum-overview,diaocthongthai-atlas","referenceSourceIds":"wikipedia-territorial-history,diaocthongthai-atlas"},"geometry":{"type":"Polygon","coordinates":[[[109.6847,21.1089],[109.7524,21.0824],[109.7671,21.0228],[109.7817,20.9632],[109.8494,20.9367],[109.8639,20.877],[109.9316,20.8504],[109.946,20.7908],[110.0137,20.7642],[110.0814,20.7376],[110.0957,20.6779],[110.1634,20.6513],[110.1776,20.5915],[110.2454,20.565],[110.3149,20.2652],[110.2472,20.2918],[110.2608,20.2317],[110.1931,20.2583],[110.1254,20.2848],[110.1389,20.2247],[109.9357,20.3044],[109.881,20.5446],[109.8133,20.5712],[109.7571,20.8107],[109.6894,20.8372],[109.6751,20.897],[109.6607,20.9567],[109.7284,20.9301],[109.6847,21.1089]]]}}]}
