{"type":"FeatureCollection","features":[{"type":"Feature","properties":{"periodId":"van-lang","name":"Văn Lang · vùng lõi","control":"direct","confidence":"low","height":12000,"color":"#d7a050","geometrySourceId":"diaocthongthai-atlas","geometrySourceUrl":"https://cdn.diaocthongthai.com/2021/08/ban-do-lanh-tho-viet-nam-qua-cac-thoi-ky-1.jpg","geometrySourcePageUrl":"https://diaocthongthai.com/ban-do-lanh-tho-viet-nam-qua-cac-thoi-ky/","imageYear":"Văn Lang","reconstructionMethod":"georeferenced-image-color-trace","precision":"illustrative-trace","georeferenceAccuracyKm":50,"sourceIds":"museum-hung-kings,diaocthongthai-atlas","referenceSourceIds":"wikipedia-territorial-history,diaocthongthai-atlas,commons-van-lang-au-lac"},"geometry":{"type":"MultiPolygon","coordinates":[[[[104.5891,23.6406],[104.6568,23.614],[104.7245,23.5874],[104.7402,23.5284],[104.8079,23.5018],[104.8234,23.4427],[104.8911,23.4162],[104.9066,23.357],[104.9219,23.2978],[104.9897,23.2712],[105.0574,23.2447],[105.0726,23.1854],[105.1403,23.1589],[105.1555,23.0996],[105.1706,23.0402],[105.2383,23.0137],[105.2532,22.9543],[105.2681,22.8948],[105.3358,22.8682],[105.3506,22.8087],[105.4183,22.7822],[105.433,22.7226],[105.5007,22.6961],[105.5153,22.6365],[105.583,22.6099],[105.5975,22.5503],[105.6652,22.5237],[105.6796,22.464],[105.7473,22.4375],[105.7616,22.3777],[105.8293,22.3511],[105.8435,22.2913],[105.9113,22.2648],[105.9254,22.2049],[105.9931,22.1784],[106.0071,22.1185],[106.0748,22.0919],[106.1425,22.0654],[106.1564,22.0054],[106.2242,21.9789],[106.2919,21.9523],[106.3057,21.8923],[106.3734,21.8658],[106.4411,21.8392],[106.4548,21.7792],[106.5226,21.7526],[106.5362,21.6925],[107.078,21.48],[107.0643,21.5401],[107.1321,21.5136],[107.1183,21.5736],[107.1861,21.547],[107.2538,21.5205],[107.24,21.5805],[107.3077,21.5539],[107.3754,21.5274],[107.3615,21.5873],[107.5646,21.5076],[107.5506,21.5675],[107.6184,21.541],[107.6861,21.5144],[107.672,21.5742],[107.7397,21.5477],[107.8074,21.5211],[107.8215,21.4613],[107.7538,21.4878],[107.7678,21.4279],[107.7817,21.368],[107.714,21.3946],[107.7278,21.3346],[107.6601,21.3611],[107.5924,21.3877],[107.6061,21.3276],[107.5384,21.3542],[107.552,21.2941],[107.4843,21.3207],[107.4978,21.2605],[107.4301,21.2871],[107.4435,21.2269],[107.3758,21.2534],[107.3891,21.1932],[107.3214,21.2198],[107.2537,21.2463],[107.2669,21.186],[107.1992,21.2126],[107.2124,21.1523],[107.1446,21.1788],[107.0769,21.2054],[107.09,21.145],[107.0223,21.1715],[107.0608,20.9901],[106.9931,21.0166],[107.0058,20.9561],[106.9381,20.9826],[106.9506,20.922],[106.6798,21.0282],[106.6922,20.9675],[106.4214,21.0738],[106.4337,21.013],[106.366,21.0396],[106.3783,20.9788],[106.3106,21.0054],[106.3228,20.9445],[106.3349,20.8836],[106.2671,20.9102],[106.2791,20.8493],[106.2114,20.8758],[106.2233,20.8149],[106.2351,20.7538],[106.1674,20.7804],[106.225,20.4745],[106.1573,20.501],[106.1685,20.4397],[106.1008,20.4663],[106.0331,20.4928],[106.0442,20.4315],[105.9765,20.458],[105.9876,20.3966],[105.9198,20.4231],[105.9308,20.3617],[105.7276,20.4413],[105.7385,20.3798],[105.6708,20.4064],[105.603,20.4329],[105.635,20.2481],[105.5673,20.2746],[105.5778,20.2129],[105.5101,20.2395],[105.5904,19.7439],[105.5227,19.7704],[105.5323,19.7083],[105.5418,19.6461],[105.4741,19.6726],[105.5291,19.2983],[105.5969,19.2717],[105.6057,19.2091],[105.6734,19.1826],[105.7327,18.7433],[105.8004,18.7167],[105.8085,18.6537],[105.8165,18.5907],[105.7487,18.6173],[105.681,18.6438],[105.673,18.7069],[105.665,18.7698],[105.5972,18.7964],[105.5295,18.8229],[105.5213,18.8858],[105.5131,18.9487],[105.4453,18.9753],[105.3776,19.0018],[105.3693,19.0646],[105.3015,19.0912],[105.2931,19.154],[105.2254,19.1805],[105.2168,19.2432],[105.1491,19.2698],[105.1404,19.3325],[105.0727,19.359],[105.064,19.4216],[104.9962,19.4482],[104.9874,19.5107],[104.9197,19.5373],[104.8519,19.5639],[104.843,19.6264],[104.7753,19.6529],[104.7076,19.6795],[104.6985,19.742],[104.6308,19.7685],[104.6217,19.8309],[104.554,19.8575],[104.5447,19.9199],[104.477,19.9464],[104.4093,19.973],[104.381,20.1598],[104.3133,20.1864],[104.3037,20.2485],[104.71,20.0892],[104.7003,20.1513],[104.9712,20.045],[104.9614,20.1071],[105.0291,20.0806],[105.0192,20.1426],[105.0092,20.2045],[105.0769,20.178],[105.0669,20.2399],[105.0567,20.3018],[105.1244,20.2752],[105.0613,20.6454],[105.129,20.6189],[105.0624,20.9873],[104.9947,21.0138],[104.9833,21.0751],[104.9718,21.1362],[104.9041,21.1628],[104.8924,21.2239],[104.8247,21.2505],[104.813,21.3116],[104.7453,21.3381],[104.7335,21.3992],[104.6658,21.4257],[104.6539,21.4867],[104.5861,21.5133],[104.5741,21.5742],[104.5064,21.6008],[104.4943,21.6616],[104.4266,21.6882],[104.4144,21.749],[104.3467,21.7756],[104.3344,21.8364],[104.2667,21.8629],[104.2543,21.9237],[104.1866,21.9502],[104.1741,22.0109],[104.1615,22.0716],[104.0938,22.0981],[104.0811,22.1587],[104.0134,22.1853],[104.0007,22.2458],[103.9329,22.2724],[103.9201,22.3329],[103.9071,22.3933],[103.8394,22.4199],[103.8264,22.4802],[103.7586,22.5068],[103.7455,22.5671],[103.7322,22.6274],[103.6645,22.654],[103.6512,22.7142],[103.6378,22.7744],[103.57,22.801],[103.5565,22.8611],[103.4888,22.8877],[103.4476,23.0678],[103.3799,23.0944],[103.3237,23.3339],[103.5268,23.2542],[103.5126,23.3139],[103.7157,23.2342],[103.7013,23.2939],[103.6868,23.3536],[103.7546,23.327],[103.8223,23.3005],[103.8077,23.3601],[103.793,23.4196],[103.8607,23.3931],[103.846,23.4526],[103.9137,23.426],[103.8988,23.4854],[103.9665,23.4589],[103.9516,23.5183],[104.0193,23.4917],[104.087,23.4652],[104.072,23.5245],[104.1397,23.498],[104.2074,23.4714],[104.1923,23.5307],[104.4631,23.4245],[104.4479,23.4837],[104.5156,23.4572],[104.5003,23.5164],[104.4848,23.5755],[104.5525,23.549],[104.537,23.6081],[104.6047,23.5815],[104.5891,23.6406]]],[[[106.043,18.3217],[106.1107,18.2952],[106.1785,18.2686],[106.1861,18.2054],[106.2538,18.1788],[106.3215,18.1523],[106.329,18.089],[106.3967,18.0625],[106.4644,18.0359],[106.5075,17.6553],[106.5752,17.6288],[106.582,17.5652],[106.6498,17.5386],[106.6565,17.4749],[106.6632,17.4112],[106.7309,17.3847],[106.7374,17.3209],[106.9406,17.2413],[106.947,17.1775],[107.0148,17.1509],[107.0825,17.1243],[107.0888,17.0605],[107.1566,17.0339],[107.1628,16.97],[107.169,16.9061],[107.2367,16.8795],[107.3044,16.853],[107.3105,16.789],[107.2428,16.8155],[107.2488,16.7515],[107.1811,16.778],[107.1133,16.8046],[107.1192,16.7405],[107.0515,16.7671],[107.0456,16.8312],[106.9779,16.8577],[106.9102,16.8843],[106.9042,16.9483],[106.8981,17.0123],[106.8304,17.0389],[106.7627,17.0654],[106.7565,17.1294],[106.7502,17.1933],[106.6825,17.2198],[106.6762,17.2837],[106.6084,17.3103],[106.602,17.3741],[106.5343,17.4006],[106.5143,17.5917],[106.4466,17.6183],[106.4398,17.6819],[106.4328,17.7454],[106.3651,17.772],[106.3581,17.8355],[106.2904,17.8621],[106.2832,17.9255],[106.276,17.9889],[106.2083,18.0155],[106.201,18.0788],[106.1333,18.1054],[106.1258,18.1687],[106.1183,18.232],[106.0506,18.2585],[106.043,18.3217]]]]}},{"type":"Feature","properties":{"periodId":"van-lang","name":"Không gian Âu Việt","control":"influence","confidence":"low","height":6500,"color":"#7f9661","geometrySourceId":"diaocthongthai-atlas","geometrySourceUrl":"https://cdn.diaocthongthai.com/2021/08/ban-do-lanh-tho-viet-nam-qua-cac-thoi-ky-1.jpg","geometrySourcePageUrl":"https://diaocthongthai.com/ban-do-lanh-tho-viet-nam-qua-cac-thoi-ky/","imageYear":"Văn Lang","reconstructionMethod":"georeferenced-image-color-trace","precision":"illustrative-trace","georeferenceAccuracyKm":50,"sourceIds":"museum-hung-kings,diaocthongthai-atlas","referenceSourceIds":"wikipedia-territorial-history,diaocthongthai-atlas,commons-van-lang-au-lac"},"geometry":{"type":"Polygon","coordinates":[[[105.1213,23.9042],[105.5954,23.7183],[105.6119,23.6597],[105.815,23.58],[105.8314,23.5214],[105.8991,23.4948],[105.9668,23.4682],[105.9831,23.4095],[106.1863,23.3298],[106.2025,23.2711],[106.4057,23.1914],[106.4218,23.1326],[106.6249,23.0529],[106.641,22.9941],[106.7087,22.9675],[106.7764,22.9409],[106.7923,22.882],[107.0632,22.7758],[107.079,22.7168],[107.3499,22.6106],[107.3656,22.5516],[107.8397,22.3657],[107.8553,22.3066],[108.2616,22.1473],[108.2772,22.0882],[108.8866,21.8491],[108.9021,21.79],[108.9698,21.7634],[109.0375,21.7369],[109.0529,21.6777],[109.1206,21.6511],[109.1358,21.5918],[109.2036,21.5653],[109.2487,21.3872],[109.181,21.4138],[109.1133,21.4403],[109.0983,21.4997],[108.4888,21.7388],[108.5038,21.6794],[108.5187,21.6199],[108.3155,21.6996],[108.3303,21.6401],[108.345,21.5806],[108.2772,21.6071],[108.2918,21.5475],[108.2241,21.5741],[108.2386,21.5144],[108.1709,21.541],[108.1031,21.5676],[108.1175,21.5079],[108.0498,21.5344],[108.0641,21.4747],[107.9964,21.5012],[107.9287,21.5278],[107.9429,21.468],[107.672,21.5742],[107.6861,21.5144],[107.6184,21.541],[107.5506,21.5675],[107.5646,21.5076],[107.3615,21.5873],[107.3754,21.5274],[107.3077,21.5539],[107.24,21.5805],[107.2538,21.5205],[107.1861,21.547],[107.1183,21.5736],[107.1321,21.5136],[107.0643,21.5401],[107.078,21.48],[106.5362,21.6925],[106.5226,21.7526],[106.4548,21.7792],[106.4411,21.8392],[106.3734,21.8658],[106.3057,21.8923],[106.2919,21.9523],[106.2242,21.9789],[106.1564,22.0054],[106.1425,22.0654],[106.0748,22.0919],[106.0071,22.1185],[105.9931,22.1784],[105.9254,22.2049],[105.9113,22.2648],[105.8435,22.2913],[105.8293,22.3511],[105.7616,22.3777],[105.7473,22.4375],[105.6796,22.464],[105.6652,22.5237],[105.5975,22.5503],[105.583,22.6099],[105.5153,22.6365],[105.5007,22.6961],[105.433,22.7226],[105.4183,22.7822],[105.3506,22.8087],[105.3358,22.8682],[105.2681,22.8948],[105.2532,22.9543],[105.2383,23.0137],[105.1706,23.0402],[105.1555,23.0996],[105.1403,23.1589],[105.0726,23.1854],[105.0574,23.2447],[104.9897,23.2712],[104.9219,23.2978],[104.9066,23.357],[104.8911,23.4162],[104.8234,23.4427],[104.8079,23.5018],[104.7402,23.5284],[104.7245,23.5874],[104.6568,23.614],[104.6411,23.673],[104.6253,23.732],[104.693,23.7054],[104.6771,23.7643],[104.7448,23.7377],[104.7288,23.7966],[104.7965,23.77],[104.7804,23.8288],[104.8481,23.8023],[104.8319,23.861],[104.8996,23.8345],[104.8833,23.8932],[104.951,23.8666],[105.0188,23.8401],[105.0024,23.8987],[105.0701,23.8722],[105.1378,23.8456],[105.1213,23.9042]]]}}]}
